GPS BIIR-5  (PRN 22)    
1 26407U 00040A   26131.47043068  .00000008  00000+0  00000+0 0  9994
2 26407  54.8578 216.6207 0121434 302.3490 110.8055  2.00557385189214
GPS BIIR-8  (PRN 16)    
1 27663U 03005A   26131.21267405  .00000007  00000+0  00000+0 0  9997
2 27663  54.8889 216.4379 0148046  53.0030 309.5006  2.00562542170573
GPS BIIR-11 (PRN 19)    
1 28190U 04009A   26130.98517067 -.00000028  00000+0  00000+0 0  9997
2 28190  54.8619 277.1896 0114396 171.4377 180.8159  2.00555923162191
GPS BIIR-13 (PRN 02)    
1 28474U 04045A   26131.15525008 -.00000047  00000+0  00000+0 0  9997
2 28474  55.1577 326.3876 0169917 315.4238 224.7260  2.00554230157682
GPS BIIRM-1 (PRN 17)    
1 28874U 05038A   26131.48971132 -.00000029  00000+0  00000+0 0  9993
2 28874  54.9094 274.6578 0127719 295.9348  87.7237  2.00568209151102
INMARSAT 4-F2 (SOUTHPA*)
1 28899U 05044A   26131.37475209 -.00000248  00000+0  00000+0 0  9992
2 28899   5.0474  43.7394 0002855  10.2666  93.5770  1.00271460 75159
GPS BIIRM-2 (PRN 31)    
1 29486U 06042A   26131.11793913  .00000102  00000+0  00000+0 0  9999
2 29486  54.7051 152.8106 0106142  53.6775 319.4217  2.00571966143655
GPS BIIRM-3 (PRN 12)    
1 29601U 06052A   26129.52802080  .00000001  00000+0  00000+0 0  9995
2 29601  54.9405 215.5387 0086019  90.4547 270.5791  2.00556031142630
GPS BIIRM-4 (PRN 15)    
1 32260U 07047A   26131.32865397  .00000016  00000+0  00000+0 0  9992
2 32260  54.0690  81.5843 0165217  86.7128 275.1563  2.00557116136075
COSMOS 2433 (720)       
1 32275U 07052A   26131.78281948 -.00000009  00000+0  00000+0 0  9991
2 32275  65.5978 317.1591 0001216 190.5569 169.4607  2.13104353144287
COSMOS 2432 (719)       
1 32276U 07052B   26131.85233285 -.00000010  00000+0  00000+0 0  9993
2 32276  65.6137 317.2838 0008600 337.3402  20.0156  2.13103409144307
GPS BIIRM-5 (PRN 29)    
1 32384U 07062A   26131.14064606 -.00000028  00000+0  00000+0 0  9994
2 32384  55.0627 275.6413 0034959 163.2299 188.0453  2.00557804134768
COSMOS 2434 (721)       
1 32393U 07065A   26130.51252392  .00000043  00000+0  00000+0 0  9994
2 32393  64.3159 193.1864 0001338  41.0880 314.4141  2.13101518142960
COSMOS 2436 (723)       
1 32395U 07065C   26131.35586140  .00000051  00000+0  00000+0 0  9999
2 32395  64.3243 193.2296 0017147 357.3536  57.5959  2.13100463142940
GPS BIIRM-6 (PRN 07)    
1 32711U 08012A   26131.24306918  .00000104  00000+0  00000+0 0  9994
2 32711  54.4911 151.4008 0210278 247.3353 110.4826  2.00571452133012
GPS BIIRM-8 (PRN 05)    
1 35752U 09043A   26131.53700022 -.00000073  00000+0  00000+0 0  9999
2 35752  56.1882  28.8915 0053284  81.8002 142.8182  2.00556259122621
COSMOS 2456 (730)       
1 36111U 09070A   26129.60157291  .00000012  00000+0  00000+0 0  9990
2 36111  64.9902  72.2874 0005846 319.1625 215.4151  2.13103862127605
COSMOS 2457 (733)       
1 36112U 09070B   26131.77733587  .00000003  00000+0  00000+0 0  9990
2 36112  64.9768  72.0579 0001436 149.7183  21.7831  2.13101277127659
COSMOS 2460 (732)       
1 36402U 10007C   26131.55793229 -.00000009  00000+0  00000+0 0  9996
2 36402  65.4421 315.7062 0002330  75.4880 289.5475  2.13106456125953
GPS BIIF-1  (PRN 25)    
1 36585U 10022A   26131.56669771  .00000019  00000+0  00000+0 0  9990
2 36585  54.2743 210.0374 0126478  66.1083 297.4696  2.00560608116865
BEIDOU-2 IGSO-1 (C06)   
1 36828U 10036A   26129.56207134 -.00000068  00000+0  00000+0 0  9998
2 36828  54.2946 163.3091 0058711 224.6236 148.8612  1.00281802 57711
BEIDOU-2 G4 (C04)       
1 37210U 10057A   26131.78383697 -.00000099  00000+0  00000+0 0  9997
2 37210   3.5564  69.1451 0005504 212.0438  30.5389  1.00272951 56925
BEIDOU-2 IGSO-2 (C07)   
1 37256U 10068A   26131.68069234 -.00000217  00000+0  00000+0 0  9998
2 37256  47.6185 272.2854 0053910 212.0964  96.0853  1.00295576 56421
BEIDOU-2 IGSO-3 (C08)   
1 37384U 11013A   26131.75395624 -.00000196  00000+0  00000+0 0  9990
2 37384  62.3600  40.4988 0034014 186.6429  22.0878  1.00277207 55299
GSAT-8 (GAGAN/PRN 127)  
1 37605U 11022A   26131.47787172  .00000097  00000+0  00000+0 0  9997
2 37605   2.0358  82.2476 0003665 225.5027 148.6359  1.00271210 52853
BEIDOU-2 IGSO-4 (C09)   
1 37763U 11038A   26131.55698251  .00000061  00000+0  00000+0 0  9998
2 37763  54.6070 165.9997 0157933 230.6258 124.7084  1.00292322 54275
GSAT0101 (GALILEO-PFM)  
1 37846U 11060A   26129.13386752 -.00000065  00000+0  00000+0 0  9991
2 37846  57.0080 342.8206 0003847  35.7476 324.3172  1.70475815 90457
GSAT0102 (GALILEO-FM2)  
1 37847U 11060B   26128.76247646 -.00000066  00000+0  00000+0 0  9999
2 37847  57.0069 342.8314 0004205   8.0852 169.6345  1.70476054 90453
COSMOS 2476 (744)       
1 37867U 11064A   26131.59394439  .00000010  00000+0  00000+0 0  9991
2 37867  65.2506  74.1062 0023774 241.4161 289.9879  2.13103972112980
COSMOS 2477 (745)       
1 37868U 11064B   26131.84091676  .00000008  00000+0  00000+0 0  9994
2 37868  65.2571  74.1768 0020842 243.1045 298.2165  2.13103113112987
COSMOS 2475 (743)       
1 37869U 11064C   26129.48178144  .00000017  00000+0  00000+0 0  9998
2 37869  65.2627  74.2779 0026656 254.9839 231.7650  2.13101748112942
BEIDOU-2 IGSO-5 (C10)   
1 37948U 11073A   26131.86275206 -.00000165  00000+0  00000+0 0  9993
2 37948  47.7477 271.9945 0111687 220.6751 140.2883  1.00257075 52777
LUCH 5A (SDCM/PRN 140)  
1 37951U 11074B   26131.64252060 -.00000033  00000+0  00000+0 0  9991
2 37951   8.6615  74.3339 0002410 324.8915 228.5572  1.00274497 52687
BEIDOU-2 G5 (C05)       
1 38091U 12008A   26131.97767063  .00000071  00000+0  00000+0 0  9996
2 38091   3.4833  69.8992 0011161 272.0593 298.4359  1.00271508 52006
BEIDOU-2 M3 (C11)       
1 38250U 12018A   26131.67555656 -.00000036  00000+0  00000+0 0  9996
2 38250  55.7900 306.1056 0019756 276.9280  82.8435  1.86230151 95268
BEIDOU-2 M4 (C12)       
1 38251U 12018B   26128.92300840 -.00000036  00000+0  00000+0 0  9994
2 38251  55.6931 305.4151 0010883 282.3733  77.4996  1.86229854 95211
SES-5 (EGNOS/PRN 136)   
1 38652U 12036A   26131.53921573  .00000045  00000+0  00000+0 0  9991
2 38652   0.0587 300.3401 0002008 108.1193  19.9815  1.00273687 44083
BEIDOU-2 M6 (C14)       
1 38775U 12050B   26131.31765641 -.00000024  00000+0  00000+0 0  9999
2 38775  56.5136  64.1133 0014350 351.0924   8.8698  1.86230920 92622
GSAT-10 (GAGAN/PRN 128) 
1 38779U 12051B   26131.41214203 -.00000153  00000+0  00000+0 0  9991
2 38779   0.0057  83.0072 0007538   2.9405  14.5600  1.00271407 49732
GPS BIIF-3  (PRN 24)    
1 38833U 12053A   26131.42233823  .00000106  00000+0  00000+0 0  9991
2 38833  53.5784 145.1054 0178514  65.3181 296.5807  2.00566906 98704
GSAT0103 (GALILEO-FM3)  
1 38857U 12055A   26129.76087510  .00000056  00000+0  00000+0 0  9997
2 38857  55.7835 102.5990 0005769 297.7369  62.1840  1.70473477 84353
BEIDOU-2 G6 (C02)       
1 38953U 12059A   26131.91141081 -.00000162  00000+0  00000+0 0  9991
2 38953   4.3294  73.8973 0010692 320.5456 247.4333  1.00272642 49544
LUCH 5B (SDCM/PRN 125)  
1 38977U 12061A   26131.03600259 -.00000125  00000+0  00000+0 0  9999
2 38977  10.4047  50.2428 0000906 176.7029 358.5767  1.00271809 49237
COSMOS 2485 (747)       
1 39155U 13019A   26128.96145352  .00000019  00000+0  00000+0 0  9999
2 39155  65.3993  74.9199 0024215 236.9757 122.7813  2.13103371101447
GPS BIIF-4  (PRN 27)    
1 39166U 13023A   26130.78972807 -.00000027  00000+0  00000+0 0  9992
2 39166  54.5347 270.4965 0141844  50.8014 310.4316  2.00563687 95131
IRNSS-1A                
1 39199U 13034A   26130.90723887  .00000087  00000+0  00000+0 0  9991
2 39199  35.6409  64.4033 0016634 186.4157 359.4683  1.00276702 46993
GPS BIIF-5  (PRN 30)    
1 39533U 14008A   26131.28940414  .00000103  00000+0  00000+0 0  9993
2 39533  53.6477 150.8247 0084039 230.5288 128.7802  2.00557452 88943
ASTRA 5B (EGNOS/PRN 123)
1 39617U 14011B   26131.89939314  .00000148  00000+0  00000+0 0  9993
2 39617   0.0477 338.3525 0002488  53.7053 184.9225  1.00270865 44301
COSMOS 2492 (754)       
1 39620U 14012A   26129.38966135 -.00000011  00000+0  00000+0 0  9990
2 39620  65.3203 315.2545 0011098 329.7315  30.2203  2.13103326 94414
IRNSS-1B                
1 39635U 14017A   26124.91813348  .00000111  00000+0  00000+0 0  9992
2 39635  28.9994 241.1464 0023700 183.1232 184.0206  1.00275482 44360
LUCH 5V (SDCM/PRN 141)  
1 39727U 14023A   26131.85233954 -.00000253  00000+0  00000+0 0  9999
2 39727   5.0442  70.1013 0002946   1.8907 199.1467  1.00267102 43994
GPS BIIF-6  (PRN 06)    
1 39741U 14026A   26129.07202593 -.00000056  00000+0  00000+0 0  9995
2 39741  56.5164 333.0405 0038702 326.8434  32.9447  2.00563972 87751
COSMOS 2500 (755)       
1 40001U 14032A   26129.09065559 -.00000012  00000+0  00000+0 0  9996
2 40001  65.2556 315.0151 0005992 181.4520 178.5615  2.13106197 92620
GPS BIIF-7  (PRN 09)    
1 40105U 14045A   26131.15738155  .00000039  00000+0  00000+0 0  9992
2 40105  55.3298  89.9395 0032007 118.8352 241.4695  2.00555966 85335
GSAT0201 (GALILEO 5)    
1 40128U 14050A   26130.14893984 -.00000041  00000+0  00000+0 0  9997
2 40128  48.9172 274.9945 1668713 177.9066 182.9069  1.85519992 77611
GSAT0202 (GALILEO 6)    
1 40129U 14050B   26130.40461039 -.00000041  00000+0  00000+0 0  9999
2 40129  48.9347 274.0688 1669862 178.6457 181.8867  1.85520609 79780
IRNSS-1C                
1 40269U 14061A   26131.91115081 -.00000146  00000+0  00000+0 0  9992
2 40269   6.4264  89.6140 0022277 358.5398 192.4624  1.00275052 42325
GPS BIIF-8  (PRN 03)    
1 40294U 14068A   26131.03024580 -.00000070  00000+0  00000+0 0  9999
2 40294  56.9632  32.3866 0065909  69.3046 291.4283  2.00573942 84460
COSMOS 2501 (702K)      
1 40315U 14075A   26131.22925333  .00000053  00000+0  00000+0 0  9998
2 40315  63.6143 191.6512 0022111 210.6873 149.2568  2.13101532 89063
GPS BIIF-9  (PRN 26)    
1 40534U 15013A   26131.16585397  .00000021  00000+0  00000+0 0  9994
2 40534  53.1716 205.7089 0108950  40.0129 320.8457  2.00553594 81080
GSAT0203 (GALILEO 7)    
1 40544U 15017A   26131.25816466 -.00000060  00000+0  00000+0 0  9997
2 40544  56.7986 342.6025 0001988 312.1423  47.8822  1.70476028 68576
GSAT0204 (GALILEO 8)    
1 40545U 15017B   26130.92725694 -.00000061  00000+0  00000+0 0  9994
2 40545  56.8051 342.6300 0002020 282.0074  78.0109  1.70475668 31610
BEIDOU-3S IGSO-1S (C31) 
1 40549U 15019A   26131.91366416 -.00000168  00000+0  00000+0 0  9991
2 40549  49.2660 295.8975 0037635 190.2683 166.6274  1.00258242 40706
GPS BIIF-10 (PRN 08)    
1 40730U 15033A   26130.82648743 -.00000028  00000+0  00000+0 0  9999
2 40730  54.0130 268.6263 0115010  30.0253 330.6110  2.00558163 79249
BEIDOU-3S M2S (C58)     
1 40748U 15037A   26131.27381031 -.00000037  00000+0  00000+0 0  9996
2 40748  54.9054 303.3168 0007465 268.0236  91.8843  1.86232381 73439
BEIDOU-3S M1S (C57)     
1 40749U 15037B   26131.48573309 -.00000037  00000+0  00000+0 0  9991
2 40749  54.9010 303.2971 0004176  55.3596 304.6730  1.86254916 73444
GSAT0205 (GALILEO 9)    
1 40889U 15045A   26115.63255192 -.00000038  00000+0  00000+0 0  9992
2 40889  54.9613 223.1764 0005159 266.9978  92.9342  1.67410754 66085
GSAT0206 (GALILEO 10)   
1 40890U 15045B   26130.91590674  .00000006  00000+0  00000+0 0  9993
2 40890  54.9559 222.6337 0001772  27.2114 332.8341  1.70474023 66407
BEIDOU-3S IGSO-2S (C56) 
1 40938U 15053A   26131.83149813 -.00000165  00000+0  00000+0 0  9999
2 40938  49.2811 259.2153 0064022 190.8147 175.4917  1.00268034 38999
GPS BIIF-11 (PRN 10)    
1 41019U 15062A   26131.38250225 -.00000070  00000+0  00000+0 0  9995
2 41019  56.9358  32.2294 0111324 231.4035 127.6237  2.00567010 77097
GSAT-15 (GAGAN/PRN 139) 
1 41028U 15065A   26131.89052917 -.00000247  00000+0  00000+0 0  9998
2 41028   0.0331 250.9275 0003540 166.0082 226.8532  1.00272235 38437
GSAT0209 (GALILEO 12)   
1 41174U 15079A   26131.08387511  .00000059  00000+0  00000+0 0  9997
2 41174  55.8056 102.2786 0005648 331.9247  28.0249  1.70473999 64145
GSAT0208 (GALILEO 11)   
1 41175U 15079B   26129.54439476  .00000054  00000+0  00000+0 0  9999
2 41175  55.8030 102.3177 0004993 332.7595  27.1929  1.70473953 64538
IRNSS-1E                
1 41241U 16003A   26131.70322793 -.00000285  00000+0  00000+0 0  9992
2 41241  33.1582  60.2767 0017025 181.7897 352.2994  1.00269292 37713
GPS BIIF-12 (PRN 32)    
1 41328U 16007A   26130.97252754  .00000042  00000+0  00000+0 0  9999
2 41328  55.5019  90.9342 0096128 247.2269 111.7395  2.00553487 75092
COSMOS 2514 (751)       
1 41330U 16008A   26130.74439794 -.00000009  00000+0  00000+0 0  9993
2 41330  65.0443 314.2915 0009918 197.1517 162.8310  2.13102718 79820
BEIDOU-2 IGSO-6 (C13)   
1 41434U 16021A   26131.69984791 -.00000164  00000+0  00000+0 0  9992
2 41434  60.1769  38.4044 0057414 232.3893 305.3044  1.00265953 37113
IRNSS-1G                
1 41469U 16027A   26131.84912616 -.00000319  00000+0  00000+0 0  9992
2 41469   5.1078  98.3213 0006215 349.4425 217.1902  1.00268328 36818
GSAT0211 (GALILEO 14)   
1 41549U 16030A   26130.25506024  .00000006  00000+0  00000+0 0  9993
2 41549  55.1062 222.7382 0002510 345.0589  14.9704  1.70474161 62028
GSAT0210 (GALILEO 13)   
1 41550U 16030B   26131.09891767  .00000006  00000+0  00000+0 0  9999
2 41550  55.1062 222.7131 0002114 165.3629 194.6792  1.70474204 62032
BEIDOU-2 G7 (C03)       
1 41586U 16037A   26131.91669751 -.00000341  00000+0  00000+0 0  9995
2 41586   1.6299  68.9665 0007706 357.9864 243.3460  1.00270969  6524
EUTELSAT 117 WEST B (W*)
1 41589U 16038B   26131.51512074 -.00000001  00000+0  00000+0 0  9993
2 41589   0.0035 155.3946 0000268 218.7593 283.5884  1.00271530 36298
GSAT0207 (GALILEO 15)   
1 41859U 16069A   26129.61736481  .00000053  00000+0  00000+0 0  9991
2 41859  55.4752 102.1526 0005864 320.6044  39.3316  1.70473931 58740
GSAT0212 (GALILEO 16)   
1 41860U 16069B   26131.23059081  .00000058  00000+0  00000+0 0  9993
2 41860  55.4741 102.1031 0004735 344.8632  15.1025  1.70474049 59020
GSAT0213 (GALILEO 17)   
1 41861U 16069C   26131.01131973  .00000058  00000+0  00000+0 0  9991
2 41861  55.4763 102.1170 0005717 305.0974  54.8291  1.70474511 58880
GSAT0214 (GALILEO 18)   
1 41862U 16069D   26131.74404605  .00000058  00000+0  00000+0 0  9997
2 41862  55.4752 102.0894 0004787 311.0635  48.8742  1.70474144 59021
SES-15 (WAAS/PRN 133)   
1 42709U 17026A   26131.52197606  .00000071  00000+0  00000+0 0  9993
2 42709   0.0211 326.5911 0000576  70.7325 250.7693  1.00270536  7066
QZS-2 (QZSS/PRN 194)    
1 42738U 17028A   26131.63239337 -.00000192  00000+0  00000+0 0  9992
2 42738  39.4842 243.6916 0762576 268.8846  84.1606  1.00293584  7264
QZS-3 (QZSS/PRN 199)    
1 42917U 17048A   26131.91973087 -.00000336  00000+0  00000+0 0  9991
2 42917   0.0649 136.3603 0002037 273.7807 277.7116  1.00274068 31892
COSMOS 2522 (752)       
1 42939U 17055A   26131.05152639  .00000048  00000+0  00000+0 0  9999
2 42939  64.0765 193.1479 0009844 237.6209 122.3564  2.13102017 67187
QZS-4 (QZSS/PRN 195)    
1 42965U 17062A   26130.46506226 -.00000298  00000+0  00000+0 0  9993
2 42965  40.1305 343.9651 0745733 271.0890 280.1450  1.00262352 31429
BEIDOU-3 M1 (C19)       
1 43001U 17069A   26131.08303807 -.00000022  00000+0  00000+0 0  9996
2 43001  56.6611  64.3071 0011735 319.7088  40.1924  1.86231419 57916
BEIDOU-3 M2 (C20)       
1 43002U 17069B   26131.02189088 -.00000022  00000+0  00000+0 0  9994
2 43002  56.6651  64.3454 0009686  17.2758 342.7452  1.86231163 57904
GSAT0215 (GALILEO 19)   
1 43055U 17079A   26129.30120246  .00000007  00000+0  00000+0 0  9994
2 43055  55.0850 222.5767 0001242 260.9196  99.1051  1.70474855 52323
GSAT0216 (GALILEO 20)   
1 43056U 17079B   26130.76553145  .00000006  00000+0  00000+0 0  9994
2 43056  55.0842 222.5365 0002138 282.0376  77.9750  1.70474912 52367
GSAT0217 (GALILEO 21)   
1 43057U 17079C   26130.98631227  .00000006  00000+0  00000+0 0  9997
2 43057  55.0824 222.5283 0002398 300.6268  59.3860  1.70474863 52352
GSAT0218 (GALILEO 22)   
1 43058U 17079D   26131.20637593  .00000006  00000+0  00000+0 0  9996
2 43058  55.0824 222.5198 0004901 272.4051  87.5752  1.70474690 52380
BEIDOU-3 M7 (C27)       
1 43107U 18003A   26131.30027513 -.00000039  00000+0  00000+0 0  9992
2 43107  54.3621 303.6010 0005223  84.5737 275.4797  1.86228323 56666
BEIDOU-3 M8 (C28)       
1 43108U 18003B   26131.78256962 -.00000040  00000+0  00000+0 0  9999
2 43108  54.3545 303.5661 0002144 278.5101  81.4584  1.86231274 56682
BEIDOU-3 M4 (C22)       
1 43207U 18018A   26131.15131604 -.00000022  00000+0  00000+0 0  9991
2 43207  56.6202  64.3701 0007751   5.9408 354.0562  1.86231364 56051
BEIDOU-3 M3 (C21)       
1 43208U 18018B   26131.21777272 -.00000022  00000+0  00000+0 0  9996
2 43208  56.6194  64.3718 0009642 332.4369  27.4998  1.86231284 56050
BEIDOU-3 M9 (C29)       
1 43245U 18029A   26131.43542142 -.00000038  00000+0  00000+0 0  9996
2 43245  54.2290 301.2342 0000814 100.4539 259.5462  1.86228428 55219
BEIDOU-3 M10 (C30)      
1 43246U 18029B   26130.83301457 -.00000037  00000+0  00000+0 0  9991
2 43246  54.2269 301.2814 0004634  36.1850 323.8380  1.86229419 55186
IRNSS-1I                
1 43286U 18035A   26129.90946258  .00000103  00000+0  00000+0 0  9995
2 43286  29.0854  74.7911 0017579 208.1729 327.3240  1.00269628 29691
COSMOS 2527 (756)       
1 43508U 18053A   26130.54369296  .00000017  00000+0  00000+0 0  9999
2 43508  65.5577  75.1624 0008142 246.5326 113.3712  2.13102285 61475
BEIDOU-2 IGSO-7 (C16)   
1 43539U 18057A   26130.51871762 -.00000011  00000+0  00000+0 0  9995
2 43539  55.1875 163.3876 0104003 237.7354 126.1724  1.00262765 28754
GSAT0221 (GALILEO 25)   
1 43564U 18060A   26129.93701904 -.00000062  00000+0  00000+0 0  9997
2 43564  57.1809 342.8137 0004311 308.7683  51.2333  1.70475907 48511
GSAT0222 (GALILEO 26)   
1 43565U 18060B   26131.32982835 -.00000059  00000+0  00000+0 0  9994
2 43565  57.1842 342.7796 0001996 279.2270  80.7923  1.70475529 48588
GSAT0219 (GALILEO 23)   
1 43566U 18060C   26129.79101278 -.00000062  00000+0  00000+0 0  9991
2 43566  57.1839 342.8226 0003067 333.7463  26.2781  1.70475821 48532
GSAT0220 (GALILEO 24)   
1 43567U 18060D   26130.59856089 -.00000060  00000+0  00000+0 0  9997
2 43567  57.1835 342.8017 0003121 326.9272  33.0943  1.70475765 48533
BEIDOU-3 M5 (C23)       
1 43581U 18062A   26131.05721493  .00000064  00000+0  00000+0 0  9990
2 43581  54.0834 183.5668 0004816 288.0350  71.9915  1.86229011 52941
BEIDOU-3 M6 (C24)       
1 43582U 18062B   26129.30962619  .00000044  00000+0  00000+0 0  9991
2 43582  54.0831 183.6153 0004808  18.9796 341.1148  1.86227992 52917
BEIDOU-3 M12 (C26)      
1 43602U 18067A   26129.24802271  .00000046  00000+0  00000+0 0  9991
2 43602  54.1783 182.3610 0007840  32.7480 327.3771  1.86227965 52394
BEIDOU-3 M11 (C25)      
1 43603U 18067B   26130.45689292  .00000059  00000+0  00000+0 0  9997
2 43603  54.1758 182.2838 0004442  18.1454 341.9481  1.86227411 52444
BEIDOU-3 M13 (C32)      
1 43622U 18072A   26130.94890811 -.00000023  00000+0  00000+0 0  9991
2 43622  56.5935  63.8882 0008404 321.1240  38.8044  1.86231548 51962
BEIDOU-3 M14 (C33)      
1 43623U 18072B   26131.35130101 -.00000024  00000+0  00000+0 0  9998
2 43623  56.5960  63.8690 0006663 346.0258  13.9438  1.86231559 51961
BEIDOU-3 M16 (C35)      
1 43647U 18078A   26129.35942515 -.00000037  00000+0  00000+0 0  9991
2 43647  54.1265 301.3466 0007924  39.4697 320.5792  1.86232384 51430
BEIDOU-3 M15 (C34)      
1 43648U 18078B   26131.09956331 -.00000038  00000+0  00000+0 0  9998
2 43648  54.1206 301.2863 0005058  51.6286 308.4083  1.86232622 51480
BEIDOU-3 G1 (C59)       
1 43683U 18085A   26131.92649090 -.00000094  00000+0  00000+0 0  9990
2 43683   2.9820  98.3292 0007652 338.6111 286.2910  1.00273003 27691
COSMOS 2529 (757)       
1 43687U 18086A   26131.10973735  .00000048  00000+0  00000+0 0  9999
2 43687  64.2928 193.8462 0010965 255.3698 104.5808  2.13102042 58490
BEIDOU-3 M17 (C36)      
1 43706U 18093A   26131.35359073  .00000068  00000+0  00000+0 0  9991
2 43706  54.1670 183.5464 0009480 290.8488 131.5748  1.86228417 50852
BEIDOU-3 M18 (C37)      
1 43707U 18093B   26131.12349789  .00000065  00000+0  00000+0 0  9997
2 43707  54.1678 183.5463 0007319 322.2688  37.7592  1.86226925 50846
GPS BIII-1  (PRN 04)    
1 43873U 18109A   26131.37380661  .00000047  00000+0  00000+0 0  9990
2 43873  55.6601  93.6388 0038065 198.7607 344.2455  2.00560025 54339
BEIDOU-3 IGSO-1 (C38)   
1 44204U 19023A   26131.75131156 -.00000223  00000+0  00000+0 0  9997
2 44204  58.6454  38.0276 0023914 234.3447 343.0032  1.00250952  6847
BEIDOU-2 G8 (C01)       
1 44231U 19027A   26131.85207285 -.00000234  00000+0  00000+0 0  9991
2 44231   1.5655  74.4131 0010965 282.1620 324.3309  1.00273953 25719
COSMOS 2534 (758)       
1 44299U 19030A   26130.46780834  .00000041  00000+0  00000+0 0  9996
2 44299  64.3663 193.8862 0012337 276.0898  85.9352  2.13102604 54124
BEIDOU-3 IGSO-2 (C39)   
1 44337U 19035A   26130.52174663 -.00000065  00000+0  00000+0 0  9995
2 44337  55.2384 159.1933 0039671 215.7274 161.0970  1.00278958 25297
GPS BIII-2  (PRN 18)    
1 44506U 19056A   26130.25825404 -.00000053  00000+0  00000+0 0  9999
2 44506  55.6545 332.6508 0060147 197.3681 162.7587  2.00569435 49318
BEIDOU-3 M24 (C46)      
1 44542U 19061A   26131.19261955  .00000065  00000+0  00000+0 0  9996
2 44542  54.3946 183.9757 0008080   3.2774 356.8074  1.86229261 45101
BEIDOU-3 M23 (C45)      
1 44543U 19061B   26131.34946017  .00000067  00000+0  00000+0 0  9995
2 44543  54.3931 183.9390 0005138 344.4737  32.5944  1.86227672 45118
EUTELSAT 5 WEST B (EGN*)
1 44624U 19067A   26131.93933442 -.00000031  00000+0  00000+0 0  9996
2 44624   0.0662 349.8377 0003100  58.5266 154.5286  1.00271239 24072
BEIDOU-3 IGSO-3 (C40)   
1 44709U 19073A   26120.85038409 -.00000212  00000+0  00000+0 0  9996
2 44709  54.8842 281.4069 0042404 188.8195 170.9972  1.00251230 23982
BEIDOU-3 M22 (C44)      
1 44793U 19078A   26131.03190575 -.00000038  00000+0  00000+0 0  9995
2 44793  53.9711 301.1346 0007176  47.2274 312.8242  1.86227517 43952
BEIDOU-3 M21 (C43)      
1 44794U 19078B   26130.09800295 -.00000037  00000+0  00000+0 0  9997
2 44794  53.9450 301.1295 0004992  44.9662 315.0658  1.86228028 43947
COSMOS 2544 (759)       
1 44850U 19088A   26130.95764889  .00000015  00000+0  00000+0 0  9999
2 44850  65.5460  74.9726 0014546 261.4033  98.4208  2.13102139 49920
BEIDOU-3 M19 (C41)      
1 44864U 19090A   26128.49025716 -.00000021  00000+0  00000+0 0  9990
2 44864  56.5258  64.1028 0019338 296.1784 262.9647  1.86231851 43492
BEIDOU-3 M20 (C42)      
1 44865U 19090B   26129.95773515 -.00000020  00000+0  00000+0 0  9999
2 44865  56.5288  64.0890 0017011 308.9514 243.6595  1.86231713 43508
BEIDOU-3 G2 (C60)       
1 45344U 20017A   26131.98191733 -.00000128  00000+0  00000+0 0  9994
2 45344   2.7912  46.7610 0002754   6.7772 249.7629  1.00273334 22897
COSMOS 2545 (760)       
1 45358U 20018A   26131.62217674 -.00000011  00000+0  00000+0 0  9995
2 45358  64.3776 313.7043 0007240 235.7483 124.1982  2.13102757 47888
BEIDOU-3 G3 (C61)       
1 45807U 20040A   26131.98798403 -.00000341  00000+0  00000+0 0  9998
2 45807   2.3581  67.3410 0003458 333.8518 294.7626  1.00276303 21705
GPS BIII-3  (PRN 23)    
1 45854U 20041A   26131.60465042 -.00000072  00000+0  00000+0 0  9991
2 45854  56.6469  30.3638 0062614 204.8525 347.3313  2.00559506 43308
GALAXY 30 (WAAS/PRN 135)
1 46114U 20056C   26131.62154910  .00000000  00000+0  00000+0 0  9998
2 46114   0.0120 291.1425 0002440 135.6043 261.4145  1.00270133 20920
COSMOS 2547 (705K)      
1 46805U 20075A   26125.24171473  .00000033  00000+0  00000+0 0  9996
2 46805  64.5969 193.9081 0008440 236.6486 123.3485  2.13100494 42990
GPS BIII-4  (PRN 14)    
1 46826U 20078A   26129.38239204  .00000003  00000+0  00000+0 0  9995
2 46826  53.9858 212.3527 0071729 206.0993 156.6530  2.00564990 40738
GPS BIII-5  (PRN 11)    
1 48859U 21054A   26129.62249819 -.00000058  00000+0  00000+0 0  9999
2 48859  55.1919 334.0107 0024328 229.2058 132.7073  2.00571667 35983
QZS-1R (QZSS/PRN 196)   
1 49336U 21096A   26131.73655836 -.00000197  00000+0  00000+0 0  9995
2 49336  37.3883  80.1221 0752295 271.1006 279.0052  1.00268135 16648
GSAT0223 (GALILEO 27)   
1 49809U 21116A   26131.33586507 -.00000059  00000+0  00000+0 0  9994
2 49809  57.1731 342.6714 0000571 234.4904 308.8517  1.70475869 27550
GSAT0224 (GALILEO 28)   
1 49810U 21116B   26131.13623872 -.00000059  00000+0  00000+0 0  9991
2 49810  57.1741 342.6756 0000328  94.8403  78.6024  1.70475916 27571
COSMOS 2557 (706K)      
1 52984U 22075A   26131.03742718 -.00000012  00000+0  00000+0 0  9991
2 52984  64.3205 315.7944 0010099 280.3668  79.5372  2.13102369 29927
COSMOS 2559 (707K)      
1 54031U 22130A   26130.85697598 -.00000012  00000+0  00000+0 0  9992
2 54031  64.2936 315.8848 0011772 176.1333 183.8938  2.13101551 27899
COSMOS 2564 (761)       
1 54377U 22161A   26130.70035927  .00000044  00000+0  00000+0 0  9999
2 54377  64.7391 193.9557 0011479 221.7693 138.2145  2.13102000 26831
GPS BIII-6  (PRN 28)    
1 55268U 23009A   26126.56820279  .00000055  00000+0  00000+0 0  9994
2 55268  55.1158 150.1548 0005801 314.7345  39.4736  2.00574558 24406
BEIDOU-3 G4 (C62)       
1 56564U 23066A   26131.92224421 -.00000272  00000+0  00000+0 0  9992
2 56564   0.5352 322.8637 0003516 160.4508 218.3851  1.00266706 11034
NVS-01 (IRNSS-1J)       
1 56759U 23076A   26131.92042420 -.00000325  00000+0  00000+0 0  9995
2 56759   2.2529 245.9569 0004294  55.9198  28.7596  1.00271469 10750
COSMOS 2569 (703K)      
1 57517U 23114A   26131.18203020  .00000011  00000+0  00000+0 0  9995
2 57517  65.2824  73.8678 0012002 296.0695  63.7959  2.13103733 21471
BEIDOU-3 M28 (C50)      
1 58654U 23207A   26131.24911002 -.00000026  00000+0  00000+0 0  9991
2 58654  55.7216  63.5491 0004270 329.6034  30.3603  1.86229722 16151
BEIDOU-3 M26 (C48)      
1 58655U 23207B   26131.04660550 -.00000025  00000+0  00000+0 0  9998
2 58655  55.7236  63.5423 0004517 309.1836  50.7652  1.86229720 16132
GSAT0225 (GALILEO 29)   
1 59598U 24079A   26131.75163814  .00000058  00000+0  00000+0 0  9997
2 59598  55.0953 102.0976 0002512 280.1927 264.1301  1.70474300 12690
GSAT0227 (GALILEO 30)   
1 59600U 24079C   26130.46152111  .00000056  00000+0  00000+0 0  9994
2 59600  55.0921 102.1320 0001489  22.6249 337.3619  1.70474320 12722
GSAT0232 (GALILEO 32)   
1 61182U 24167A   26131.39486815  .00000007  00000+0  00000+0 0  9990
2 61182  55.1957 222.3234 0005259 216.9520 211.3806  1.70474522 10257
GSAT0226 (GALILEO 31)   
1 61183U 24167B   26129.37367709  .00000007  00000+0  00000+0 0  9996
2 61183  55.1952 222.3860 0002062 204.5286 154.6885  1.70474570 10180
BEIDOU-3 M25 (C47)      
1 61186U 24168B   26131.38196060 -.00000038  00000+0  00000+0 0  9999
2 61186  54.5076 303.5215 0003163 314.2188  27.8013  1.86230138 11094
BEIDOU-3 M27 (C49)      
1 61187U 24168C   26129.05472400 -.00000038  00000+0  00000+0 0  9996
2 61187  54.5049 303.5853 0002347  41.6147 315.1318  1.86230358  8521
GPS BIII-7  (PRN 01)    
1 62339U 24242A   26131.19106406 -.00000056  00000+0  00000+0 0  9997
2 62339  54.8655 335.6820 0017049   3.2250 171.7547  2.00570943 10517
NVS-02 (IRNSS-1K)       
1 62850U 25020A   26131.70115949  .00000371  00000+0  55156-3 0  9994
2 62850  20.7685 272.5602 7348441 125.0555 326.6346  2.17919057 10180
QZS-6 (QZSS/PRN 200)    
1 62876U 25023A   26131.89052917 -.00000221  00000+0  00000+0 0  9999
2 62876   0.0680  79.8770 0002643 337.3576 223.5335  1.00269594  4599
COSMOS 2584 (704K)      
1 63130U 25042A   26131.53817502  .00000010  00000+0  00000+0 0  9999
2 63130  65.0648  74.0474 0006374 235.1904 124.7376  2.13103766  9260
GPS BIII-8  (PRN 21)    
1 64202U 25116A   26120.52613794 -.00000106  00000+0  00000+0 0  9993
2 64202  55.2044  33.0485 0009186 336.4638 239.4024  2.00549603  6915
COSMOS 2596 (708K)      
1 65590U 25206B   26131.85215951 -.00000012  00000+0  00000+0 0  9991
2 65590  64.6569 316.2509 0011359 315.8452  41.7221  2.13100614  5130
GSAT0233 (GALILEO 33)   
1 67160U 25302A   26129.51737545  .00000052  00000+0  00000+0 0  9994
2 67160  54.3112 103.2321 0002015 243.6096 300.2883  1.70474487  2466
GSAT0234 (GALILEO 34)   
1 67162U 25302C   26131.57381777  .00000058  00000+0  00000+0 0  9993
2 67162  54.3141 103.1727 0003818 297.1874 248.9090  1.70474393  2553
GPS BIII-9  (PRN 20)    
1 67588U 26017A   26131.30387553  .00000038  00000+0  00000+0 0  9996
2 67588  55.0654  90.2350 0023085 255.2038 104.5234  2.00571918430877
GPS BIII-10 (PRN 13)    
1 68791U 26087A   26131.62585228  .00000021  00000+0  00000+0 0  9996
2 68791  54.9867 209.2339 0004342 263.1461 174.6098  2.00585439   108
