GPS BIIR-5  (PRN 22)    
1 26407U 00040A   26139.61425368  .00000020  00000+0  00000+0 0  9999
2 26407  54.8559 216.2973 0121377 302.3560 230.8914  2.00557393189376
GPS BIIR-8  (PRN 16)    
1 27663U 03005A   26139.68543957  .00000019  00000+0  00000+0 0  9998
2 27663  54.8868 216.1014 0147974  53.0174 307.2353  2.00562030170731
GPS BIIR-11 (PRN 19)    
1 28190U 04009A   26137.97334744 -.00000030  00000+0  00000+0 0  9995
2 28190  54.8559 276.9074 0114771 171.7380 186.1469  2.00555587162338
GPS BIIR-13 (PRN 02)    
1 28474U 04045A   26139.13074609 -.00000070  00000+0  00000+0 0  9995
2 28474  55.1533 326.0661 0169836 315.6449 222.9389  2.00554454157847
GPS BIIRM-1 (PRN 17)    
1 28874U 05038A   26139.40235043 -.00000028  00000+0  00000+0 0  9996
2 28874  54.9026 274.3386 0127705 295.9756  41.1421  2.00567559151251
INMARSAT 4-F2 (SOUTHPA*)
1 28899U 05044A   26138.69141983 -.00000260  00000+0  00000+0 0  9997
2 28899   5.0584  43.7406 0002748  13.7227 211.3181  1.00270998 75226
GPS BIIRM-2 (PRN 31)    
1 29486U 06042A   26140.18343903  .00000056  00000+0  00000+0 0  9994
2 29486  54.7064 152.4505 0106195  53.8185  25.3214  2.00571375143837
GPS BIIRM-3 (PRN 12)    
1 29601U 06052A   26138.00419502  .00000040  00000+0  00000+0 0  9994
2 29601  54.9389 215.2027 0085788  90.5584 270.4981  2.00556446142802
GPS BIIRM-4 (PRN 15)    
1 32260U 07047A   26139.80475677 -.00000014  00000+0  00000+0 0  9990
2 32260  54.0753  81.2350 0165841  86.8448 275.0221  2.00556553136247
COSMOS 2433 (720)       
1 32275U 07052A   26136.00612854 -.00000028  00000+0  00000+0 0  9996
2 32275  65.5957 317.0165 0001561 187.3531 172.6516  2.13104036144379
COSMOS 2432 (719)       
1 32276U 07052B   26140.07038166 -.00000037  00000+0  00000+0 0  9997
2 32276  65.6093 317.0067 0008152 336.0803 205.8746  2.13103097144483
GPS BIIRM-5 (PRN 29)    
1 32384U 07062A   26139.86947080 -.00000030  00000+0  00000+0 0  9990
2 32384  55.0554 275.2905 0035184 163.7724   9.9903  2.00558255134940
COSMOS 2434 (721)       
1 32393U 07065A   26138.12313759  .00000069  00000+0  00000+0 0  9992
2 32393  64.3157 192.9296 0001038  15.7425  58.3480  2.13101438143135
COSMOS 2436 (723)       
1 32395U 07065C   26139.25878034  .00000053  00000+0  00000+0 0  9994
2 32395  64.3245 192.9633 0017159 356.4262   1.3271  2.13100199143101
GPS BIIRM-6 (PRN 07)    
1 32711U 08012A   26140.21705539  .00000056  00000+0  00000+0 0  9999
2 32711  54.4928 151.0420 0210573 247.4737 110.3065  2.00571625133194
GPS BIIRM-8 (PRN 05)    
1 35752U 09043A   26139.95027565 -.00000082  00000+0  00000+0 0  9997
2 35752  56.1932  28.5608 0053428  82.0695  97.0936  2.00555666122791
COSMOS 2456 (730)       
1 36111U 09070A   26138.53096630 -.00000014  00000+0  00000+0 0  9994
2 36111  64.9950  71.9832 0005635 322.1127 222.8281  2.13103733127798
COSMOS 2457 (733)       
1 36112U 09070B   26139.29482977 -.00000012  00000+0  00000+0 0  9990
2 36112  64.9809  71.8019 0001600 139.9750  38.6507  2.13101094127817
COSMOS 2460 (732)       
1 36402U 10007C   26136.70942285 -.00000031  00000+0  00000+0 0  9991
2 36402  65.4389 315.5319 0002205  80.0171 277.1198  2.13106192126059
GPS BIIF-1  (PRN 25)    
1 36585U 10022A   26137.60907735  .00000049  00000+0  00000+0 0  9999
2 36585  54.2733 209.7940 0126408  66.1106 340.3358  2.00560837116987
BEIDOU-2 IGSO-1 (C06)   
1 36828U 10036A   26132.68902604 -.00000041  00000+0  00000+0 0  9990
2 36828  54.2951 163.2807 0058855 224.5644 197.8413  1.00282752 57743
BEIDOU-2 G4 (C04)       
1 37210U 10057A   26140.26828645 -.00000117  00000+0  00000+0 0  9998
2 37210   3.5787  69.0966 0005787 208.2235 217.1770  1.00271636 57014
BEIDOU-2 IGSO-2 (C07)   
1 37256U 10068A   26137.67739373 -.00000224  00000+0  00000+0 0  9999
2 37256  47.6069 272.2104 0054652 211.9480 101.4506  1.00292865 56485
BEIDOU-2 IGSO-3 (C08)   
1 37384U 11013A   26134.75077336 -.00000206  00000+0  00000+0 0  9992
2 37384  62.3634  40.4703 0033942 185.9417  24.6219  1.00276202 55324
GSAT-8 (GAGAN/PRN 127)  
1 37605U 11022A   26140.17618990  .00000080  00000+0  00000+0 0  9997
2 37605   2.0604  82.1412 0003543 221.1152  53.0875  1.00272842 52935
BEIDOU-2 IGSO-4 (C09)   
1 37763U 11038A   26140.04091486  .00000022  00000+0  00000+0 0  9996
2 37763  54.5939 165.9235 0158516 231.3451 307.1537  1.00290448 54361
GSAT0101 (GALILEO-PFM)  
1 37846U 11060A   26138.51921061 -.00000076  00000+0  00000+0 0  9993
2 37846  57.0042 342.5656 0003697  40.2031 319.8521  1.70475570 90615
GSAT0102 (GALILEO-FM2)  
1 37847U 11060B   26139.60232310 -.00000080  00000+0  00000+0 0  9992
2 37847  57.0073 342.5367 0003976  10.3558 340.0246  1.70475812 90632
COSMOS 2476 (744)       
1 37867U 11064A   26138.12803505 -.00000012  00000+0  00000+0 0  9999
2 37867  65.2542  73.8857 0023555 241.1828 262.9765  2.13103791113123
COSMOS 2477 (745)       
1 37868U 11064B   26139.35402691 -.00000008  00000+0  00000+0 0  9992
2 37868  65.2612  73.9237 0020627 242.8323 302.2965  2.13102954113142
COSMOS 2475 (743)       
1 37869U 11064C   26139.35380826 -.00000008  00000+0  00000+0 0  9998
2 37869  65.2679  73.9448 0026298 254.5881 245.6103  2.13101637113151
BEIDOU-2 IGSO-5 (C10)   
1 37948U 11073A   26139.85233103 -.00000183  00000+0  00000+0 0  9990
2 37948  47.7316 271.8942 0112098 220.6126 144.0394  1.00254913 52854
LUCH 5A (SDCM/PRN 140)  
1 37951U 11074B   26140.12705157 -.00000053  00000+0  00000+0 0  9996
2 37951   8.6850  74.2097 0002185 332.0879  44.3619  1.00274822 52775
BEIDOU-2 G5 (C05)       
1 38091U 12008A   26140.17696991  .00000053  00000+0  00000+0 0  9999
2 38091   3.5051  69.8510 0010934 270.0550  20.3205  1.00272990 52089
BEIDOU-2 M3 (C11)       
1 38250U 12018A   26139.72990418 -.00000057  00000+0  00000+0 0  9992
2 38250  55.7829 305.8341 0019742 276.0287  83.7229  1.86229767 95413
BEIDOU-2 M4 (C12)       
1 38251U 12018B   26137.51432167 -.00000055  00000+0  00000+0 0  9998
2 38251  55.6853 305.1252 0010929 280.3706  79.4822  1.86229518 95376
SES-5 (EGNOS/PRN 136)   
1 38652U 12036A   26140.20947628  .00000029  00000+0  00000+0 0  9996
2 38652   0.0538 305.7393 0001862 106.8211 265.7078  1.00271351 44179
BEIDOU-2 M6 (C14)       
1 38775U 12050B   26139.90895852 -.00000041  00000+0  00000+0 0  9999
2 38775  56.5208  63.8292 0014259 352.6403   7.3328  1.86230903 92783
GSAT-10 (GAGAN/PRN 128) 
1 38779U 12051B   26140.11041150 -.00000168  00000+0  00000+0 0  9993
2 38779   0.0581 262.5252 0007260 179.9433 278.0067  1.00272924 49814
GPS BIIF-3  (PRN 24)    
1 38833U 12053A   26139.39937253  .00000056  00000+0  00000+0 0  9997
2 38833  53.5802 144.7785 0178823  65.3880 296.4803  2.00566974 98867
GSAT0103 (GALILEO-FM3)  
1 38857U 12055A   26139.73280988  .00000020  00000+0  00000+0 0  9990
2 38857  55.7885 102.3256 0005571 299.8602  60.0343  1.70473318 84523
BEIDOU-2 G6 (C02)       
1 38953U 12059A   26139.89674179 -.00000179  00000+0  00000+0 0  9993
2 38953   4.3507  73.8111 0010207 320.2106 250.4215  1.00270182 49625
LUCH 5B (SDCM/PRN 125)  
1 38977U 12061A   26140.01950809 -.00000144  00000+0  00000+0 0  9997
2 38977  10.4249  50.1566 0001637 178.5329 359.6946  1.00269906 49324
COSMOS 2485 (747)       
1 39155U 13019A   26139.28515061 -.00000007  00000+0  00000+0 0  9992
2 39155  65.4047  74.5741 0023806 236.3493 123.4112  2.13103244101666
GPS BIIF-4  (PRN 27)    
1 39166U 13023A   26139.26556125 -.00000025  00000+0  00000+0 0  9993
2 39166  54.5277 270.1514 0141802  50.8716 310.3655  2.00563554 95300
IRNSS-1A                
1 39199U 13034A   26130.90723887  .00000087  00000+0  00000+0 0  9991
2 39199  35.6409  64.4033 0016634 186.4157 359.4683  1.00276702 46993
GPS BIIF-5  (PRN 30)    
1 39533U 14008A   26140.26398110  .00000054  00000+0  00000+0 0  9996
2 39533  53.6495 150.4585 0084132 230.7604 128.5121  2.00557937 89123
ASTRA 5B (EGNOS/PRN 123)
1 39617U 14011B   26139.52817274  .00000136  00000+0  00000+0 0  9998
2 39617   0.0478   5.3430 0002186  31.6226  53.9095  1.00273814 44385
COSMOS 2492 (754)       
1 39620U 14012A   26138.30555784 -.00000035  00000+0  00000+0 0  9992
2 39620  65.3152 314.9514 0010963 329.1822  30.7487  2.13103191 94606
IRNSS-1B                
1 39635U 14017A   26139.86086405  .00000103  00000+0  00000+0 0  9999
2 39635  28.9733 240.8911 0024226 185.2284 176.5740  1.00280229 44519
LUCH 5V (SDCM/PRN 141)  
1 39727U 14023A   26139.85233103 -.00000273  00000+0  00000+0 0  9995
2 39727   5.0639  70.0206 0001827  11.2572 197.8244  1.00273753 44072
GPS BIIF-6  (PRN 06)    
1 39741U 14026A   26139.54226747 -.00000073  00000+0  00000+0 0  9994
2 39741  56.5117 332.6324 0038515 326.8833  32.8887  2.00563006 87967
COSMOS 2500 (755)       
1 40001U 14032A   26133.78320435 -.00000016  00000+0  00000+0 0  9998
2 40001  65.2537 314.8550 0006428 181.4566 178.5543  2.13106574 92724
GPS BIIF-7  (PRN 09)    
1 40105U 14045A   26140.13212900  .00000003  00000+0  00000+0 0  9996
2 40105  55.3358  89.5822 0032290 118.5671 241.7267  2.00556445 85519
GSAT0201 (GALILEO 5)    
1 40128U 14050A   26138.77271724 -.00000044  00000+0  00000+0 0  9999
2 40128  48.9077 274.6415 1670109 178.2451 182.4490  1.85519820 77778
GSAT0202 (GALILEO 6)    
1 40129U 14050B   26139.02835990 -.00000043  00000+0  00000+0 0  9999
2 40129  48.9252 273.7160 1671271 178.9822 181.4323  1.85520448 79944
IRNSS-1C                
1 40269U 14061A   26139.89656845 -.00000165  00000+0  00000+0 0  9996
2 40269   6.4463  89.4642 0022493 359.2676 194.5862  1.00273820 42405
GPS BIIF-8  (PRN 03)    
1 40294U 14068A   26140.00431397 -.00000078  00000+0  00000+0 0  9992
2 40294  56.9688  32.0407 0066232  69.5799 291.1702  2.00574345 84647
COSMOS 2501 (702K)      
1 40315U 14075A   26138.73741775  .00000061  00000+0  00000+0 0  9996
2 40315  63.6142 191.3916 0022288 211.1583 148.7943  2.13101330 89221
GPS BIIF-9  (PRN 26)    
1 40534U 15013A   26140.14068465  .00000020  00000+0  00000+0 0  9993
2 40534  53.1703 205.3377 0109037  40.0219 320.8549  2.00553030 81266
GSAT0203 (GALILEO 7)    
1 40544U 15017A   26138.88370209 -.00000078  00000+0  00000+0 0  9992
2 40544  56.7962 342.3941 0002350 296.3175  63.6842  1.70475852 68702
GSAT0204 (GALILEO 8)    
1 40545U 15017B   26137.96626125 -.00000074  00000+0  00000+0 0  9998
2 40545  56.8028 342.4377 0001854 272.9045  87.1039  1.70475429 31737
BEIDOU-3S IGSO-1S (C31) 
1 40549U 15019A   26139.90580578 -.00000182  00000+0  00000+0 0  9991
2 40549  49.2496 295.7994 0038085 190.0333 171.4751  1.00255553 40798
GPS BIIF-10 (PRN 08)    
1 40730U 15033A   26138.80395372 -.00000023  00000+0  00000+0 0  9997
2 40730  54.0064 268.2976 0115012  30.0973 330.5439  2.00557665 79400
BEIDOU-3S M2S (C58)     
1 40748U 15037A   26139.86499328 -.00000057  00000+0  00000+0 0  9990
2 40748  54.8965 303.0209 0007633 265.6471  94.2410  1.86231895 73596
BEIDOU-3S M1S (C57)     
1 40749U 15037B   26139.00208343 -.00000056  00000+0  00000+0 0  9991
2 40749  54.8942 303.0383 0004029  57.2164 302.7967  1.86254720 73580
GSAT0205 (GALILEO 9)    
1 40889U 15045A   26115.63255192 -.00000038  00000+0  00000+0 0  9992
2 40889  54.9613 223.1764 0005159 266.9978  92.9342  1.67410754 66085
GSAT0206 (GALILEO 10)   
1 40890U 15045B   26138.54153424  .00000018  00000+0  00000+0 0  9991
2 40890  54.9534 222.4232 0001595  17.2702 342.8037  1.70473897 66532
BEIDOU-3S IGSO-2S (C56) 
1 40938U 15053A   26139.81066756 -.00000155  00000+0  00000+0 0  9998
2 40938  49.2678 259.1193 0064789 191.1600 175.3820  1.00265174 39075
GPS BIIF-11 (PRN 10)    
1 41019U 15062A   26139.85830145 -.00000078  00000+0  00000+0 0  9998
2 41019  56.9411  31.9026 0111371 231.3358 127.7022  2.00567065 77267
GSAT-15 (GAGAN/PRN 139) 
1 41028U 15065A   26140.11275058 -.00000261  00000+0  00000+0 0  9992
2 41028   0.0139 242.1860 0003485 177.5981 312.0767  1.00270322 38511
GSAT0209 (GALILEO 12)   
1 41174U 15079A   26139.29601999  .00000020  00000+0  00000+0 0  9995
2 41174  55.8114 102.0535 0005617 334.2661  25.6545  1.70473831 64284
GSAT0208 (GALILEO 11)   
1 41175U 15079B   26138.34313006  .00000021  00000+0  00000+0 0  9991
2 41175  55.8088 102.0767 0005091 335.0314  24.8914  1.70473736 64681
IRNSS-1E                
1 41241U 16003A   26139.69504763 -.00000313  00000+0  00000+0 0  9999
2 41241  33.1748  60.1621 0017810 180.9890 358.1623  1.00277653 37793
GPS BIIF-12 (PRN 32)    
1 41328U 16007A   26139.94740867  .00000005  00000+0  00000+0 0  9991
2 41328  55.5075  90.5786 0096074 247.2890 111.6621  2.00552906 75278
COSMOS 2514 (751)       
1 41330U 16008A   26139.19105092 -.00000036  00000+0  00000+0 0  9992
2 41330  65.0395 314.0013 0010228 196.8737 163.0853  2.13102532 80000
BEIDOU-2 IGSO-6 (C13)   
1 41434U 16021A   26139.50367139 -.00000169  00000+0  00000+0 0  9996
2 41434  60.1876  38.3249 0057329 232.4490 242.0698  1.00264059 37193
IRNSS-1G                
1 41469U 16027A   26140.26221975 -.00000339  00000+0  00000+0 0  9991
2 41469   5.1287  98.1234 0006387 351.9633  11.7093  1.00264029 36903
GSAT0211 (GALILEO 14)   
1 41549U 16030A   26138.46726544  .00000019  00000+0  00000+0 0  9999
2 41549  55.1040 222.5126 0002472 334.1936  25.8623  1.70473951 62162
GSAT0210 (GALILEO 13)   
1 41550U 16030B   26138.72454187  .00000017  00000+0  00000+0 0  9999
2 41550  55.1026 222.5034 0003483 235.0858 124.9500  1.70474074 62163
BEIDOU-2 G7 (C03)       
1 41586U 16037A   26140.25849307 -.00000357  00000+0  00000+0 0  9996
2 41586   1.6519  69.0521 0007268 359.3960  13.0000  1.00265428  6614
EUTELSAT 117 WEST B (W*)
1 41589U 16038B   26140.07081499 -.00000015  00000+0  00000+0 0  9991
2 41589   0.0072 143.7613 0000495 296.5451  65.9243  1.00272059 36388
GSAT0207 (GALILEO 15)   
1 41859U 16069A   26139.00267678  .00000019  00000+0  00000+0 0  9994
2 41859  55.4814 101.8930 0005771 322.4887  37.4190  1.70473721 58900
GSAT0212 (GALILEO 16)   
1 41860U 16069B   26134.16349088  .00000049  00000+0  00000+0 0  9997
2 41860  55.4761 102.0219 0004753 345.7526  14.2010  1.70473991 59075
GSAT0213 (GALILEO 17)   
1 41861U 16069C   26136.87710314  .00000028  00000+0  00000+0 0  9999
2 41861  55.4801 101.9549 0005646 306.4907  53.4077  1.70474360 58982
GSAT0214 (GALILEO 18)   
1 41862U 16069D   26139.36959220  .00000019  00000+0  00000+0 0  9998
2 41862  55.4803 101.8786 0004716 312.9377  46.9715  1.70473992 59153
SES-15 (WAAS/PRN 133)   
1 42709U 17026A   26139.56938898  .00000058  00000+0  00000+0 0  9996
2 42709   0.0202 334.0930 0000565  27.0397 311.9389  1.00268820  7147
QZS-2 (QZSS/PRN 194)    
1 42738U 17028A   26138.60870817 -.00000187  00000+0  00000+0 0  9994
2 42738  39.4728 243.5900 0761639 268.9538  83.0393  1.00291579  7338
QZS-3 (QZSS/PRN 199)    
1 42917U 17048A   26140.26178641 -.00000352  00000+0  00000+0 0  9990
2 42917   0.0785 125.1548 0001829 287.6811  46.3739  1.00269241 31971
COSMOS 2522 (752)       
1 42939U 17055A   26139.02891852  .00000056  00000+0  00000+0 0  9990
2 42939  64.0783 192.8783 0009756 218.2478 141.7671  2.13104887 67356
QZS-4 (QZSS/PRN 195)    
1 42965U 17062A   26139.46748260 -.00000331  00000+0  00000+0 0  9996
2 42965  40.1248 343.8478 0745874 271.2914 289.3206  1.00258742 31514
BEIDOU-3 M1 (C19)       
1 43001U 17069A   26139.13738691 -.00000041  00000+0  00000+0 0  9994
2 43001  56.6686  64.0414 0011461 321.9014  38.0087  1.86230738 58062
BEIDOU-3 M2 (C20)       
1 43002U 17069B   26139.07605641 -.00000041  00000+0  00000+0 0  9996
2 43002  56.6672  64.0798 0009764 344.7393  15.2220  1.86230678 58057
GSAT0215 (GALILEO 19)   
1 43055U 17079A   26139.27311130  .00000014  00000+0  00000+0 0  9993
2 43055  55.0813 222.3025 0002770 261.6672  98.3702  1.70474555 52490
GSAT0216 (GALILEO 20)   
1 43056U 17079B   26140.15085850  .00000007  00000+0  00000+0 0  9992
2 43056  55.0819 222.2785 0002734 276.8950  83.1409  1.70474685 52520
GSAT0217 (GALILEO 21)   
1 43057U 17079C   26139.19848642  .00000014  00000+0  00000+0 0  9999
2 43057  55.0798 222.3024 0003757 286.9220  73.1057  1.70474628 52493
GSAT0218 (GALILEO 22)   
1 43058U 17079D   26139.41855227  .00000013  00000+0  00000+0 0  9991
2 43058  55.0795 222.2940 0005085 272.5986  87.4119  1.70474698 52521
BEIDOU-3 M7 (C27)       
1 43107U 18003A   26138.81769683 -.00000057  00000+0  00000+0 0  9996
2 43107  54.3550 303.3391 0005161  86.8406 273.1930  1.86227979 56801
BEIDOU-3 M8 (C28)       
1 43108U 18003B   26139.29987973 -.00000058  00000+0  00000+0 0  9995
2 43108  54.3480 303.3042 0002172 276.0200  83.9300  1.86230846 56828
BEIDOU-3 M4 (C22)       
1 43207U 18018A   26138.13174855 -.00000043  00000+0  00000+0 0  9994
2 43207  56.6264  64.1398 0007886   9.7385 350.2635  1.86230951 56188
BEIDOU-3 M3 (C21)       
1 43208U 18018B   26139.27212872 -.00000041  00000+0  00000+0 0  9991
2 43208  56.6270  64.1059 0009514 335.4256  24.5205  1.86230642 56200
BEIDOU-3 M9 (C29)       
1 43245U 18029A   26138.41587542 -.00000055  00000+0  00000+0 0  9993
2 43245  54.2214 300.9891 0000930 116.3065 243.6755  1.86227947 55347
BEIDOU-3 M10 (C30)      
1 43246U 18029B   26139.96126271 -.00000057  00000+0  00000+0 0  9995
2 43246  54.2182 300.9622 0004452  37.9889 322.0171  1.86229053 55354
IRNSS-1I                
1 43286U 18035A   26139.89108968  .00000073  00000+0  00000+0 0  9998
2 43286  29.1095  74.6325 0017511 182.1495 356.5651  1.00271921 29794
COSMOS 2527 (756)       
1 43508U 18053A   26139.92893222 -.00000005  00000+0  00000+0 0  9999
2 43508  65.5631  74.8497 0007868 245.7769 114.1305  2.13101953 61676
BEIDOU-2 IGSO-7 (C16)   
1 43539U 18057A   26139.47491439 -.00000032  00000+0  00000+0 0  9991
2 43539  55.1878 163.3089 0104388 237.9948 118.6458  1.00260128 28830
GSAT0221 (GALILEO 25)   
1 43564U 18060A   26139.90897247 -.00000081  00000+0  00000+0 0  9992
2 43564  57.1780 342.5438 0003128 315.4757  44.5220  1.70475738 48682
GSAT0222 (GALILEO 26)   
1 43565U 18060B   26137.78225310 -.00000072  00000+0  00000+0 0  9993
2 43565  57.1823 342.6049 0001937 276.5659  83.4431  1.70475454 48696
GSAT0219 (GALILEO 23)   
1 43566U 18060C   26139.17634885 -.00000078  00000+0  00000+0 0  9996
2 43566  57.1811 342.5687 0002775 333.5819  26.4292  1.70475680 48697
GSAT0220 (GALILEO 24)   
1 43567U 18060D   26137.05099067 -.00000069  00000+0  00000+0 0  9999
2 43567  57.1815 342.6264 0002986 324.1445  35.8697  1.70475366 48648
BEIDOU-3 M5 (C23)       
1 43581U 18062A   26140.18545609  .00000042  00000+0  00000+0 0  9993
2 43581  54.0834 183.2565 0005188 287.6308  72.3870  1.86228820 53117
BEIDOU-3 M6 (C24)       
1 43582U 18062B   26137.36403050  .00000082  00000+0  00000+0 0  9997
2 43582  54.0833 183.3416 0004738  15.5717 344.5351  1.86227445 53069
BEIDOU-3 M12 (C26)      
1 43602U 18067A   26137.30242253  .00000084  00000+0  00000+0 0  9997
2 43602  54.1786 182.0879 0007743  31.4775 328.6606  1.86227757 52543
BEIDOU-3 M11 (C25)      
1 43603U 18067B   26140.12216785  .00000044  00000+0  00000+0 0  9999
2 43603  54.1757 181.9561 0004377  15.9012 344.1863  1.86227273 52629
BEIDOU-3 M13 (C32)      
1 43622U 18072A   26139.00324684 -.00000042  00000+0  00000+0 0  9998
2 43622  56.6003  63.6232 0008188 322.9807  36.9540  1.86231208 52114
BEIDOU-3 M14 (C33)      
1 43623U 18072B   26139.94259778 -.00000042  00000+0  00000+0 0  9993
2 43623  56.6029  63.5862 0006633 348.9245  11.0555  1.86231264 52121
BEIDOU-3 M16 (C35)      
1 43647U 18078A   26140.09835424 -.00000057  00000+0  00000+0 0  9997
2 43647  54.1166 300.9702 0007819  40.0473 319.9852  1.86232221 51632
BEIDOU-3 M15 (C34)      
1 43648U 18078B   26140.22765656 -.00000058  00000+0  00000+0 0  9993
2 43648  54.1126 300.9662 0004932  53.7821 306.2387  1.86232235 51654
BEIDOU-3 G1 (C59)       
1 43683U 18085A   26140.27828642 -.00000113  00000+0  00000+0 0  9992
2 43683   2.7979  98.1309 0007826 341.3905  58.5700  1.00271330 27784
COSMOS 2529 (757)       
1 43687U 18086A   26138.14863914  .00000068  00000+0  00000+0 0  9999
2 43687  64.2929 193.6085 0011215 256.0071 103.9560  2.13102075 58643
BEIDOU-3 M17 (C36)      
1 43706U 18093A   26138.35612889  .00000068  00000+0  00000+0 0  9995
2 43706  54.1671 183.3085 0009685 290.9034 146.3367  1.86228319 50981
BEIDOU-3 M18 (C37)      
1 43707U 18093B   26139.71489140  .00000048  00000+0  00000+0 0  9997
2 43707  54.1676 183.2547 0007589 321.1973  38.8259  1.86226651 51005
GPS BIII-1  (PRN 04)    
1 43873U 18109A   26140.26728968  .00000010  00000+0  00000+0 0  9994
2 43873  55.6661  93.2874 0037945 198.6335 285.8039  2.00560156 54517
BEIDOU-3 IGSO-1 (C38)   
1 44204U 19023A   26132.76772565 -.00000227  00000+0  00000+0 0  9998
2 44204  58.6468  38.0171 0023856 234.3090 349.8662  1.00250503  6851
BEIDOU-2 G8 (C01)       
1 44231U 19027A   26140.26525310 -.00000252  00000+0  00000+0 0  9998
2 44231   1.5881  74.4335 0010683 280.3725 123.1381  1.00270338 25808
COSMOS 2534 (758)       
1 44299U 19030A   26139.39098957  .00000050  00000+0  00000+0 0  9995
2 44299  64.3665 193.5861 0012702 275.8591  91.7412  2.13102426 54310
BEIDOU-3 IGSO-2 (C39)   
1 44337U 19035A   26139.63539042 -.00000079  00000+0  00000+0 0  9997
2 44337  55.2397 159.1126 0039530 216.4700 210.4277  1.00275192 25387
GPS BIII-2  (PRN 18)    
1 44506U 19056A   26139.97084552 -.00000075  00000+0  00000+0 0  9992
2 44506  55.6508 332.2636 0060644 197.3914 335.8838  2.00569191 49508
BEIDOU-3 M24 (C46)      
1 44542U 19061A   26138.71000030  .00000063  00000+0  00000+0 0  9994
2 44542  54.3946 183.7224 0008104   2.2615 357.8273  1.86229135 45245
BEIDOU-3 M23 (C45)      
1 44543U 19061B   26139.39368032  .00000053  00000+0  00000+0 0  9998
2 44543  54.3929 183.6676 0005334 341.1368  29.0987  1.86227410 45265
EUTELSAT 5 WEST B (EGN*)
1 44624U 19067A   26140.21503377 -.00000046  00000+0  00000+0 0  9993
2 44624   0.0708 329.9394 0002792  82.3131 258.0396  1.00272776 24151
BEIDOU-3 IGSO-3 (C40)   
1 44709U 19073A   26120.85038409 -.00000212  00000+0  00000+0 0  9996
2 44709  54.8842 281.4069 0042404 188.8195 170.9972  1.00251230 23982
BEIDOU-3 M22 (C44)      
1 44793U 19078A   26138.54935259 -.00000056  00000+0  00000+0 0  9994
2 44793  53.9642 300.8701 0006964  48.9586 311.0741  1.86227153 44091
BEIDOU-3 M21 (C43)      
1 44794U 19078B   26136.54150291 -.00000055  00000+0  00000+0 0  9997
2 44794  53.9390 300.9027 0004900  45.2623 314.7514  1.86227806 44064
COSMOS 2544 (759)       
1 44850U 19088A   26137.99658669 -.00000010  00000+0  00000+0 0  9994
2 44850  65.5497  74.7379 0014015 261.0437  98.7800  2.13102034 50070
BEIDOU-3 M19 (C41)      
1 44864U 19090A   26140.17168096 -.00000042  00000+0  00000+0 0  9991
2 44864  56.5361  63.7167 0018959 297.3569 173.5727  1.86231025 43712
BEIDOU-3 M20 (C42)      
1 44865U 19090B   26137.47677451 -.00000044  00000+0  00000+0 0  9993
2 44865  56.5346  63.8405 0016733 310.1234 243.6125  1.86231384 43644
BEIDOU-3 G2 (C60)       
1 45344U 20017A   26140.18095659 -.00000145  00000+0  00000+0 0  9995
2 45344   2.8091  46.9014 0002274   8.0203 328.1119  1.00271186 22975
COSMOS 2545 (760)       
1 45358U 20018A   26135.84549925 -.00000029  00000+0  00000+0 0  9999
2 45358  64.3753 313.5554 0007490 233.4064 126.5264  2.13102449 47972
BEIDOU-3 G3 (C61)       
1 45807U 20040A   26140.25849307 -.00000358  00000+0  00000+0 0  9996
2 45807   2.3797  67.3646 0003028 331.7298  42.4373  1.00270826 21790
GPS BIII-3  (PRN 23)    
1 45854U 20041A   26139.57960495 -.00000078  00000+0  00000+0 0  9993
2 45854  56.6519  30.0532 0062831 204.8599 345.4759  2.00559055 43465
GALAXY 30 (WAAS/PRN 135)
1 46114U 20056C   26140.24822981  .00000032  00000+0  00000+0 0  9991
2 46114   0.0137  10.6474 0002025  40.6030 151.0221  1.00271713 21011
COSMOS 2547 (705K)      
1 46805U 20075A   26140.25813566  .00000039  00000+0  00000+0 0  9996
2 46805  64.5974 193.4075 0008922 237.8054 122.1862  2.13100193 43312
GPS BIII-4  (PRN 14)    
1 46826U 20078A   26139.58793914  .00000023  00000+0  00000+0 0  9993
2 46826  53.9834 211.9386 0072265 206.3521 325.4222  2.00564748 40933
GPS BIII-5  (PRN 11)    
1 48859U 21054A   26137.34480044 -.00000068  00000+0  00000+0 0  9995
2 48859  55.1876 333.6992 0024566 229.1389 308.8619  2.00570739 36131
QZS-1R (QZSS/PRN 196)   
1 49336U 21096A   26137.72544839 -.00000240  00000+0  00000+0 0  9999
2 49336  37.4017  80.0331 0752528 271.2321 280.7165  1.00265511 16705
GSAT0223 (GALILEO 27)   
1 49809U 21116A   26139.54221280 -.00000079  00000+0  00000+0 0  9991
2 49809  57.1688 342.4481 0000704 199.9116 339.8409  1.70475557 27691
GSAT0224 (GALILEO 28)   
1 49810U 21116B   26139.94120200 -.00000081  00000+0  00000+0 0  9990
2 49810  57.1717 342.4359 0000500 130.1594  47.0805  1.70475611 27724
COSMOS 2557 (706K)      
1 52984U 22075A   26139.01482626 -.00000038  00000+0  00000+0 0  9994
2 52984  64.3161 315.5137 0010131 278.9691  80.9110  2.13102000 30094
COSMOS 2559 (707K)      
1 54031U 22130A   26139.30364975 -.00000039  00000+0  00000+0 0  9990
2 54031  64.2945 315.5867 0012125 176.3720 183.6319  2.13101396 28071
COSMOS 2564 (761)       
1 54377U 22161A   26140.08555985  .00000041  00000+0  00000+0 0  9999
2 54377  64.7394 193.6445 0011711 222.7924 137.1954  2.13101979 27037
GPS BIII-6  (PRN 28)    
1 55268U 23009A   26139.54030612  .00000059  00000+0  00000+0 0  9994
2 55268  55.1178 149.6447 0006115 315.4942  45.7388  2.00573337 24675
BEIDOU-3 G4 (C62)       
1 56564U 23066A   26140.26429976 -.00000285  00000+0  00000+0 0  9995
2 56564   0.5221 324.8595 0003545 173.2574 335.0047  1.00273444 11111
NVS-01 (IRNSS-1J)       
1 56759U 23076A   26140.23864193 -.00000340  00000+0  00000+0 0  9995
2 56759   2.2307 245.5825 0004348  53.5872 154.1429  1.00266748 10830
COSMOS 2569 (703K)      
1 57517U 23114A   26140.09792709 -.00000007  00000+0  00000+0 0  9998
2 57517  65.2873  73.5672 0011701 296.4919  63.3799  2.13103655 21666
BEIDOU-3 M28 (C50)      
1 58654U 23207A   26138.22956414 -.00000045  00000+0  00000+0 0  9993
2 58654  55.7276  63.3136 0004089 333.0756  26.8913  1.86229592 16282
BEIDOU-3 M26 (C48)      
1 58655U 23207B   26140.17490135 -.00000044  00000+0  00000+0 0  9993
2 58655  55.7314  63.2344 0004196 311.9174  48.0421  1.86229617 16305
GSAT0225 (GALILEO 29)   
1 59598U 24079A   26139.66419780  .00000018  00000+0  00000+0 0  9997
2 59598  55.1040 101.8761 0002227 287.8538  72.5924  1.70473980 12833
GSAT0227 (GALILEO 30)   
1 59600U 24079C   26139.26021830  .00000018  00000+0  00000+0 0  9992
2 59600  55.0977 101.8862 0001623  28.2313 331.7261  1.70474106 12873
GSAT0232 (GALILEO 32)   
1 61182U 24167A   26140.14493955  .00000007  00000+0  00000+0 0  9996
2 61182  55.1924 222.0830 0005562 220.0173 178.4515  1.70474331 10402
GSAT0226 (GALILEO 31)   
1 61183U 24167B   26138.22259443  .00000021  00000+0  00000+0 0  9991
2 61183  55.1918 222.1432 0002345 211.7978 178.2203  1.70474252 10348
BEIDOU-3 M25 (C47)      
1 61186U 24168B   26139.73495263 -.00000058  00000+0  00000+0 0  9995
2 61186  54.4996 303.2302 0002975 311.8779 230.3792  1.86229793 11255
BEIDOU-3 M27 (C49)      
1 61187U 24168C   26140.06743498 -.00000058  00000+0  00000+0 0  9990
2 61187  54.4946 303.2015 0002171  47.3518 132.8375  1.86229890  8732
GPS BIII-7  (PRN 01)    
1 62339U 24242A   26139.67433785 -.00000078  00000+0  00000+0 0  9995
2 62339  54.8610 335.3368 0017277   3.4958 177.0470  2.00570769 10680
NVS-02 (IRNSS-1K)       
1 62850U 25020A   26139.95375607  .00000978  00000+0  65273-3 0  9992
2 62850  20.7532 269.5325 7348214 130.5308 321.0281  2.17935855 10365
QZS-6 (QZSS/PRN 200)    
1 62876U 25023A   26140.14573543 -.00000237  00000+0  00000+0 0  9997
2 62876   0.0258 295.8924 0002109 123.7657 321.1355  1.00272105  4662
COSMOS 2584 (704K)      
1 63130U 25042A   26139.98480737 -.00000007  00000+0  00000+0 0  9999
2 63130  65.0693  73.7603 0006146 233.1890 126.7457  2.13103731  9443
GPS BIII-8  (PRN 21)    
1 64202U 25116A   26139.41840637 -.00000078  00000+0  00000+0 0  9997
2 64202  55.2165  32.2881 0008489 335.9711 202.0396  2.00577638  7290
COSMOS 2596 (708K)      
1 65590U 25206B   26140.07020832 -.00000038  00000+0  00000+0 0  9995
2 65590  64.6539 315.9637 0011067 314.6634 227.4494  2.13100416  5315
GSAT0233 (GALILEO 33)   
1 67160U 25302A   26138.89929920  .00000019  00000+0  00000+0 0  9998
2 67160  54.3182 102.9642 0001581 248.0002 293.8232  1.70474069  2627
GSAT0234 (GALILEO 34)   
1 67162U 25302C   26140.24551001  .00000019  00000+0  00000+0 0  9993
2 67162  54.3206 102.9251 0003621 302.1129 166.0186  1.70474040  2708
GPS BIII-9  (PRN 20)    
1 67588U 26017A   26139.77935463  .00000002  00000+0  00000+0 0  9995
2 67588  55.0711  89.8949 0022793 256.0652 103.6488  2.00571618431043
GPS BIII-10 (PRN 13)    
1 68791U 26087A   26139.48610789  .00000028  00000+0  00000+0 0  9996
2 68791  54.9639 208.9229 0005154 271.7816  81.6763  2.00570690   255
