GPS BIIR-5  (PRN 22)    
1 26407U 00040A   26125.91187248  .00000007  00000+0  00000+0 0  9994
2 26407  54.8590 216.8413 0121495 302.3532  57.3496  2.00557408189101
GPS BIIR-8  (PRN 16)    
1 27663U 03005A   26126.23852705  .00000006  00000+0  00000+0 0  9995
2 27663  54.8900 216.6354 0148109  52.9884 317.9318  2.00562879170478
GPS BIIR-11 (PRN 19)    
1 28190U 04009A   26125.75632748 -.00000026  00000+0  00000+0 0  9998
2 28190  54.8662 277.4006 0114139 171.2262   5.6729  2.00556203162099
GPS BIIR-13 (PRN 02)    
1 28474U 04045A   26124.18169919 -.00000078  00000+0  00000+0 0  9991
2 28474  55.1614 326.6685 0169988 315.2286 229.9149  2.00554044157545
GPS BIIRM-1 (PRN 17)    
1 28874U 05038A   26126.22177922 -.00000022  00000+0  00000+0 0  9997
2 28874  54.9138 274.8701 0127759 295.9042 243.9424  2.00568699150999
INMARSAT 4-F2 (SOUTHPA*)
1 28899U 05044A   26126.21032162 -.00000252  00000+0  00000+0 0  9991
2 28899   5.0412  43.7466 0003001   5.7341  33.7997  1.00273461 75109
GPS BIIRM-2 (PRN 31)    
1 29486U 06042A   26126.13095895  .00000051  00000+0  00000+0 0  9992
2 29486  54.7041 153.0087 0106128  53.6008 318.4786  2.00572293143551
GPS BIIRM-3 (PRN 12)    
1 29601U 06052A   26124.54204918  .00000012  00000+0  00000+0 0  9990
2 29601  54.9417 215.7361 0086196  90.3820 270.6547  2.00555783142538
GPS BIIRM-4 (PRN 15)    
1 32260U 07047A   26125.34551519 -.00000011  00000+0  00000+0 0  9991
2 32260  54.0647  81.8307 0165045  86.6247 275.2294  2.00557539135952
COSMOS 2433 (720)       
1 32275U 07052A   26122.86692718 -.00000048  00000+0  00000+0 0  9994
2 32275  65.6022 317.4582 0001011 193.7330 166.2816  2.13104166144093
COSMOS 2432 (719)       
1 32276U 07052B   26124.12727124 -.00000043  00000+0  00000+0 0  9991
2 32276  65.6177 317.5429 0008792 337.7082 213.2398  2.13103237144145
GPS BIIRM-5 (PRN 29)    
1 32384U 07062A   26125.42398176 -.00000026  00000+0  00000+0 0  9998
2 32384  55.0676 275.8707 0034801 162.8911  20.7808  2.00557584134651
COSMOS 2434 (721)       
1 32393U 07065A   26125.35322346  .00000033  00000+0  00000+0 0  9996
2 32393  64.3157 193.3602 0001517  45.6710 311.7975  2.13101552142852
COSMOS 2436 (723)       
1 32395U 07065C   26126.13836734  .00000030  00000+0  00000+0 0  9993
2 32395  64.3241 193.4054 0017166 358.1764  14.1162  2.13100406142835
GPS BIIRM-6 (PRN 07)    
1 32711U 08012A   26125.26037452  .00000048  00000+0  00000+0 0  9990
2 32711  54.4899 151.6398 0210060 247.2447 110.5755  2.00571337132892
GPS BIIRM-8 (PRN 05)    
1 35752U 09043A   26124.75797102 -.00000087  00000+0  00000+0 0  9995
2 35752  56.1844  29.1579 0053156  81.6039 288.4144  2.00556791122496
COSMOS 2456 (730)       
1 36111U 09070A   26126.13068706  .00000000  00000+0  00000+0 0  9994
2 36111  64.9883  72.4054 0006005 318.3093  73.5051  2.13103747127539
COSMOS 2457 (733)       
1 36112U 09070B   26125.63556096 -.00000004  00000+0  00000+0 0  9998
2 36112  64.9735  72.2670 0001357 154.9025 344.8645  2.13101184127527
COSMOS 2460 (732)       
1 36402U 10007C   26126.13782333 -.00000030  00000+0  00000+0 0  9992
2 36402  65.4448 315.8889 0002375  71.8996  94.9472  2.13106314125832
GPS BIIF-1  (PRN 25)    
1 36585U 10022A   26126.07326041  .00000010  00000+0  00000+0 0  9991
2 36585  54.2751 210.2586 0126554  66.0980 290.9770  2.00560409116748
BEIDOU-2 IGSO-1 (C06)   
1 36828U 10036A   26122.76966646 -.00000054  00000+0  00000+0 0  9998
2 36828  54.2940 163.3702 0058449 224.0964 217.0944  1.00286245 57649
BEIDOU-2 G4 (C04)       
1 37210U 10057A   26126.22264589 -.00000104  00000+0  00000+0 0  9995
2 37210   3.5438  69.1811 0005752 214.4008 180.6078  1.00273460 56871
BEIDOU-2 IGSO-2 (C07)   
1 37256U 10068A   26125.35593792 -.00000203  00000+0  00000+0 0  9991
2 37256  47.6434 272.3638 0053699 212.2125 332.2385  1.00297769 56368
BEIDOU-2 IGSO-3 (C08)   
1 37384U 11013A   26122.65036828 -.00000203  00000+0  00000+0 0  9996
2 37384  62.3500  40.5817 0034161 187.9361 334.3867  1.00279445 55206
GSAT-8 (GAGAN/PRN 127)  
1 37605U 11022A   26126.20193248  .00000093  00000+0  00000+0 0  9993
2 37605   2.0228  82.3107 0004005 230.4938  39.0359  1.00273848 52791
BEIDOU-2 IGSO-4 (C09)   
1 37763U 11038A   26122.60255640  .00000018  00000+0  00000+0 0  9997
2 37763  54.5893 166.0921 0158776 231.8695 130.9915  1.00255007 54192
GSAT0101 (GALILEO-PFM)  
1 37846U 11060A   26123.85460758 -.00000083  00000+0  00000+0 0  9993
2 37846  57.0074 342.9640 0003924  33.1521 326.9140  1.70475928 90360
GSAT0102 (GALILEO-FM2)  
1 37847U 11060B   26125.24558439 -.00000078  00000+0  00000+0 0  9997
2 37847  57.0080 342.9268 0004337   6.8323 172.4902  1.70476141 90391
COSMOS 2476 (744)       
1 37867U 11064A   26125.50204023 -.00000002  00000+0  00000+0 0  9996
2 37867  65.2474  74.3110 0023970 241.8172 296.0579  2.13103918112856
COSMOS 2477 (745)       
1 37868U 11064B   26126.13399846  .00000004  00000+0  00000+0 0  9996
2 37868  65.2543  74.3689 0021023 243.5551 239.6028  2.13102980112863
COSMOS 2475 (743)       
1 37869U 11064C   26126.22404324  .00000005  00000+0  00000+0 0  9996
2 37869  65.2613  74.3870 0027038 255.2984 252.2362  2.13101820112871
BEIDOU-2 IGSO-5 (C10)   
1 37948U 11073A   26125.88705470 -.00000172  00000+0  00000+0 0  9997
2 37948  47.7582 272.0673 0111234 220.7970 143.3086  1.00258718 52714
LUCH 5A (SDCM/PRN 140)  
1 37951U 11074B   26126.13794962 -.00000040  00000+0  00000+0 0  9999
2 37951   8.6483  74.4136 0002728 320.6715  45.5719  1.00274555 52630
BEIDOU-2 G5 (C05)       
1 38091U 12008A   26126.06003927  .00000066  00000+0  00000+0 0  9996
2 38091   3.4697  69.9371 0011523 271.4094 322.8904  1.00270081 51942
BEIDOU-2 M3 (C11)       
1 38250U 12018A   26125.23206079 -.00000056  00000+0  00000+0 0  9995
2 38250  55.7954 306.3220 0019617 277.5078  82.2572  1.86230082 95146
BEIDOU-2 M4 (C12)       
1 38251U 12018B   26125.16429260 -.00000056  00000+0  00000+0 0  9997
2 38251  55.6971 305.5420 0010921 281.6477  78.2167  1.86229726 95144
SES-5 (EGNOS/PRN 136)   
1 38652U 12036A   26126.19196578  .00000042  00000+0  00000+0 0  9993
2 38652   0.0571 301.8677 0002146 105.8568 250.4300  1.00272458 44031
BEIDOU-2 M6 (C14)       
1 38775U 12050B   26125.94808743 -.00000034  00000+0  00000+0 0  9993
2 38775  56.5093  64.2906 0014422 350.1556   9.7965  1.86231049 92523
GSAT-10 (GAGAN/PRN 128) 
1 38779U 12051B   26126.13613289 -.00000156  00000+0  00000+0 0  9994
2 38779   0.0193 274.1630 0007623 170.4277 271.3531  1.00270695 49676
GPS BIIF-3  (PRN 24)    
1 38833U 12053A   26119.45673442  .00000077  00000+0  00000+0 0  9992
2 38833  53.5755 145.5957 0178090  65.1816 296.7302  2.00566727 98466
GSAT0103 (GALILEO-FM3)  
1 38857U 12055A   26123.30839435  .00000025  00000+0  00000+0 0  9998
2 38857  55.7792 102.7757 0005855 296.6791  63.2255  1.70473546 84248
BEIDOU-2 G6 (C02)       
1 38953U 12059A   26125.92244586 -.00000168  00000+0  00000+0 0  9995
2 38953   4.3155  73.9618 0010815 318.6979 247.2546  1.00274017 49487
LUCH 5B (SDCM/PRN 125)  
1 38977U 12061A   26125.61728095 -.00000130  00000+0  00000+0 0  9991
2 38977  10.3941  50.2982 0000903 195.9153 183.2286  1.00272084 49181
COSMOS 2485 (747)       
1 39155U 13019A   26123.33032983 -.00000020  00000+0  00000+0 0  9993
2 39155  65.3965  75.1085 0024277 237.2332 122.5029  2.13103209101328
GPS BIIF-4  (PRN 27)    
1 39166U 13023A   26124.30819451 -.00000030  00000+0  00000+0 0  9992
2 39166  54.5400 270.7602 0141896  50.7379 310.4804  2.00563857 95009
IRNSS-1A                
1 39199U 13034A   26125.91655250  .00000077  00000+0  00000+0 0  9993
2 39199  35.6313  64.4743 0016848 186.6139 357.5974  1.00275198 46949
GPS BIIF-5  (PRN 30)    
1 39533U 14008A   26124.80771742  .00000047  00000+0  00000+0 0  9996
2 39533  53.6464 151.0892 0083952 230.3565 128.9552  2.00557117 88815
ASTRA 5B (EGNOS/PRN 123)
1 39617U 14011B   26126.19560579  .00000145  00000+0  00000+0 0  9990
2 39617   0.0527 323.4797 0002616  71.5307 282.9802  1.00274645 44249
COSMOS 2492 (754)       
1 39620U 14012A   26120.47374709 -.00000047  00000+0  00000+0 0  9990
2 39620  65.3251 315.5573 0011401 330.3341  29.6219  2.13103183 94225
IRNSS-1B                
1 39635U 14017A   26124.91813348  .00000111  00000+0  00000+0 0  9992
2 39635  28.9994 241.1464 0023700 183.1232 184.0206  1.00275482 44360
LUCH 5V (SDCM/PRN 141)  
1 39727U 14023A   26126.28110476 -.00000260  00000+0  00000+0 0  9991
2 39727   5.0314  70.1579 0002868 355.1878 354.7298  1.00269389 43938
GPS BIIF-6  (PRN 06)    
1 39741U 14026A   26125.58194561 -.00000075  00000+0  00000+0 0  9993
2 39741  56.5180 333.1764 0038764 326.8427  32.9438  2.00564326 87684
COSMOS 2500 (755)       
1 40001U 14032A   26124.86737580 -.00000038  00000+0  00000+0 0  9994
2 40001  65.2580 315.1586 0005921 181.5798 178.4292  2.13106109 92533
GPS BIIF-7  (PRN 09)    
1 40105U 14045A   26125.67277388  .00000008  00000+0  00000+0 0  9994
2 40105  55.3262  90.1578 0031874 118.9411 241.3498  2.00555717 85223
GSAT0201 (GALILEO 5)    
1 40128U 14050A   26124.75907884 -.00000048  00000+0  00000+0 0  9999
2 40128  48.9238 275.2147 1667807 177.6970 183.1906  1.85520134 77518
GSAT0202 (GALILEO 6)    
1 40129U 14050B   26125.55375754 -.00000042  00000+0  00000+0 0  9998
2 40129  48.9403 274.2670 1669018 178.4565 182.1452  1.85520749 79696
IRNSS-1C                
1 40269U 14061A   26125.92218586 -.00000151  00000+0  00000+0 0  9996
2 40269   6.4109  89.7292 0021701 358.7872 190.1694  1.00268212 42267
GPS BIIF-8  (PRN 03)    
1 40294U 14068A   26124.05040511 -.00000086  00000+0  00000+0 0  9992
2 40294  56.9588  32.6555 0065625  69.1029 291.6193  2.00573639 84322
COSMOS 2501 (702K)      
1 40315U 14075A   26126.06741133  .00000031  00000+0  00000+0 0  9994
2 40315  63.6141 191.8298 0022032 210.3809 149.5689  2.13101484 88952
GPS BIIF-9  (PRN 26)    
1 40534U 15013A   26126.17986672  .00000011  00000+0  00000+0 0  9999
2 40534  53.1725 205.9151 0108911  39.9934 320.8697  2.00553988 80981
GSAT0203 (GALILEO 7)    
1 40544U 15017A   26124.80575900 -.00000080  00000+0  00000+0 0  9997
2 40544  56.8016 342.7786 0001683 318.1144  41.9124  1.70476102 68465
GSAT0204 (GALILEO 8)    
1 40545U 15017B   26124.47482400 -.00000081  00000+0  00000+0 0  9994
2 40545  56.8068 342.8061 0002107 283.6480  76.3687  1.70475814 31501
BEIDOU-3S IGSO-1S (C31) 
1 40549U 15019A   26125.93636273 -.00000166  00000+0  00000+0 0  9995
2 40549  49.2753 295.9673 0037575 191.3134 168.1319  1.00260080 40644
GPS BIIF-10 (PRN 08)    
1 40730U 15033A   26125.84057371 -.00000022  00000+0  00000+0 0  9990
2 40730  54.0171 268.8316 0115007  29.9738 330.6547  2.00558539 79146
BEIDOU-3S M2S (C58)     
1 40748U 15037A   26124.83041021 -.00000058  00000+0  00000+0 0  9995
2 40748  54.9099 303.5378 0007402 269.6593  90.2396  1.86232149 73312
BEIDOU-3S M1S (C57)     
1 40749U 15037B   26123.96934392 -.00000064  00000+0  00000+0 0  9998
2 40749  54.9079 303.5558 0004261  54.3067 305.7162  1.86255047 73302
GSAT0205 (GALILEO 9)    
1 40889U 15045A   26115.63255192 -.00000038  00000+0  00000+0 0  9992
2 40889  54.9613 223.1764 0005159 266.9978  92.9342  1.67410754 66085
GSAT0206 (GALILEO 10)   
1 40890U 15045B   26124.46349873  .00000002  00000+0  00000+0 0  9995
2 40890  54.9581 222.8116 0001823  28.6862 331.3595  1.70474123 66294
BEIDOU-3S IGSO-2S (C56) 
1 40938U 15053A   26125.84538824 -.00000144  00000+0  00000+0 0  9994
2 40938  49.2898 259.2844 0063791 190.9562 174.4964  1.00270014 38931
GPS BIIF-11 (PRN 10)    
1 41019U 15062A   26125.89816810 -.00000078  00000+0  00000+0 0  9990
2 41019  56.9325  32.4407 0111307 231.4482 127.5771  2.00567146 76985
GSAT-15 (GAGAN/PRN 139) 
1 41028U 15065A   26126.10233296 -.00000250  00000+0  00000+0 0  9991
2 41028   0.0466 254.7382 0003885 158.5502 301.0170  1.00272049 38372
GSAT0209 (GALILEO 12)   
1 41174U 15079A   26124.63141283  .00000029  00000+0  00000+0 0  9991
2 41174  55.8015 102.4553 0005670 330.6895  29.2422  1.70474160 64039
GSAT0208 (GALILEO 11)   
1 41175U 15079B   26123.09193130  .00000025  00000+0  00000+0 0  9995
2 41175  55.7990 102.4946 0005107 331.7246  28.2122  1.70474058 64429
IRNSS-1E                
1 41241U 16003A   26125.74211597 -.00000295  00000+0  00000+0 0  9999
2 41241  33.1454  60.3625 0017244 183.3124 358.8864  1.00272157 37654
GPS BIIF-12 (PRN 32)    
1 41328U 16007A   26125.98646536  .00000014  00000+0  00000+0 0  9998
2 41328  55.4988  91.1317 0096131 247.1834 111.7721  2.00553825 74999
COSMOS 2514 (751)       
1 41330U 16008A   26126.05179094 -.00000030  00000+0  00000+0 0  9990
2 41330  65.0469 314.4526 0009758 197.3439 162.6326  2.13102750 79725
BEIDOU-2 IGSO-6 (C13)   
1 41434U 16021A   26125.72733611 -.00000159  00000+0  00000+0 0  9996
2 41434  60.1695  38.4629 0057744 232.5617 309.2888  1.00267457 37055
IRNSS-1G                
1 41469U 16027A   26125.86017512 -.00000324  00000+0  00000+0 0  9994
2 41469   5.0926  98.4620 0006058 347.9244 216.6831  1.00271468 36756
GSAT0211 (GALILEO 14)   
1 41549U 16030A   26126.14899237  .00000006  00000+0  00000+0 0  9997
2 41549  55.1076 222.8509 0002507 349.6941  10.3415  1.70474228 61957
GSAT0210 (GALILEO 13)   
1 41550U 16030B   26124.64651356  .00000003  00000+0  00000+0 0  9997
2 41550  55.1082 222.8901 0002356 218.3947 141.6248  1.70474254 61920
BEIDOU-2 G7 (C03)       
1 41586U 16037A   26126.28422477 -.00000345  00000+0  00000+0 0  9995
2 41586   1.6172  68.9230 0007645 355.8956  12.2212  1.00274239  6479
EUTELSAT 117 WEST B (W*)
1 41589U 16038B   26126.02519914 -.00000003  00000+0  00000+0 0  9995
2 41589   0.0100 127.3669 0000303 173.7416 174.8526  1.00270245 36248
GSAT0207 (GALILEO 15)   
1 41859U 16069A   26123.16490661  .00000024  00000+0  00000+0 0  9990
2 41859  55.4711 102.3308 0005901 318.6134  41.3062  1.70474063 58630
GSAT0212 (GALILEO 16)   
1 41860U 16069B   26125.36472333  .00000031  00000+0  00000+0 0  9990
2 41860  55.4699 102.2652 0004712 343.2381  16.7109  1.70474234 58925
GSAT0213 (GALILEO 17)   
1 41861U 16069C   26125.14546651  .00000030  00000+0  00000+0 0  9991
2 41861  55.4725 102.2790 0005790 303.9672  55.9420  1.70474575 58785
GSAT0214 (GALILEO 18)   
1 41862U 16069D   26125.29159859  .00000031  00000+0  00000+0 0  9999
2 41862  55.4711 102.2677 0004850 309.5121  50.4095  1.70474322 58915
SES-15 (WAAS/PRN 133)   
1 42709U 17026A   26126.02285913  .00000068  00000+0  00000+0 0  9997
2 42709   0.0216 325.6480 0001182  61.7696  75.5542  1.00271011  7017
QZS-2 (QZSS/PRN 194)    
1 42738U 17028A   26125.63528612 -.00000201  00000+0  00000+0 0  9993
2 42738  39.4938 243.7793 0763138 268.8214  78.8072  1.00295347  7196
QZS-3 (QZSS/PRN 199)    
1 42917U 17048A   26126.19350167 -.00000340  00000+0  00000+0 0  9998
2 42917   0.0594 150.5455 0002260 255.1973  14.9366  1.00277405 31830
COSMOS 2522 (752)       
1 42939U 17055A   26125.42043221  .00000032  00000+0  00000+0 0  9992
2 42939  64.0762 193.3394 0009570 236.9578 123.0282  2.13101945 67060
QZS-4 (QZSS/PRN 195)    
1 42965U 17062A   26125.93492591 -.00000319  00000+0  00000+0 0  9992
2 42965  40.1331 344.0222 0745653 271.0371  85.0238  1.00264121 31386
BEIDOU-3 M1 (C19)       
1 43001U 17069A   26125.71347288 -.00000036  00000+0  00000+0 0  9995
2 43001  56.6570  64.4828 0011940 318.5324  41.3563  1.86231579 57817
BEIDOU-3 M2 (C20)       
1 43002U 17069B   26125.65212076 -.00000036  00000+0  00000+0 0  9995
2 43002  56.6560  64.5211 0009949 341.8907  18.0527  1.86230825 57809
GSAT0215 (GALILEO 19)   
1 43055U 17079A   26125.19514258  .00000004  00000+0  00000+0 0  9994
2 43055  55.0845 222.6894 0003540 268.8336  91.1647  1.70474894 52253
GSAT0216 (GALILEO 20)   
1 43056U 17079B   26124.31315758  .00000002  00000+0  00000+0 0  9990
2 43056  55.0860 222.7137 0003422 276.0635  83.9327  1.70474721 52257
GSAT0217 (GALILEO 21)   
1 43057U 17079C   26125.70710091  .00000005  00000+0  00000+0 0  9997
2 43057  55.0843 222.6734 0002739 295.9806  64.0315  1.70474866 52269
GSAT0218 (GALILEO 22)   
1 43058U 17079D   26123.58082879 -.00000001  00000+0  00000+0 0  9995
2 43058  55.0853 222.7293 0004034 276.2514  83.7337  1.70474955 52250
BEIDOU-3 M7 (C27)       
1 43107U 18003A   26125.39370583 -.00000056  00000+0  00000+0 0  9991
2 43107  54.3671 303.8061 0005274  83.3858 276.6594  1.86228341 56552
BEIDOU-3 M8 (C28)       
1 43108U 18003B   26123.72828859 -.00000068  00000+0  00000+0 0  9994
2 43108  54.3615 303.8460 0002175 282.8111  77.1479  1.86231131 56534
BEIDOU-3 M4 (C22)       
1 43207U 18018A   26125.78175029 -.00000035  00000+0  00000+0 0  9996
2 43207  56.6160  64.5460 0007733   3.6445 356.3405  1.86231517 55953
BEIDOU-3 M3 (C21)       
1 43208U 18018B   26125.84820432 -.00000034  00000+0  00000+0 0  9998
2 43208  56.6153  64.5479 0009823 330.8202  29.1047  1.86231493 55954
BEIDOU-3 M9 (C29)       
1 43245U 18029A   26125.52886015 -.00000053  00000+0  00000+0 0  9996
2 43245  54.2337 301.4397 0000912  85.4860 274.5070  1.86228626 55101
BEIDOU-3 M10 (C30)      
1 43246U 18029B   26124.92648385 -.00000057  00000+0  00000+0 0  9990
2 43246  54.2317 301.4871 0004828  36.4822 323.5321  1.86229385 55074
IRNSS-1I                
1 43286U 18035A   26125.91689917  .00000090  00000+0  00000+0 0  9993
2 43286  29.0788  74.8480 0017662 186.9011 347.2974  1.00278576 29652
COSMOS 2527 (756)       
1 43508U 18053A   26123.97401244 -.00000014  00000+0  00000+0 0  9996
2 43508  65.5550  75.3806 0008409 247.6879 112.1948  2.13102108 61338
BEIDOU-2 IGSO-7 (C16)   
1 43539U 18057A   26123.67860174 -.00000046  00000+0  00000+0 0  9997
2 43539  55.2660 163.5842 0103557 236.0074 178.8558  1.00264653 28685
GSAT0221 (GALILEO 25)   
1 43564U 18060A   26125.83095605 -.00000076  00000+0  00000+0 0  9991
2 43564  57.1821 342.9247 0003723 316.8477  43.1623  1.70475991 48442
GSAT0222 (GALILEO 26)   
1 43565U 18060B   26124.29079647 -.00000081  00000+0  00000+0 0  9995
2 43565  57.1865 342.9698 0002158 285.2586  74.7585  1.70475690 48467
GSAT0219 (GALILEO 23)   
1 43566U 18060C   26123.92519379 -.00000082  00000+0  00000+0 0  9997
2 43566  57.1898 342.9811 0003207 347.5577  12.4760  1.70475957 48436
GSAT0220 (GALILEO 24)   
1 43567U 18060D   26125.90591464 -.00000075  00000+0  00000+0 0  9995
2 43567  57.1836 342.9279 0002969 344.4672  15.5628  1.70476039 48454
BEIDOU-3 M5 (C23)       
1 43581U 18062A   26126.22462587  .00000031  00000+0  00000+0 0  9993
2 43581  54.0836 183.7310 0004634 289.0991  70.9334  1.86228874 52859
BEIDOU-3 M6 (C24)       
1 43582U 18062B   26126.08789042  .00000031  00000+0  00000+0 0  9996
2 43582  54.0833 183.7250 0004745  19.9428 340.1588  1.86231566 52853
BEIDOU-3 M12 (C26)      
1 43602U 18067A   26126.02628578  .00000033  00000+0  00000+0 0  9996
2 43602  54.1782 182.4700 0007900  33.2666 326.8664  1.86227923 52336
BEIDOU-3 M11 (C25)      
1 43603U 18067B   26125.62426628  .00000034  00000+0  00000+0 0  9995
2 43603  54.1751 182.4475 0004521  16.9054 343.1941  1.86227405 52354
BEIDOU-3 M13 (C32)      
1 43622U 18072A   26125.57934894 -.00000038  00000+0  00000+0 0  9990
2 43622  56.5897  64.0644 0008637 320.0030  39.9125  1.86231375 51860
BEIDOU-3 M14 (C33)      
1 43623U 18072B   26125.98174939 -.00000034  00000+0  00000+0 0  9998
2 43623  56.5917  64.0457 0006781 344.8164  15.1441  1.86231432 51867
BEIDOU-3 M16 (C35)      
1 43647U 18078A   26125.60077962 -.00000052  00000+0  00000+0 0  9997
2 43647  54.1298 301.4783 0007977  39.2814 320.7592  1.86232489 51364
BEIDOU-3 M15 (C34)      
1 43648U 18078B   26125.19313699 -.00000055  00000+0  00000+0 0  9995
2 43648  54.1251 301.4924 0005225  51.3197 308.7090  1.86232511 51370
BEIDOU-3 G1 (C59)       
1 43683U 18085A   26126.27696743 -.00000100  00000+0  00000+0 0  9997
2 43683   2.9688  98.4816 0007576 336.7650  48.5565  1.00273475 27641
COSMOS 2529 (757)       
1 43687U 18086A   26125.47863983  .00000032  00000+0  00000+0 0  9998
2 43687  64.2928 194.0360 0010740 255.4053 104.5531  2.13102207 58370
BEIDOU-3 M17 (C36)      
1 43706U 18093A   26124.25560287  .00000039  00000+0  00000+0 0  9991
2 43706  54.1671 183.7871 0009060 291.5995  52.0128  1.86228658 50713
BEIDOU-3 M18 (C37)      
1 43707U 18093B   26124.14301252  .00000040  00000+0  00000+0 0  9997
2 43707  54.1677 183.7828 0007225 323.5923  36.4466  1.86226703 50710
GPS BIII-1  (PRN 04)    
1 43873U 18109A   26126.27782193  .00000021  00000+0  00000+0 0  9991
2 43873  55.6571  93.8394 0038091 198.8492 264.6640  2.00559923 54231
BEIDOU-3 IGSO-1 (C38)   
1 44204U 19023A   26120.68081943 -.00000239  00000+0  00000+0 0  9992
2 44204  58.6323  38.1392 0024402 235.3065 306.5734  1.00254513  6730
BEIDOU-2 G8 (C01)       
1 44231U 19027A   26126.29089813 -.00000239  00000+0  00000+0 0  9993
2 44231   1.5526  74.4113 0011214 281.4009 117.5251  1.00275930 25666
COSMOS 2534 (758)       
1 44299U 19030A   26126.24090495  .00000029  00000+0  00000+0 0  9990
2 44299  64.3663 194.0285 0012239 276.2351  83.0426  2.13102576 54021
BEIDOU-3 IGSO-2 (C39)   
1 44337U 19035A   26125.00223196 -.00000073  00000+0  00000+0 0  9997
2 44337  55.2377 159.2418 0039428 215.2872 328.9066  1.00280508 25235
GPS BIII-2  (PRN 18)    
1 44506U 19056A   26126.00897455 -.00000074  00000+0  00000+0 0  9995
2 44506  55.6561 332.8192 0059939 197.3011 334.5563  2.00569589 49224
BEIDOU-3 M24 (C46)      
1 44542U 19061A   26123.67526829  .00000043  00000+0  00000+0 0  9990
2 44542  54.3944 184.2291 0008081   4.9676 355.1289  1.86229129 44962
BEIDOU-3 M23 (C45)      
1 44543U 19061B   26123.37815339  .00000045  00000+0  00000+0 0  9997
2 44543  54.3931 184.2075 0005130 346.2443  86.5306  1.86227528 44961
EUTELSAT 5 WEST B (EGN*)
1 44624U 19067A   26126.18997243 -.00000034  00000+0  00000+0 0  9999
2 44624   0.0686 337.2172 0003266  72.0131 238.2327  1.00275286 24013
BEIDOU-3 IGSO-3 (C40)   
1 44709U 19073A   26120.85038409 -.00000212  00000+0  00000+0 0  9996
2 44709  54.8842 281.4069 0042404 188.8195 170.9972  1.00251230 23982
BEIDOU-3 M22 (C44)      
1 44793U 19078A   26125.12531897 -.00000056  00000+0  00000+0 0  9994
2 44793  53.9764 301.3417 0007280  47.0704 312.9722  1.86227453 43844
BEIDOU-3 M21 (C43)      
1 44794U 19078B   26125.80231316 -.00000051  00000+0  00000+0 0  9998
2 44794  53.9484 301.2800 0005062  44.7613 315.2624  1.86227997 43860
COSMOS 2544 (759)       
1 44850U 19088A   26125.32649487 -.00000001  00000+0  00000+0 0  9996
2 44850  65.5432  75.1600 0014738 261.6156  98.1948  2.13102112 49800
BEIDOU-3 M19 (C41)      
1 44864U 19090A   26125.80802259 -.00000036  00000+0  00000+0 0  9993
2 44864  56.5234  64.1912 0019369 295.5783 265.2615  1.86227096 43446
BEIDOU-3 M20 (C42)      
1 44865U 19090B   26126.18303906 -.00000033  00000+0  00000+0 0  9998
2 44865  56.5259  64.2128 0017204 308.5002 233.3706  1.86231821 43436
BEIDOU-3 G2 (C60)       
1 45344U 20017A   26126.13552623 -.00000132  00000+0  00000+0 0  9999
2 45344   2.7804  46.6796 0002954   3.2536 302.8974  1.00271512 22837
COSMOS 2545 (760)       
1 45358U 20018A   26125.99106334 -.00000031  00000+0  00000+0 0  9990
2 45358  64.3804 313.9015 0007126 236.5595 123.3811  2.13102700 47764
BEIDOU-3 G3 (C61)       
1 45807U 20040A   26126.28413810 -.00000345  00000+0  00000+0 0  9995
2 45807   2.3451  67.3300 0004145 340.1026  29.4390  1.00266300 21659
GPS BIII-3  (PRN 23)    
1 45854U 20041A   26124.11433877 -.00000088  00000+0  00000+0 0  9997
2 45854  56.6426  30.6538 0062427 204.9389 339.0055  2.00559922 43150
GALAXY 30 (WAAS/PRN 135)
1 46114U 20056C   26126.23755260  .00000045  00000+0  00000+0 0  9993
2 46114   0.0074 297.3080 0002651 121.6019 125.7204  1.00271727 20877
COSMOS 2547 (705K)      
1 46805U 20075A   26125.24171473  .00000033  00000+0  00000+0 0  9996
2 46805  64.5969 193.9081 0008440 236.6486 123.3485  2.13100494 42990
GPS BIII-4  (PRN 14)    
1 46826U 20078A   26124.44025308  .00000014  00000+0  00000+0 0  9997
2 46826  53.9867 212.5528 0071479 206.0342 188.1917  2.00565048 40634
GPS BIII-5  (PRN 11)    
1 48859U 21054A   26125.37706295 -.00000079  00000+0  00000+0 0  9996
2 48859  55.1936 334.1809 0024150 229.4181 306.9589  2.00572104 35898
QZS-1R (QZSS/PRN 196)   
1 49336U 21096A   26123.75530749 -.00000244  00000+0  00000+0 0  9996
2 49336  37.3738  80.2374 0751982 270.9653 278.0206  1.00271331 16567
GSAT0223 (GALILEO 27)   
1 49809U 21116A   26124.29072407 -.00000081  00000+0  00000+0 0  9995
2 49809  57.1748 342.8611 0000411 234.3883 305.1894  1.70476167 27431
GSAT0224 (GALILEO 28)   
1 49810U 21116B   26124.10462745 -.00000081  00000+0  00000+0 0  9995
2 49810  57.1751 342.8650 0001152  75.3730 102.5990  1.70476164 27452
COSMOS 2557 (706K)      
1 52984U 22075A   26124.46778403 -.00000043  00000+0  00000+0 0  9994
2 52984  64.3237 316.0251 0010121 280.7053  79.1925  2.13102174 29783
COSMOS 2559 (707K)      
1 54031U 22130A   26121.47174906 -.00000052  00000+0  00000+0 0  9997
2 54031  64.2984 316.2158 0011492 176.0390 183.9882  2.13101622 27698
COSMOS 2564 (761)       
1 54377U 22161A   26125.06925443  .00000034  00000+0  00000+0 0  9992
2 54377  64.7390 194.1425 0011285 220.8565 139.1366  2.13102049 26715
GPS BIII-6  (PRN 28)    
1 55268U 23009A   26125.33409782  .00000050  00000+0  00000+0 0  9995
2 55268  55.1157 150.2032 0005745 314.6169 228.4536  2.00574614 24382
BEIDOU-3 G4 (C62)       
1 56564U 23066A   26126.29003146 -.00000274  00000+0  00000+0 0  9997
2 56564   0.5432 321.7226 0003477 157.7656 349.1370  1.00269418 10978
NVS-01 (IRNSS-1J)       
1 56759U 23076A   26126.18794660 -.00000328  00000+0  00000+0 0  9990
2 56759   2.2658 246.1906 0004333  58.1474 116.9248  1.00274845 10695
COSMOS 2569 (703K)      
1 57517U 23114A   26126.02018780  .00000002  00000+0  00000+0 0  9999
2 57517  65.2797  74.0417 0012155 295.7647  64.0910  2.13103867 21363
BEIDOU-3 M28 (C50)      
1 58654U 23207A   26125.87951921 -.00000037  00000+0  00000+0 0  9999
2 58654  55.7173  63.7300 0004392 326.6847  33.2683  1.86229864 16054
BEIDOU-3 M26 (C48)      
1 58655U 23207B   26126.21397424 -.00000035  00000+0  00000+0 0  9999
2 58655  55.7195  63.7051 0004681 307.5290  52.4106  1.86229846 16045
GSAT0225 (GALILEO 29)   
1 59598U 24079A   26123.52773475  .00000024  00000+0  00000+0 0  9996
2 59598  55.0919 102.3267 0002635 280.7133 256.3971  1.70474611 12555
GSAT0227 (GALILEO 30)   
1 59600U 24079C   26125.76883366  .00000033  00000+0  00000+0 0  9999
2 59600  55.0886 102.2629 0001338  18.9822 340.9885  1.70474446 12648
GSAT0232 (GALILEO 32)   
1 61182U 24167A   26124.24923167  .00000002  00000+0  00000+0 0  9997
2 61182  55.1982 222.5188 0005377 220.9622 141.9031  1.70474560 10131
GSAT0226 (GALILEO 31)   
1 61183U 24167B   26124.63858007  .00000003  00000+0  00000+0 0  9992
2 61183  55.1966 222.5155 0001909 201.9502 131.2164  1.70474640 10106
BEIDOU-3 M25 (C47)      
1 61186U 24168B   26125.22861906 -.00000056  00000+0  00000+0 0  9993
2 61186  54.5128 303.7348 0003251 317.0066 219.5182  1.86230388 10986
BEIDOU-3 M27 (C49)      
1 61187U 24168C   26126.12922142 -.00000050  00000+0  00000+0 0  9998
2 61187  54.5075 303.6867 0002462  40.2046 155.1436  1.86230472  8471
GPS BIII-7  (PRN 01)    
1 62339U 24242A   26124.21969034 -.00000086  00000+0  00000+0 0  9999
2 62339  54.8663 335.9641 0017000   3.1386 177.9787  2.00571071 10377
NVS-02 (IRNSS-1K)       
1 62850U 25020A   26125.73984166  .00001169  00000+0  79658-3 0  9994
2 62850  20.7775 274.7469 7348639 121.1094 330.0986  2.17906168 10053
QZS-6 (QZSS/PRN 200)    
1 62876U 25023A   26126.10808663 -.00000225  00000+0  00000+0 0  9998
2 62876   0.0540  77.2013 0002841 337.4958 298.7112  1.00271944  4534
COSMOS 2584 (704K)      
1 63130U 25042A   26124.03004175 -.00000016  00000+0  00000+0 0  9997
2 63130  65.0608  74.3024 0006586 236.4269 123.4829  2.13103835  9102
GPS BIII-8  (PRN 21)    
1 64202U 25116A   26120.52613795 -.00000106  00000+0  00000+0 0  9994
2 64202  55.2044  33.0485 0009185 336.4647 239.4016  2.00549603  6915
COSMOS 2596 (708K)      
1 65590U 25206B   26124.12737738 -.00000045  00000+0  00000+0 0  9991
2 65590  64.6594 316.5194 0011469 316.6167 234.8121  2.13100814  4972
GSAT0233 (GALILEO 33)   
1 67160U 25302A   26126.00669777  .00000034  00000+0  00000+0 0  9996
2 67160  54.3085 103.3317 0002013 243.1482 306.1537  1.70474618  2404
GSAT0234 (GALILEO 34)   
1 67162U 25302C   26125.63395045  .00000032  00000+0  00000+0 0  9998
2 67162  54.3104 103.3413 0003812 293.3893 207.2543  1.70474658  2453
GPS BIII-9  (PRN 20)    
1 67588U 26017A   26125.32115847  .00000005  00000+0  00000+0 0  9990
2 67588  55.0610  90.4749 0023241 254.5482 105.1651  2.00572141430758
GPS BIII-10 (PRN 13)    
1 68791U 26087A   26112.34150053  .00002417  00000+0  19778-2 0  9994
2 68791  54.9968 210.8716 5942075 270.2176  26.1146  4.03281331    56
