GPS BIIR-5  (PRN 22)    
1 26407U 00040A   26147.59134796  .00000022  00000+0  00000+0 0  9999
2 26407  54.8543 215.9805 0121308 302.3806 230.5789  2.00557585189534
GPS BIIR-8  (PRN 16)    
1 27663U 03005A   26147.19509756  .00000017  00000+0  00000+0 0  9990
2 27663  54.8855 215.8029 0147939  53.0251 329.5555  2.00561751170893
GPS BIIR-11 (PRN 19)    
1 28190U 04009A   26147.41071382 -.00000082  00000+0  00000+0 0  9998
2 28190  54.8477 276.5263 0115206 172.1743 159.7064  2.00555451162523
GPS BIIR-13 (PRN 02)    
1 28474U 04045A   26147.35767640 -.00000092  00000+0  00000+0 0  9996
2 28474  55.1487 325.7346 0169826 315.8834  42.6857  2.00555051158000
GPS BIIRM-1 (PRN 17)    
1 28874U 05038A   26147.37932212 -.00000080  00000+0  00000+0 0  9991
2 28874  54.8957 274.0169 0127749 296.0244  40.9901  2.00567173151411
INMARSAT 4-F2 (SOUTHPA*)
1 28899U 05044A   26147.96493029 -.00000255  00000+0  00000+0 0  9992
2 28899   5.0704  43.7370 0003281  21.5977 311.0474  1.00272044 75319
GPS BIIRM-2 (PRN 31)    
1 29486U 06042A   26147.07056722  .00000093  00000+0  00000+0 0  9990
2 29486  54.7077 152.1771 0106259  53.9498 318.2551  2.00571081143979
GPS BIIRM-3 (PRN 12)    
1 29601U 06052A   26147.47749796  .00000023  00000+0  00000+0 0  9997
2 29601  54.9366 214.8273 0085564  90.6521 270.3981  2.00557107142993
GPS BIIRM-4 (PRN 15)    
1 32260U 07047A   26147.78227869 -.00000057  00000+0  00000+0 0  9991
2 32260  54.0808  80.9064 0165936  86.9886 274.8778  2.00556315136406
COSMOS 2433 (720)       
1 32275U 07052A   26144.45276463 -.00000045  00000+0  00000+0 0  9995
2 32275  65.5906 316.7315 0001789 184.8625 175.1353  2.13103983144551
COSMOS 2432 (719)       
1 32276U 07052B   26147.35152829 -.00000061  00000+0  00000+0 0  9995
2 32276  65.6055 316.7618 0007912 334.5151  33.2841  2.13103240144648
GPS BIIRM-5 (PRN 29)    
1 32384U 07062A   26147.84669517 -.00000079  00000+0  00000+0 0  9996
2 32384  55.0486 274.9701 0035340 164.3080   9.2788  2.00558925135107
COSMOS 2434 (721)       
1 32393U 07065A   26147.40986510  .00000076  00000+0  00000+0 0  9992
2 32393  64.3163 192.6167 0001065 356.5469   1.9869  2.13101353143322
COSMOS 2436 (723)       
1 32395U 07065C   26147.25068185  .00000075  00000+0  00000+0 0  9995
2 32395  64.3246 192.6940 0017169 355.5087  13.3114  2.13100249143280
GPS BIIRM-6 (PRN 07)    
1 32711U 08012A   26147.19685597  .00000091  00000+0  00000+0 0  9993
2 32711  54.4942 150.7631 0210776 247.5721 110.2082  2.00571922133333
GPS BIIRM-8 (PRN 05)    
1 35752U 09043A   26147.69460721 -.00000105  00000+0  00000+0 0  9998
2 35752  56.1978  28.2565 0053558  82.3610 288.3452  2.00555469122951
COSMOS 2456 (730)       
1 36111U 09070A   26147.42814324 -.00000062  00000+0  00000+0 0  9993
2 36111  65.0001  71.6793 0005344 325.0267 205.5549  2.13103588127988
COSMOS 2457 (733)       
1 36112U 09070B   26147.74330237 -.00000063  00000+0  00000+0 0  9996
2 36112  64.9859  71.5130 0001988 128.7659  51.1913  2.13101049127996
COSMOS 2460 (732)       
1 36402U 10007C   26147.50482167 -.00000063  00000+0  00000+0 0  9994
2 36402  65.4349 315.1661 0002254  94.4404 264.5388  2.13101719126289
GPS BIIF-1  (PRN 25)    
1 36585U 10022A   26147.58046323  .00000036  00000+0  00000+0 0  9990
2 36585  54.2720 209.3923 0126337  66.1084 340.1399  2.00561459117183
BEIDOU-2 IGSO-1 (C06)   
1 36828U 10036A   26147.46685914 -.00000034  00000+0  00000+0 0  9996
2 36828  54.2985 163.1463 0058783 225.0151 132.4646  1.00280750 57880
BEIDOU-2 G4 (C04)       
1 37210U 10057A   26147.89687791 -.00000106  00000+0  00000+0 0  9997
2 37210   3.5989  69.0704 0005203 207.7055  91.5416  1.00272202 57083
BEIDOU-2 IGSO-2 (C07)   
1 37256U 10068A   26144.72062291 -.00000240  00000+0  00000+0 0  9999
2 37256  47.5917 272.1217 0054627 212.0033 124.4313  1.00291178 56553
BEIDOU-2 IGSO-3 (C08)   
1 37384U 11013A   26145.76373632 -.00000214  00000+0  00000+0 0  9992
2 37384  62.3785  40.3624 0034309 185.2094  40.8863  1.00273335 55435
GSAT-8 (GAGAN/PRN 127)  
1 37605U 11022A   26147.94738399  .00000092  00000+0  00000+0 0  9998
2 37605   2.0807  82.0640 0002662 227.9184 331.6349  1.00271507 53010
BEIDOU-2 IGSO-4 (C09)   
1 37763U 11038A   26147.52701374  .00000056  00000+0  00000+0 0  9997
2 37763  54.5948 165.8560 0158606 231.3856 129.9775  1.00289039 54447
GSAT0101 (GALILEO-PFM)  
1 37846U 11060A   26142.03870752 -.00000087  00000+0  00000+0 0  9997
2 37846  57.0040 342.4699 0003643  41.9521 318.0951  1.70475642 90676
GSAT0102 (GALILEO-FM2)  
1 37847U 11060B   26147.54116095 -.00000090  00000+0  00000+0 0  9996
2 37847  57.0044 342.3212 0003829  12.0046 170.6217  1.70476075 90777
COSMOS 2476 (744)       
1 37867U 11064A   26147.55988468 -.00000060  00000+0  00000+0 0  9991
2 37867  65.2594  73.5669 0023267 240.7269 299.2567  2.13103645113325
COSMOS 2477 (745)       
1 37868U 11064B   26147.81029400 -.00000060  00000+0  00000+0 0  9993
2 37868  65.2661  73.6377 0020265 242.1447 310.3460  2.13102892113327
COSMOS 2475 (743)       
1 37869U 11064C   26147.38658444 -.00000059  00000+0  00000+0 0  9990
2 37869  65.2728  73.6734 0026272 254.5824 288.0607  2.13101735113328
BEIDOU-2 IGSO-5 (C10)   
1 37948U 11073A   26147.31306150 -.00000223  00000+0  00000+0 0  9998
2 37948  47.7169 271.8022 0112379 220.8848 316.5418  1.00254205 52929
LUCH 5A (SDCM/PRN 140)  
1 37951U 11074B   26147.63656986 -.00000045  00000+0  00000+0 0  9995
2 37951   8.7041  74.1072 0002497 356.2339 211.1074  1.00269053 52842
BEIDOU-2 G5 (C05)       
1 38091U 12008A   26147.94807733  .00000063  00000+0  00000+0 0  9990
2 38091   3.5257  69.8233 0010630 272.9300 302.8130  1.00276136 52166
BEIDOU-2 M3 (C11)       
1 38250U 12018A   26147.24732582 -.00000096  00000+0  00000+0 0  9997
2 38250  55.7763 305.5799 0019691 275.6550  84.0951  1.86229596 95556
BEIDOU-2 M4 (C12)       
1 38251U 12018B   26147.17959287 -.00000096  00000+0  00000+0 0  9993
2 38251  55.6760 304.7978 0010887 279.1904  80.6607  1.86229248 95557
SES-5 (EGNOS/PRN 136)   
1 38652U 12036A   26147.93744222  .00000041  00000+0  00000+0 0  9992
2 38652   0.0500 308.6934 0002063 116.5996 162.6582  1.00272547 44255
BEIDOU-2 M6 (C14)       
1 38775U 12050B   26145.27851899 -.00000078  00000+0  00000+0 0  9999
2 38775  56.5251  63.6516 0014149 353.6619   6.3126  1.86230917 92887
GSAT-10 (GAGAN/PRN 128) 
1 38779U 12051B   26147.95288356 -.00000157  00000+0  00000+0 0  9991
2 38779   0.0384 261.6763 0007843 183.1767 226.6845  1.00273113 49898
GPS BIIF-3  (PRN 24)    
1 38833U 12053A   26147.87501702  .00000078  00000+0  00000+0 0  9999
2 38833  53.5821 144.4312 0179232  65.4768 296.3959  2.00567192 99036
GSAT0103 (GALILEO-FM3)  
1 38857U 12055A   26143.25235125  .00000021  00000+0  00000+0 0  9996
2 38857  55.7947 102.2291 0005482 300.3208  59.5856  1.70473380 84588
BEIDOU-2 G6 (C02)       
1 38953U 12059A   26147.88179784 -.00000168  00000+0  00000+0 0  9991
2 38953   4.3725  73.7395 0010443 323.6236 249.5185  1.00269689 49707
LUCH 5B (SDCM/PRN 125)  
1 38977U 12061A   26147.00637512 -.00000138  00000+0  00000+0 0  9999
2 38977  10.4408  50.0939 0001124 148.5236  31.8795  1.00270543 49396
COSMOS 2485 (747)       
1 39155U 13019A   26147.26256176 -.00000057  00000+0  00000+0 0  9993
2 39155  65.4090  74.3060 0023585 235.9066 123.8569  2.13103062101838
GPS BIIF-4  (PRN 27)    
1 39166U 13023A   26147.74138878 -.00000075  00000+0  00000+0 0  9991
2 39166  54.5205 269.8063 0141717  50.9299 310.3062  2.00563677 95473
IRNSS-1A                
1 39199U 13034A   26142.85947303  .00000059  00000+0  00000+0 0  9998
2 39199  35.6649  64.2334 0016618 185.3754 355.4646  1.00280263 47111
GPS BIIF-5  (PRN 30)    
1 39533U 14008A   26147.24423220  .00000088  00000+0  00000+0 0  9999
2 39533  53.6510 150.1738 0084180 230.9118 128.3626  2.00558501 89264
ASTRA 5B (EGNOS/PRN 123)
1 39617U 14011B   26147.94116890  .00000145  00000+0  00000+0 0  9999
2 39617   0.0506 325.3536 0002528  74.5638 207.8736  1.00272201 44462
COSMOS 2492 (754)       
1 39620U 14012A   26147.22148484 -.00000062  00000+0  00000+0 0  9998
2 39620  65.3097 314.6476 0010717 328.3407  31.5876  2.13103148 94798
IRNSS-1B                
1 39635U 14017A   26139.86086405  .00000103  00000+0  00000+0 0  9999
2 39635  28.9733 240.8911 0024226 185.2284 176.5740  1.00280229 44519
LUCH 5V (SDCM/PRN 141)  
1 39727U 14023A   26147.87663862 -.00000263  00000+0  00000+0 0  9994
2 39727   5.0853  69.9534 0002462  16.9732 208.8613  1.00271635 44156
GPS BIIF-6  (PRN 06)    
1 39741U 14026A   26147.51963622 -.00000090  00000+0  00000+0 0  9999
2 39741  56.5083 332.3218 0038390 326.8827  32.8879  2.00562632 88126
COSMOS 2500 (755)       
1 40001U 14032A   26146.92225498 -.00000061  00000+0  00000+0 0  9991
2 40001  65.2457 314.4064 0006724 181.3031 178.6887  2.13105972 93001
GPS BIIF-7  (PRN 09)    
1 40105U 14045A   26147.11248181 -.00000033  00000+0  00000+0 0  9995
2 40105  55.3401  89.3042 0032505 118.5002 241.7947  2.00557055 85655
GSAT0201 (GALILEO 5)    
1 40128U 14050A   26145.77951746 -.00000101  00000+0  00000+0 0  9990
2 40128  48.9004 274.3545 1671217 178.5208 182.0639  1.85520002 77903
GSAT0202 (GALILEO 6)    
1 40129U 14050B   26144.95716844 -.00000096  00000+0  00000+0 0  9991
2 40129  48.9181 273.4734 1672209 179.2149 181.1057  1.85520586 80055
IRNSS-1C                
1 40269U 14061A   26147.88162450 -.00000155  00000+0  00000+0 0  9997
2 40269   6.4665  89.3127 0022488   0.2326 196.3053  1.00272544 42487
GPS BIIF-8  (PRN 03)    
1 40294U 14068A   26146.98410646 -.00000106  00000+0  00000+0 0  9991
2 40294  56.9735  31.7715 0066462  69.8246 290.9254  2.00575033 84782
COSMOS 2501 (702K)      
1 40315U 14075A   26147.18407720  .00000076  00000+0  00000+0 0  9990
2 40315  63.6150 191.0993 0022407 212.3957 147.5448  2.13101350 89402
GPS BIIF-9  (PRN 26)    
1 40534U 15013A   26147.12110538  .00000038  00000+0  00000+0 0  9996
2 40534  53.1696 205.0489 0109154  40.0499 320.8270  2.00552733 81404
GSAT0203 (GALILEO 7)    
1 40544U 15017A   26147.09586325 -.00000091  00000+0  00000+0 0  9998
2 40544  56.7937 342.1700 0002186 289.8439  70.1537  1.70476149 68841
GSAT0204 (GALILEO 8)    
1 40545U 15017B   26146.76501873 -.00000091  00000+0  00000+0 0  9997
2 40545  56.8003 342.1976 0001755 263.2348  96.7664  1.70475776 31882
BEIDOU-3S IGSO-1S (C31) 
1 40549U 15019A   26146.88545025 -.00000192  00000+0  00000+0 0  9995
2 40549  49.2353 295.7149 0038103 190.1163 170.5294  1.00255071 40860
GPS BIIF-10 (PRN 08)    
1 40730U 15033A   26147.28002439 -.00000076  00000+0  00000+0 0  9996
2 40730  53.9992 267.9482 0115020  30.1346 330.5075  2.00557313 79574
BEIDOU-3S M2S (C58)     
1 40748U 15037A   26147.38229648 -.00000098  00000+0  00000+0 0  9997
2 40748  54.8898 302.7613 0007617 263.7886  96.0973  1.86231864 73733
BEIDOU-3S M1S (C57)     
1 40749U 15037B   26147.05534341 -.00000097  00000+0  00000+0 0  9990
2 40749  54.8868 302.7610 0003883  58.7556 301.2559  1.86254938 73733
GSAT0205 (GALILEO 9)    
1 40889U 15045A   26144.30399159 -.00000014  00000+0  00000+0 0  9994
2 40889  54.9357 222.4171 0006405 263.0112  96.9692  1.67409242 66562
GSAT0206 (GALILEO 10)   
1 40890U 15045B   26147.34026691  .00000007  00000+0  00000+0 0  9992
2 40890  54.9503 222.1802 0001499 352.8390   7.2228  1.70473960 66683
BEIDOU-3S IGSO-2S (C56) 
1 40938U 15053A   26147.78622338 -.00000172  00000+0  00000+0 0  9996
2 40938  49.2531 259.0235 0064698 191.7213 173.7165  1.00264415 39154
GPS BIIF-11 (PRN 10)    
1 41019U 15062A   26146.83836244 -.00000106  00000+0  00000+0 0  9992
2 41019  56.9454  31.6335 0111455 231.2672 127.7673  2.00567097 77408
GSAT-15 (GAGAN/PRN 139) 
1 41028U 15065A   26147.95505024 -.00000250  00000+0  00000+0 0  9998
2 41028   0.0037 253.3674 0004147 173.5417 255.9331  1.00272617 38590
GSAT0209 (GALILEO 12)   
1 41174U 15079A   26146.92164155  .00000001  00000+0  00000+0 0  9990
2 41174  55.8155 101.8446 0005551 336.9750  22.9521  1.70473922 64412
GSAT0208 (GALILEO 11)   
1 41175U 15079B   26147.14193505  .00000000  00000+0  00000+0 0  9996
2 41175  55.8140 101.8355 0004946 338.9030  21.0276  1.70473763 64832
IRNSS-1E                
1 41241U 16003A   26147.72383744 -.00000311  00000+0  00000+0 0  9994
2 41241  33.1914  60.0463 0017844 180.4869  17.1253  1.00274423 37871
GPS BIIF-12 (PRN 32)    
1 41328U 16007A   26147.42650294 -.00000033  00000+0  00000+0 0  9999
2 41328  55.5120  90.2823 0096090 247.3175 111.6320  2.00552742 75424
COSMOS 2514 (751)       
1 41330U 16008A   26145.76069459 -.00000054  00000+0  00000+0 0  9998
2 41330  65.0356 313.7758 0010448 196.8372 163.1231  2.13102667 80143
BEIDOU-2 IGSO-6 (C13)   
1 41434U 16021A   26147.66964900 -.00000177  00000+0  00000+0 0  9990
2 41434  60.1982  38.2425 0057516 232.1052 309.9269  1.00263563 37270
IRNSS-1G                
1 41469U 16027A   26147.81953988 -.00000326  00000+0  00000+0 0  9991
2 41469   5.1478  97.9446 0007343 349.4697 222.5067  1.00276440 36972
GSAT0211 (GALILEO 14)   
1 41549U 16030A   26146.67940545  .00000001  00000+0  00000+0 0  9991
2 41549  55.1009 222.2866 0002713 333.2441  26.8017  1.70474192 62306
GSAT0210 (GALILEO 13)   
1 41550U 16030B   26146.93668424  .00000003  00000+0  00000+0 0  9997
2 41550  55.0999 222.2775 0003029 226.2727 133.7634  1.70474086 62308
BEIDOU-2 G7 (C03)       
1 41586U 16037A   26147.95834359 -.00000346  00000+0  00000+0 0  9999
2 41586   1.6722  69.1601 0007152 356.7898 275.0801  1.00275142  6683
EUTELSAT 117 WEST B (W*)
1 41589U 16038B   26147.69941841 -.00000005  00000+0  00000+0 0  9991
2 41589   0.0141 141.6265 0000152 119.7349 118.6980  1.00273899 36452
GSAT0207 (GALILEO 15)   
1 41859U 16069A   26147.21487782 -.00000001  00000+0  00000+0 0  9998
2 41859  55.4866 101.6660 0005665 324.3718  35.5412  1.70473833 59047
GSAT0212 (GALILEO 16)   
1 41860U 16069B   26147.65491325 -.00000003  00000+0  00000+0 0  9998
2 41860  55.4846 101.6490 0004712 350.8102   9.1301  1.70474009 59300
GSAT0213 (GALILEO 17)   
1 41861U 16069C   26146.26245050  .00000004  00000+0  00000+0 0  9997
2 41861  55.4859 101.6954 0005448 309.0096  50.8967  1.70474352 59149
GSAT0214 (GALILEO 18)   
1 41862U 16069D   26147.58177935 -.00000003  00000+0  00000+0 0  9990
2 41862  55.4853 101.6515 0004538 315.4500  44.4628  1.70474075 59298
SES-15 (WAAS/PRN 133)   
1 42709U 17026A   26147.55440632  .00000066  00000+0  00000+0 0  9997
2 42709   0.0196 333.7358 0000661  77.3641 264.4403  1.00270080  7225
QZS-2 (QZSS/PRN 194)    
1 42738U 17028A   26147.55590878 -.00000212  00000+0  00000+0 0  9993
2 42738  39.4596 243.4590 0760300 269.0384  73.4616  1.00289116  7414
QZS-3 (QZSS/PRN 199)    
1 42917U 17048A   26147.96163693 -.00000340  00000+0  00000+0 0  9992
2 42917   0.0679 216.2825 0002733 217.8418 284.5506  1.00276195 32050
COSMOS 2522 (752)       
1 42939U 17055A   26146.53708015  .00000066  00000+0  00000+0 0  9993
2 42939  64.0769 192.6214 0010357 239.2525 120.7217  2.13101796 67519
QZS-4 (QZSS/PRN 195)    
1 42965U 17062A   26147.85600442 -.00000358  00000+0  00000+0 0  9996
2 42965  40.1200 343.7403 0745034 271.4531  76.8847  1.00257619 31594
BEIDOU-3 M1 (C19)       
1 43001U 17069A   26147.19172128 -.00000090  00000+0  00000+0 0  9990
2 43001  56.6751  63.7752 0011203 322.9136  36.9999  1.86231225 58214
BEIDOU-3 M2 (C20)       
1 43002U 17069B   26147.66737089 -.00000091  00000+0  00000+0 0  9997
2 43002  56.6749  63.7958 0009756 346.0428  13.9213  1.86230610 58212
GSAT0215 (GALILEO 19)   
1 43055U 17079A   26146.89864242  .00000003  00000+0  00000+0 0  9994
2 43055  55.0788 222.0927 0003290 263.5960  96.4280  1.70474739 52627
GSAT0216 (GALILEO 20)   
1 43056U 17079B   26146.60322480  .00000001  00000+0  00000+0 0  9995
2 43056  55.0798 222.1009 0003039 278.5096  81.5157  1.70474951 52633
GSAT0217 (GALILEO 21)   
1 43057U 17079C   26147.41059995  .00000008  00000+0  00000+0 0  9991
2 43057  55.0768 222.0763 0007593 278.3312  81.6473  1.70474504 52631
GSAT0218 (GALILEO 22)   
1 43058U 17079D   26145.87091427 -.00000005  00000+0  00000+0 0  9994
2 43058  55.0777 222.1164 0004142 273.6717  86.3372  1.70474864 52631
BEIDOU-3 M7 (C27)       
1 43107U 18003A   26147.40906865 -.00000099  00000+0  00000+0 0  9992
2 43107  54.3469 303.0383 0005206  89.6058 270.4269  1.86227962 56966
BEIDOU-3 M8 (C28)       
1 43108U 18003B   26147.35415990 -.00000099  00000+0  00000+0 0  9991
2 43108  54.3402 303.0221 0002203 269.9431  90.0047  1.86230969 56979
BEIDOU-3 M4 (C22)       
1 43207U 18018A   26145.11218105 -.00000075  00000+0  00000+0 0  9992
2 43207  56.6323  63.9085 0007919  10.8909 349.1186  1.86231187 56311
BEIDOU-3 M3 (C21)       
1 43208U 18018B   26145.71559384 -.00000081  00000+0  00000+0 0  9993
2 43208  56.6322  63.8926 0009521 335.5647  24.3816  1.86231136 56328
BEIDOU-3 M9 (C29)       
1 43245U 18029A   26145.39635958 -.00000091  00000+0  00000+0 0  9993
2 43245  54.2150 300.7449 0000920 121.0024 238.9826  1.86228327 55473
BEIDOU-3 M10 (C30)      
1 43246U 18029B   26147.47866076 -.00000099  00000+0  00000+0 0  9990
2 43246  54.2109 300.6984 0004353  39.6866 320.3166  1.86229052 55494
IRNSS-1I                
1 43286U 18035A   26147.87602728  .00000079  00000+0  00000+0 0  9994
2 43286  29.1293  74.5086 0018104 177.4725   3.8182  1.00275240 29877
COSMOS 2527 (756)       
1 43508U 18053A   26146.96785354 -.00000055  00000+0  00000+0 0  9992
2 43508  65.5672  74.6145 0007606 245.0663 114.8417  2.13102076 61820
BEIDOU-2 IGSO-7 (C16)   
1 43539U 18057A   26147.95851692 -.00000003  00000+0  00000+0 0  9992
2 43539  55.1912 163.2337 0104506 238.0087 300.6961  1.00257311 28924
GSAT0221 (GALILEO 25)   
1 43564U 18060A   26146.36140231 -.00000090  00000+0  00000+0 0  9994
2 43564  57.1759 342.3693 0003012 315.1043  44.8931  1.70475986 48795
GSAT0222 (GALILEO 26)   
1 43565U 18060B   26147.16761025 -.00000090  00000+0  00000+0 0  9994
2 43565  57.1799 342.3512 0001790 265.3235  94.6777  1.70475760 48858
GSAT0219 (GALILEO 23)   
1 43566U 18060C   26146.21536171 -.00000090  00000+0  00000+0 0  9992
2 43566  57.1791 342.3783 0002548 333.1489  26.8596  1.70475959 48810
GSAT0220 (GALILEO 24)   
1 43567U 18060D   26147.02292926 -.00000090  00000+0  00000+0 0  9990
2 43567  57.1785 342.3560 0002583 325.9826  34.0225  1.70475982 48816
BEIDOU-3 M5 (C23)       
1 43581U 18062A   26145.01805365  .00000061  00000+0  00000+0 0  9999
2 43581  54.0837 183.0913 0005265 288.8293  71.1823  1.86228616 53205
BEIDOU-3 M6 (C24)       
1 43582U 18062B   26146.49229889  .00000080  00000+0  00000+0 0  9995
2 43582  54.0837 183.0305 0004830  12.6596 347.4270  1.86227672 53236
BEIDOU-3 M12 (C26)      
1 43602U 18067A   26146.96765594  .00000086  00000+0  00000+0 0  9999
2 43602  54.1789 181.7599 0007798  30.6999 329.4209  1.86227740 52720
BEIDOU-3 M11 (C25)      
1 43603U 18067B   26147.10265738  .00000087  00000+0  00000+0 0  9993
2 43603  54.1759 181.7187 0004484  14.6553 345.4333  1.86227196 52752
BEIDOU-3 M13 (C32)      
1 43622U 18072A   26147.05758366 -.00000090  00000+0  00000+0 0  9993
2 43622  56.6078  63.3562 0008067 325.2119  34.7267  1.86231171 52264
BEIDOU-3 M14 (C33)      
1 43623U 18072B   26145.31216269 -.00000078  00000+0  00000+0 0  9998
2 43623  56.6077  63.4081 0006600 352.9890   6.9944  1.86231149 52229
BEIDOU-3 M16 (C35)      
1 43647U 18078A   26147.61561525 -.00000100  00000+0  00000+0 0  9999
2 43647  54.1094 300.7068 0007617  40.3946 319.6332  1.86232400 51773
BEIDOU-3 M15 (C34)      
1 43648U 18078B   26145.59712991 -.00000092  00000+0  00000+0 0  9990
2 43648  54.1072 300.7779 0004692  55.3023 304.7174  1.86232426 51756
BEIDOU-3 G1 (C59)       
1 43683U 18085A   26147.89687791 -.00000101  00000+0  00000+0 0  9992
2 43683   2.8191  97.9242 0008264 342.9992 287.3712  1.00271789 27855
COSMOS 2529 (757)       
1 43687U 18086A   26145.18750413  .00000047  00000+0  00000+0 0  9997
2 43687  64.2931 193.3710 0011483 256.0033 103.9404  2.13102011 58796
BEIDOU-3 M17 (C36)      
1 43706U 18093A   26144.20755414  .00000050  00000+0  00000+0 0  9999
2 43706  54.1673 183.1096 0009837 291.2944 109.0036  1.86228425 51096
BEIDOU-3 M18 (C37)      
1 43707U 18093B   26147.23236120  .00000087  00000+0  00000+0 0  9994
2 43707  54.1682 182.9990 0007728 321.1594  38.8622  1.86226707 51145
GPS BIII-1  (PRN 04)    
1 43873U 18109A   26147.31437646 -.00000026  00000+0  00000+0 0  9995
2 43873  55.6703  93.0096 0038079 198.4622 334.2506  2.00560829 54654
BEIDOU-3 IGSO-1 (C38)   
1 44204U 19023A   26141.61780730 -.00000234  00000+0  00000+0 0  9993
2 44204  58.6591  37.9235 0025546 227.4594 312.4431  1.00299087  6947
BEIDOU-2 G8 (C01)       
1 44231U 19027A   26147.96510362 -.00000240  00000+0  00000+0 0  9990
2 44231   1.6091  74.4794 0010535 283.1088  19.8360  1.00268745 25874
COSMOS 2534 (758)       
1 44299U 19030A   26144.13934797  .00000034  00000+0  00000+0 0  9996
2 44299  64.3666 193.4262 0012892 275.4828 134.9025  2.13102273 54415
BEIDOU-3 IGSO-2 (C39)   
1 44337U 19035A   26146.93378122 -.00000044  00000+0  00000+0 0  9990
2 44337  55.2421 159.0483 0039755 216.5971 324.9930  1.00274571 25455
GPS BIII-2  (PRN 18)    
1 44506U 19056A   26147.94599443 -.00000093  00000+0  00000+0 0  9998
2 44506  55.6423 331.9461 0060928 197.3122 334.5638  2.00569744 49667
BEIDOU-3 M24 (C46)      
1 44542U 19061A   26147.30127628  .00000087  00000+0  00000+0 0  9998
2 44542  54.3949 183.4322 0008241   0.0366   0.0413  1.86229067 45400
BEIDOU-3 M23 (C45)      
1 44543U 19061B   26147.69690507  .00000089  00000+0  00000+0 0  9994
2 44543  54.3935 183.3870 0005470 340.0590 196.9929  1.86227379 45412
EUTELSAT 5 WEST B (EGN*)
1 44624U 19067A   26147.93553554 -.00000035  00000+0  00000+0 0  9999
2 44624   0.0644 345.9132 0003280  78.2108 153.1493  1.00272132 24237
BEIDOU-3 IGSO-3 (C40)   
1 44709U 19073A   26136.81046384 -.00000217  00000+0  00000+0 0  9995
2 44709  54.8566 281.2355 0042953 189.4588 170.3676  1.00246251 24144
BEIDOU-3 M22 (C44)      
1 44793U 19078A   26144.99290991 -.00000088  00000+0  00000+0 0  9992
2 44793  53.9582 300.6429 0006925  49.8976 310.1398  1.86227031 44216
BEIDOU-3 M21 (C43)      
1 44794U 19078B   26147.81768319 -.00000100  00000+0  00000+0 0  9996
2 44794  53.9277 300.5048 0004797  48.2070 311.8048  1.86227616 44272
COSMOS 2544 (759)       
1 44850U 19088A   26146.91256838 -.00000055  00000+0  00000+0 0  9997
2 44850  65.5550  74.4400 0013839 260.8962  98.9346  2.13101801 50264
BEIDOU-3 M19 (C41)      
1 44864U 19090A   26147.80997142 -.00000091  00000+0  00000+0 0  9994
2 44864  56.5425  63.4634 0018486 297.4650 254.5430  1.86231563 43859
BEIDOU-3 M20 (C42)      
1 44865U 19090B   26145.50549531 -.00000080  00000+0  00000+0 0  9993
2 44865  56.5420  63.5740 0016584 310.7318 225.8405  1.86231466 43799
BEIDOU-3 G2 (C60)       
1 45344U 20017A   26147.95236356 -.00000134  00000+0  00000+0 0  9996
2 45344   2.8251  47.0657 0002694  15.2329 246.0889  1.00271232 23057
COSMOS 2545 (760)       
1 45358U 20018A   26147.57697420 -.00000066  00000+0  00000+0 0  9997
2 45358  64.3680 313.1426 0007604 232.5366 127.3844  2.13102367 48228
BEIDOU-3 G3 (C61)       
1 45807U 20040A   26147.95834359 -.00000346  00000+0  00000+0 0  9998
2 45807   2.3998  67.4111 0003303 339.0029 294.5857  1.00267487 21864
GPS BIII-3  (PRN 23)    
1 45854U 20041A   26146.10547824 -.00000108  00000+0  00000+0 0  9991
2 45854  56.6562  29.7996 0063077 204.8081  17.3989  2.00559306 43594
GALAXY 30 (WAAS/PRN 135)
1 46114U 20056C   26147.91178464  .00000044  00000+0  00000+0 0  9995
2 46114   0.0176  39.2456 0002421  20.8468  28.6136  1.00270195 21091
COSMOS 2547 (705K)      
1 46805U 20075A   26147.29709020  .00000074  00000+0  00000+0 0  9995
2 46805  64.5978 193.1732 0009020 238.9590 121.0318  2.13100232 43464
GPS BIII-4  (PRN 14)    
1 46826U 20078A   26147.56611101  .00000031  00000+0  00000+0 0  9996
2 46826  53.9822 211.6149 0072576 206.6909 325.8061  2.00565013 41091
GPS BIII-5  (PRN 11)    
1 48859U 21054A   26137.34480044 -.00000068  00000+0  00000+0 0  9995
2 48859  55.1880 333.6992 0024563 229.1333 308.8673  2.00570737 36130
QZS-1R (QZSS/PRN 196)   
1 49336U 21096A   26147.67658237 -.00000280  00000+0  00000+0 0  9996
2 49336  37.4222  79.8848 0753411 271.4326 272.5385  1.00263121 16800
GSAT0223 (GALILEO 27)   
1 49809U 21116A   26147.17961856 -.00000090  00000+0  00000+0 0  9992
2 49809  57.1663 342.2413 0000855 182.2918   4.7055  1.70476150 27829
GSAT0224 (GALILEO 28)   
1 49810U 21116B   26147.86274925 -.00000090  00000+0  00000+0 0  9994
2 49810  57.1681 342.2216 0000705 127.6252 231.2464  1.70476248 27852
COSMOS 2557 (706K)      
1 52984U 22075A   26142.29965628 -.00000040  00000+0  00000+0 0  9999
2 52984  64.3148 315.3974 0010092 278.3503  81.5318  2.13101899 30168
COSMOS 2559 (707K)      
1 54031U 22130A   26143.99626682 -.00000046  00000+0  00000+0 0  9994
2 54031  64.2867 315.4211 0012040 176.3040 183.7030  2.13101609 28176
COSMOS 2564 (761)       
1 54377U 22161A   26147.12445269  .00000072  00000+0  00000+0 0  9998
2 54377  64.7399 193.4109 0011862 223.4395 136.5457  2.13102082 27187
GPS BIII-6  (PRN 28)    
1 55268U 23009A   26147.51801933  .00000089  00000+0  00000+0 0  9995
2 55268  55.1209 149.3309 0006205 315.9932  45.8450  2.00573028 24834
BEIDOU-3 G4 (C62)       
1 56564U 23066A   26147.89297789 -.00000274  00000+0  00000+0 0  9994
2 56564   0.5112 326.6210 0004019 167.8643 212.5014  1.00271565 11190
NVS-01 (IRNSS-1J)       
1 56759U 23076A   26147.96215694 -.00000326  00000+0  00000+0 0  9992
2 56759   2.2124 245.2407 0003174  47.3019  68.8890  1.00275759 10914
COSMOS 2569 (703K)      
1 57517U 23114A   26147.13678281 -.00000058  00000+0  00000+0 0  9994
2 57517  65.2910  73.3300 0011561 296.4894  63.3805  2.13103819 21817
BEIDOU-3 M28 (C50)      
1 58654U 23207A   26145.74698356 -.00000083  00000+0  00000+0 0  9998
2 58654  55.7339  63.0599 0003864 337.3189  22.6561  1.86229741 16424
BEIDOU-3 M26 (C48)      
1 58655U 23207B   26147.15535039 -.00000091  00000+0  00000+0 0  9993
2 58655  55.7371  62.9989 0003919 314.3871  45.5723  1.86229800 16437
GSAT0225 (GALILEO 29)   
1 59598U 24079A   26142.30044818  .00000020  00000+0  00000+0 0  9991
2 59598  55.1041 101.8024 0002201 291.9380 246.4363  1.70474068 12870
GSAT0227 (GALILEO 30)   
1 59600U 24079C   26146.88581095  .00000000  00000+0  00000+0 0  9993
2 59600  55.1024 101.6734 0001718  34.4125 325.5509  1.70474178 13009
GSAT0232 (GALILEO 32)   
1 61182U 24167A   26146.52040878  .00000001  00000+0  00000+0 0  9990
2 61182  55.1902 221.9079 0005684 223.3864 127.8672  1.70474549 10503
GSAT0226 (GALILEO 31)   
1 61183U 24167B   26146.38769904  .00000000  00000+0  00000+0 0  9992
2 61183  55.1890 221.9189 0002464 219.6930 141.4519  1.70474497 10488
BEIDOU-3 M25 (C47)      
1 61186U 24168B   26147.51185785 -.00000099  00000+0  00000+0 0  9990
2 61186  54.4924 302.9600 0003013 311.1121  45.1493  1.86230282 11391
BEIDOU-3 M27 (C49)      
1 61187U 24168C   26147.58638649 -.00000099  00000+0  00000+0 0  9990
2 61187  54.4876 302.9404 0002068  47.3266 133.9248  1.86230356  8872
GPS BIII-7  (PRN 01)    
1 62339U 24242A   26143.66691069 -.00000087  00000+0  00000+0 0  9990
2 62339  54.8596 335.1744 0017373   3.8345 179.6490  2.00571082 10768
QZS-6 (QZSS/PRN 200)    
1 62876U 25023A   26147.95444356 -.00000225  00000+0  00000+0 0  9999
2 62876   0.0118 330.5365 0002498  98.3718 250.7092  1.00270728  4742
COSMOS 2584 (704K)      
1 63130U 25042A   26147.02366059 -.00000058  00000+0  00000+0 0  9999
2 63130  65.0730  73.5210 0005967 231.3051 128.6297  2.13103850  9597
GPS BIII-8  (PRN 21)    
1 64202U 25116A   26147.40359831 -.00000107  00000+0  00000+0 0  9999
2 64202  55.2210  31.9663 0008512 336.5821 207.5323  2.00577525  7454
COSMOS 2596 (708K)      
1 65590U 25206B   26147.35140889 -.00000064  00000+0  00000+0 0  9997
2 65590  64.6480 315.7100 0011139 314.8160  53.1341  2.13100819  5478
GSAT0233 (GALILEO 33)   
1 67160U 25302A   26141.82666015  .00000020  00000+0  00000+0 0  9990
2 67160  54.3193 102.8809 0001475 247.3745 291.0432  1.70474122  2678
GSAT0234 (GALILEO 34)   
1 67162U 25302C   26145.62522105  .00000009  00000+0  00000+0 0  9992
2 67162  54.3238 102.7722 0003517 303.1313 226.6631  1.70474307  2797
GPS BIII-9  (PRN 20)    
1 67588U 26017A   26145.76206805 -.00000018  00000+0  00000+0 0  9990
2 67588  55.0748  89.6548 0022675 256.5527 103.1658  2.00571624431165
GPS BIII-10 (PRN 13)    
1 68791U 26087A   26139.48610789  .00000028  00000+0  00000+0 0  9996
2 68791  54.9639 208.9229 0005154 271.7816  81.6763  2.00570690   255
