GPS BIIR-5  (PRN 22)    
1 26407U 00040A   26146.59346100  .00000009  00000+0  00000+0 0  9997
2 26407  54.8545 216.0201 0121318 302.3777 230.0760  2.00557557189517
GPS BIIR-8  (PRN 16)    
1 27663U 03005A   26146.67243815  .00000010  00000+0  00000+0 0  9996
2 27663  54.8855 215.8237 0147944  53.0232 312.1729  2.00561770170880
GPS BIIR-11 (PRN 19)    
1 28190U 04009A   26146.94916818 -.00000083  00000+0  00000+0 0  9998
2 28190  54.8480 276.5450 0115187 172.1529 186.4815  2.00555453162517
GPS BIIR-13 (PRN 02)    
1 28474U 04045A   26146.35956138 -.00000089  00000+0  00000+0 0  9993
2 28474  55.1491 325.7748 0169818 315.8543  42.0577  2.00554971157988
GPS BIIRM-1 (PRN 17)    
1 28874U 05038A   26146.38287602 -.00000082  00000+0  00000+0 0  9999
2 28874  54.8965 274.0571 0127743 296.0169  41.4990  2.00567214151394
INMARSAT 4-F2 (SOUTHPA*)
1 28899U 05044A   26146.40511838 -.00000259  00000+0  00000+0 0  9993
2 28899   5.0676  43.7387 0003078  21.1994 108.3737  1.00273228 75307
GPS BIIRM-2 (PRN 31)    
1 29486U 06042A   26146.07338589  .00000094  00000+0  00000+0 0  9994
2 29486  54.7075 152.2167 0106251  53.9295 318.2302  2.00571128143958
GPS BIIRM-3 (PRN 12)    
1 29601U 06052A   26144.48591474 -.00000012  00000+0  00000+0 0  9992
2 29601  54.9373 214.9459 0085609  90.6159 270.4238  2.00556903142938
GPS BIIRM-4 (PRN 15)    
1 32260U 07047A   26146.78508920 -.00000050  00000+0  00000+0 0  9993
2 32260  54.0801  80.9474 0165906  86.9698 274.8979  2.00556339136388
COSMOS 2433 (720)       
1 32275U 07052A   26144.45276463 -.00000045  00000+0  00000+0 0  9995
2 32275  65.5906 316.7315 0001789 184.8625 175.1353  2.13103983144551
COSMOS 2432 (719)       
1 32276U 07052B   26144.76433933 -.00000047  00000+0  00000+0 0  9999
2 32276  65.6066 316.8488 0008019 335.3447 207.6526  2.13103192144588
GPS BIIRM-5 (PRN 29)    
1 32384U 07062A   26146.84967097 -.00000082  00000+0  00000+0 0  9993
2 32384  55.0494 275.0101 0035325 164.2474   9.4538  2.00558846135085
COSMOS 2434 (721)       
1 32393U 07065A   26145.16821914  .00000048  00000+0  00000+0 0  9998
2 32393  64.3161 192.6922 0001051 357.7939  81.0284  2.13101329143287
COSMOS 2436 (723)       
1 32395U 07065C   26142.17704934  .00000025  00000+0  00000+0 0  9995
2 32395  64.3244 192.8648 0017121 356.1086  80.4224  2.13100136143179
GPS BIIRM-6 (PRN 07)    
1 32711U 08012A   26146.19974396  .00000093  00000+0  00000+0 0  9992
2 32711  54.4940 150.8030 0210749 247.5583 110.2233  2.00571882133312
GPS BIIRM-8 (PRN 05)    
1 35752U 09043A   26146.69697003 -.00000108  00000+0  00000+0 0  9995
2 35752  56.1972  28.2957 0053543  82.3233 288.0719  2.00555488122937
COSMOS 2456 (730)       
1 36111U 09070A   26145.55448693 -.00000050  00000+0  00000+0 0  9994
2 36111  64.9990  71.7433 0005459 324.1670 209.0015  2.13103505127942
COSMOS 2457 (733)       
1 36112U 09070B   26145.42114374 -.00000049  00000+0  00000+0 0  9995
2 36112  64.9846  71.5923 0001879 129.6286  68.8595  2.13100990127947
COSMOS 2460 (732)       
1 36402U 10007C   26145.62565351 -.00000052  00000+0  00000+0 0  9990
2 36402  65.4348 315.2293 0002433  86.9969 270.3547  2.13101369126240
GPS BIIF-1  (PRN 25)    
1 36585U 10022A   26146.58331884  .00000023  00000+0  00000+0 0  9994
2 36585  54.2722 209.4325 0126341  66.1059 340.1571  2.00561390117163
BEIDOU-2 IGSO-1 (C06)   
1 36828U 10036A   26141.01113590 -.00000079  00000+0  00000+0 0  9996
2 36828  54.2967 163.2045 0058932 224.9850 321.8842  1.00280030 57824
BEIDOU-2 G4 (C04)       
1 37210U 10057A   26146.89879699 -.00000108  00000+0  00000+0 0  9998
2 37210   3.5966  69.0760 0005296 207.9540  90.9918  1.00272088 57074
BEIDOU-2 IGSO-2 (C07)   
1 37256U 10068A   26144.72062291 -.00000240  00000+0  00000+0 0  9999
2 37256  47.5917 272.1217 0054627 212.0033 124.4313  1.00291178 56553
BEIDOU-2 IGSO-3 (C08)   
1 37384U 11013A   26142.76298402 -.00000206  00000+0  00000+0 0  9991
2 37384  62.3739  40.3913 0033909 185.7547  37.1187  1.00274038 55404
GSAT-8 (GAGAN/PRN 127)  
1 37605U 11022A   26146.94925485  .00000089  00000+0  00000+0 0  9997
2 37605   2.0783  82.0739 0002771 227.8375 331.3974  1.00271065 53003
BEIDOU-2 IGSO-4 (C09)   
1 37763U 11038A   26146.02964198  .00000051  00000+0  00000+0 0  9991
2 37763  54.5934 165.8692 0158443 231.3529 309.3814  1.00288979 54422
GSAT0101 (GALILEO-PFM)  
1 37846U 11060A   26142.03870752 -.00000087  00000+0  00000+0 0  9997
2 37846  57.0040 342.4699 0003643  41.9521 318.0951  1.70475642 90676
GSAT0102 (GALILEO-FM2)  
1 37847U 11060B   26144.89400321 -.00000090  00000+0  00000+0 0  9999
2 37847  57.0043 342.3932 0003902  11.2637 346.7410  1.70475962 90724
COSMOS 2476 (744)       
1 37867U 11064A   26145.68086398 -.00000047  00000+0  00000+0 0  9999
2 37867  65.2583  73.6304 0023238 240.7745 297.6806  2.13103607113288
COSMOS 2477 (745)       
1 37868U 11064B   26145.48563331 -.00000044  00000+0  00000+0 0  9992
2 37868  65.2648  73.7163 0020267 242.2171 326.8701  2.13102823113271
COSMOS 2475 (743)       
1 37869U 11064C   26145.50991689 -.00000045  00000+0  00000+0 0  9998
2 37869  65.2717  73.7369 0026376 254.7349 288.1989  2.13101652113287
BEIDOU-2 IGSO-5 (C10)   
1 37948U 11073A   26146.82802825 -.00000226  00000+0  00000+0 0  9996
2 37948  47.7178 271.8081 0112339 220.8703 141.4957  1.00254290 52927
LUCH 5A (SDCM/PRN 140)  
1 37951U 11074B   26146.61494959 -.00000047  00000+0  00000+0 0  9994
2 37951   8.7017  74.1217 0002448 354.5964 203.9510  1.00268816 52836
BEIDOU-2 G5 (C05)       
1 38091U 12008A   26146.94994818  .00000060  00000+0  00000+0 0  9997
2 38091   3.5234  69.8290 0010699 272.3654 303.0452  1.00275643 52156
BEIDOU-2 M3 (C11)       
1 38250U 12018A   26144.56254196 -.00000081  00000+0  00000+0 0  9993
2 38250  55.7786 305.6708 0019723 275.7368  84.0185  1.86229567 95508
BEIDOU-2 M4 (C12)       
1 38251U 12018B   26144.49480453 -.00000081  00000+0  00000+0 0  9993
2 38251  55.6787 304.8888 0010978 279.4145  80.4412  1.86229229 95504
SES-5 (EGNOS/PRN 136)   
1 38652U 12036A   26146.93938112  .00000038  00000+0  00000+0 0  9990
2 38652   0.0519 306.9100 0002031 117.3490 163.4044  1.00272264 44241
BEIDOU-2 M6 (C14)       
1 38775U 12050B   26145.27851899 -.00000078  00000+0  00000+0 0  9999
2 38775  56.5251  63.6516 0014149 353.6619   6.3126  1.86230917 92887
GSAT-10 (GAGAN/PRN 128) 
1 38779U 12051B   26146.95480154 -.00000161  00000+0  00000+0 0  9995
2 38779   0.0406 261.4673 0007763 183.0092 226.7624  1.00273145 49882
GPS BIIF-3  (PRN 24)    
1 38833U 12053A   26146.37932057  .00000087  00000+0  00000+0 0  9994
2 38833  53.5818 144.4925 0179169  65.4577 296.4176  2.00567145 99006
GSAT0103 (GALILEO-FM3)  
1 38857U 12055A   26143.25235125  .00000021  00000+0  00000+0 0  9996
2 38857  55.7947 102.2291 0005482 300.3208  59.5856  1.70473380 84588
BEIDOU-2 G6 (C02)       
1 38953U 12059A   26146.88371692 -.00000171  00000+0  00000+0 0  9996
2 38953   4.3701  73.7495 0010404 322.9747 249.8709  1.00269620 49696
LUCH 5B (SDCM/PRN 125)  
1 38977U 12061A   26146.03586519 -.00000140  00000+0  00000+0 0  9994
2 38977  10.4386  50.1036 0001449 142.2880  47.7693  1.00270481 49389
COSMOS 2485 (747)       
1 39155U 13019A   26144.91627113 -.00000037  00000+0  00000+0 0  9993
2 39155  65.4077  74.3848 0023598 236.0367 123.7299  2.13103066101784
GPS BIIF-4  (PRN 27)    
1 39166U 13023A   26146.74423150 -.00000079  00000+0  00000+0 0  9994
2 39166  54.5214 269.8468 0141720  50.9238 310.3116  2.00563656 95454
IRNSS-1A                
1 39199U 13034A   26142.85947303  .00000059  00000+0  00000+0 0  9998
2 39199  35.6649  64.2334 0016618 185.3754 355.4646  1.00280263 47111
GPS BIIF-5  (PRN 30)    
1 39533U 14008A   26146.24705660  .00000091  00000+0  00000+0 0  9993
2 39533  53.6508 150.2145 0084175 230.8905 128.3851  2.00558424 89243
ASTRA 5B (EGNOS/PRN 123)
1 39617U 14011B   26146.80046936  .00000141  00000+0  00000+0 0  9992
2 39617   0.0521 323.1719 0002524  74.2565 158.5858  1.00271566 44459
COSMOS 2492 (754)       
1 39620U 14012A   26146.75222744 -.00000059  00000+0  00000+0 0  9993
2 39620  65.3099 314.6638 0010782 328.7672  31.1627  2.13103141 94782
IRNSS-1B                
1 39635U 14017A   26139.86086405  .00000103  00000+0  00000+0 0  9999
2 39635  28.9733 240.8911 0024226 185.2284 176.5740  1.00280229 44519
LUCH 5V (SDCM/PRN 141)  
1 39727U 14023A   26146.86274904 -.00000265  00000+0  00000+0 0  9999
2 39727   5.0830  69.9632 0002337  15.3254 204.4987  1.00271810 44143
GPS BIIF-6  (PRN 06)    
1 39741U 14026A   26146.52246558 -.00000088  00000+0  00000+0 0  9998
2 39741  56.5087 332.3606 0038405 326.8892  32.8825  2.00562665 88105
COSMOS 2500 (755)       
1 40001U 14032A   26145.51450207 -.00000052  00000+0  00000+0 0  9993
2 40001  65.2463 314.4549 0006609 181.5061 178.4881  2.13105768 92973
GPS BIIF-7  (PRN 09)    
1 40105U 14045A   26146.11529302 -.00000023  00000+0  00000+0 0  9990
2 40105  55.3395  89.3439 0032470 118.5092 241.7881  2.00556968 85634
GSAT0201 (GALILEO 5)    
1 40128U 14050A   26145.77951746 -.00000101  00000+0  00000+0 0  9990
2 40128  48.9004 274.3545 1671217 178.5208 182.0639  1.85520002 77903
GSAT0202 (GALILEO 6)    
1 40129U 14050B   26144.95716844 -.00000096  00000+0  00000+0 0  9991
2 40129  48.9181 273.4734 1672209 179.2149 181.1057  1.85520586 80055
IRNSS-1C                
1 40269U 14061A   26146.88337025 -.00000157  00000+0  00000+0 0  9990
2 40269   6.4639  89.3314 0022496   0.1128 196.0481  1.00272704 42473
GPS BIIF-8  (PRN 03)    
1 40294U 14068A   26146.48554871 -.00000107  00000+0  00000+0 0  9996
2 40294  56.9732  31.7907 0066445  69.8059 290.9427  2.00574972 84777
COSMOS 2501 (702K)      
1 40315U 14075A   26144.36850738  .00000041  00000+0  00000+0 0  9990
2 40315  63.6148 191.1969 0022388 211.5449 148.3894  2.13101372 89349
GPS BIIF-9  (PRN 26)    
1 40534U 15013A   26146.12389626  .00000025  00000+0  00000+0 0  9997
2 40534  53.1697 205.0901 0109145  40.0480 320.8238  2.00552719 81389
GSAT0203 (GALILEO 7)    
1 40544U 15017A   26144.16294227 -.00000090  00000+0  00000+0 0  9999
2 40544  56.7947 342.2501 0002258 291.5829  68.4129  1.70476041 68797
GSAT0204 (GALILEO 8)    
1 40545U 15017B   26146.17843364 -.00000091  00000+0  00000+0 0  9996
2 40545  56.8004 342.2136 0001764 262.8648  97.1363  1.70475781 31876
BEIDOU-3S IGSO-1S (C31) 
1 40549U 15019A   26146.88545025 -.00000192  00000+0  00000+0 0  9995
2 40549  49.2354 295.7150 0038102 190.1171 170.5285  1.00255071 40861
GPS BIIF-10 (PRN 08)    
1 40730U 15033A   26145.78424318 -.00000079  00000+0  00000+0 0  9996
2 40730  54.0004 268.0099 0115011  30.1200 330.5220  2.00557451 79547
BEIDOU-3S M2S (C58)     
1 40748U 15037A   26143.62365685 -.00000076  00000+0  00000+0 0  9998
2 40748  54.8929 302.8909 0007595 263.8817  96.0113  1.86231735 73662
BEIDOU-3S M1S (C57)     
1 40749U 15037B   26146.51846124 -.00000096  00000+0  00000+0 0  9994
2 40749  54.8873 302.7795 0003889  58.6344 301.3783  1.86254921 73724
GSAT0205 (GALILEO 9)    
1 40889U 15045A   26144.30399159 -.00000014  00000+0  00000+0 0  9994
2 40889  54.9357 222.4171 0006405 263.0112  96.9692  1.67409242 66562
GSAT0206 (GALILEO 10)   
1 40890U 15045B   26144.40733510 -.00000013  00000+0  00000+0 0  9999
2 40890  54.9514 222.2612 0001727  22.9304 337.1304  1.70474019 66630
BEIDOU-3S IGSO-2S (C56) 
1 40938U 15053A   26146.78636331 -.00000177  00000+0  00000+0 0  9998
2 40938  49.2544 259.0355 0064704 191.6278 172.8989  1.00264631 39142
GPS BIIF-11 (PRN 10)    
1 41019U 15062A   26146.33978538 -.00000107  00000+0  00000+0 0  9991
2 41019  56.9451  31.6527 0111444 231.2632 127.7704  2.00567099 77397
GSAT-15 (GAGAN/PRN 139) 
1 41028U 15065A   26146.95688155 -.00000254  00000+0  00000+0 0  9998
2 41028   0.0037 302.8458 0004124 123.6075 256.0603  1.00272927 38588
GSAT0209 (GALILEO 12)   
1 41174U 15079A   26146.33505888  .00000005  00000+0  00000+0 0  9991
2 41174  55.8151 101.8607 0005550 336.9606  22.9689  1.70473953 64404
GSAT0208 (GALILEO 11)   
1 41175U 15079B   26145.38218691  .00000011  00000+0  00000+0 0  9996
2 41175  55.8130 101.8837 0004978 338.1073  21.8293  1.70473719 64805
IRNSS-1E                
1 41241U 16003A   26146.67538483 -.00000310  00000+0  00000+0 0  9998
2 41241  33.1892  60.0615 0017793 181.1557 357.9643  1.00274907 37864
GPS BIIF-12 (PRN 32)    
1 41328U 16007A   26146.42929205 -.00000023  00000+0  00000+0 0  9998
2 41328  55.5114  90.3218 0096097 247.3190 111.6330  2.00552784 75405
COSMOS 2514 (751)       
1 41330U 16008A   26145.76069459 -.00000054  00000+0  00000+0 0  9998
2 41330  65.0356 313.7758 0010448 196.8372 163.1231  2.13102667 80143
BEIDOU-2 IGSO-6 (C13)   
1 41434U 16021A   26146.67157148 -.00000179  00000+0  00000+0 0  9990
2 41434  60.1969  38.2523 0057503 232.1679 309.6086  1.00263644 37268
IRNSS-1G                
1 41469U 16027A   26146.82135613 -.00000329  00000+0  00000+0 0  9991
2 41469   5.1451  97.9677 0007331 349.1961 222.4098  1.00276903 36963
GSAT0211 (GALILEO 14)   
1 41549U 16030A   26143.15990342 -.00000014  00000+0  00000+0 0  9996
2 41549  55.1018 222.3833 0002676 335.5312  24.5109  1.70474082 62249
GSAT0210 (GALILEO 13)   
1 41550U 16030B   26146.93668424  .00000003  00000+0  00000+0 0  9997
2 41550  55.0999 222.2775 0003028 226.2727 133.7635  1.70474086 62308
BEIDOU-2 G7 (C03)       
1 41586U 16037A   26146.96026156 -.00000349  00000+0  00000+0 0  9990
2 41586   1.6698  69.1513 0007060 356.1234 275.4475  1.00275499  6678
EUTELSAT 117 WEST B (W*)
1 41589U 16038B   26146.41614402 -.00000009  00000+0  00000+0 0  9994
2 41589   0.0047 130.7545 0000085  91.1425  54.9124  1.00271833 36447
GSAT0207 (GALILEO 15)   
1 41859U 16069A   26144.86855128  .00000013  00000+0  00000+0 0  9991
2 41859  55.4851 101.7309 0005705 323.8693  36.0515  1.70473749 59005
GSAT0212 (GALILEO 16)   
1 41860U 16069B   26145.89517133  .00000007  00000+0  00000+0 0  9991
2 41860  55.4835 101.6975 0004728 350.0840   9.8628  1.70473945 59277
GSAT0213 (GALILEO 17)   
1 41861U 16069C   26146.26245050  .00000004  00000+0  00000+0 0  9997
2 41861  55.4859 101.6954 0005448 309.0096  50.8967  1.70474352 59149
GSAT0214 (GALILEO 18)   
1 41862U 16069D   26145.23545638  .00000011  00000+0  00000+0 0  9997
2 41862  55.4839 101.7164 0004583 315.0152  44.9060  1.70474028 59251
SES-15 (WAAS/PRN 133)   
1 42709U 17026A   26146.91275039  .00000064  00000+0  00000+0 0  9991
2 42709   0.0195 331.4349 0000652  76.6827  35.7976  1.00269656  7228
QZS-2 (QZSS/PRN 194)    
1 42738U 17028A   26145.55904076 -.00000230  00000+0  00000+0 0  9990
2 42738  39.4625 243.4883 0760626 269.0192  72.4917  1.00289658  7391
QZS-3 (QZSS/PRN 199)    
1 42917U 17048A   26146.96346825 -.00000344  00000+0  00000+0 0  9995
2 42917   0.0686 218.2169 0002084 205.2201 294.8885  1.00265646 32043
COSMOS 2522 (752)       
1 42939U 17055A   26146.53708015  .00000066  00000+0  00000+0 0  9993
2 42939  64.0769 192.6214 0010357 239.2525 120.7217  2.13101796 67519
QZS-4 (QZSS/PRN 195)    
1 42965U 17062A   26146.40996730 -.00000359  00000+0  00000+0 0  9995
2 42965  40.1209 343.7585 0745137 271.4335 274.9790  1.00257852 31586
BEIDOU-3 M1 (C19)       
1 43001U 17069A   26146.11781134 -.00000084  00000+0  00000+0 0  9997
2 43001  56.6742  63.8106 0011269 323.0176  36.8959  1.86231233 58197
BEIDOU-3 M2 (C20)       
1 43002U 17069B   26144.98259049 -.00000074  00000+0  00000+0 0  9995
2 43002  56.6725  63.8844 0009764 345.8750  14.0905  1.86230565 58168
GSAT0215 (GALILEO 19)   
1 43055U 17079A   26145.13889048 -.00000009  00000+0  00000+0 0  9998
2 43055  55.0795 222.1411 0003323 263.2184  96.7978  1.70474628 52596
GSAT0216 (GALILEO 20)   
1 43056U 17079B   26146.60322480  .00000001  00000+0  00000+0 0  9995
2 43056  55.0798 222.1009 0003039 278.5096  81.5157  1.70474951 52633
GSAT0217 (GALILEO 21)   
1 43057U 17079C   26145.65084401 -.00000006  00000+0  00000+0 0  9994
2 43057  55.0798 222.1248 0004284 286.0013  74.0070  1.70474713 52609
GSAT0218 (GALILEO 22)   
1 43058U 17079D   26145.87091427 -.00000005  00000+0  00000+0 0  9994
2 43058  55.0777 222.1164 0004142 273.6717  86.3372  1.70474864 52631
BEIDOU-3 M7 (C27)       
1 43107U 18003A   26144.72427791 -.00000086  00000+0  00000+0 0  9996
2 43107  54.3496 303.1323 0005244  88.6329 271.4059  1.86227819 56917
BEIDOU-3 M8 (C28)       
1 43108U 18003B   26146.81721119 -.00000098  00000+0  00000+0 0  9993
2 43108  54.3406 303.0408 0002182 270.0734  89.8758  1.86230918 56963
BEIDOU-3 M4 (C22)       
1 43207U 18018A   26145.11218105 -.00000075  00000+0  00000+0 0  9992
2 43207  56.6323  63.9085 0007919  10.8909 349.1186  1.86231187 56311
BEIDOU-3 M3 (C21)       
1 43208U 18018B   26145.17864637 -.00000076  00000+0  00000+0 0  9997
2 43208  56.6317  63.9103 0009413 336.4148  23.5344  1.86231096 56317
BEIDOU-3 M9 (C29)       
1 43245U 18029A   26145.39635958 -.00000091  00000+0  00000+0 0  9993
2 43245  54.2150 300.7449 0000920 121.0024 238.9826  1.86228327 55473
BEIDOU-3 M10 (C30)      
1 43246U 18029B   26144.79388637 -.00000086  00000+0  00000+0 0  9990
2 43246  54.2135 300.7925 0004381  39.9325 320.0768  1.86228950 55449
IRNSS-1I                
1 43286U 18035A   26146.87791275  .00000080  00000+0  00000+0 0  9991
2 43286  29.1290  74.5242 0017577 177.8193   3.1448  1.00274839 29864
COSMOS 2527 (756)       
1 43508U 18053A   26144.15229313 -.00000027  00000+0  00000+0 0  9998
2 43508  65.5656  74.7084 0007593 245.1216 114.7917  2.13102025 61766
BEIDOU-2 IGSO-7 (C16)   
1 43539U 18057A   26146.96043490 -.00000003  00000+0  00000+0 0  9991
2 43539  55.1908 163.2423 0104429 237.9612 300.4990  1.00257552 28917
GSAT0221 (GALILEO 25)   
1 43564U 18060A   26146.36140231 -.00000090  00000+0  00000+0 0  9994
2 43564  57.1759 342.3693 0003012 315.1043  44.8931  1.70475986 48795
GSAT0222 (GALILEO 26)   
1 43565U 18060B   26141.88833609 -.00000086  00000+0  00000+0 0  9990
2 43565  57.1815 342.4938 0001850 271.2445  88.7537  1.70475538 48767
GSAT0219 (GALILEO 23)   
1 43566U 18060C   26146.21536171 -.00000090  00000+0  00000+0 0  9992
2 43566  57.1791 342.3783 0002548 333.1489  26.8596  1.70475959 48810
GSAT0220 (GALILEO 24)   
1 43567U 18060D   26146.43634509 -.00000090  00000+0  00000+0 0  9991
2 43567  57.1787 342.3718 0002588 326.0175  33.9877  1.70475917 48805
BEIDOU-3 M5 (C23)       
1 43581U 18062A   26145.01805365  .00000061  00000+0  00000+0 0  9999
2 43581  54.0837 183.0913 0005265 288.8293  71.1823  1.86228616 53205
BEIDOU-3 M6 (C24)       
1 43582U 18062B   26146.49229889  .00000080  00000+0  00000+0 0  9995
2 43582  54.0837 183.0305 0004830  12.6596 347.4270  1.86227672 53236
BEIDOU-3 M12 (C26)      
1 43602U 18067A   26144.28284341  .00000054  00000+0  00000+0 0  9993
2 43602  54.1791 181.8510 0007779  30.2121 329.8983  1.86227821 52676
BEIDOU-3 M11 (C25)      
1 43603U 18067B   26146.56569649  .00000083  00000+0  00000+0 0  9996
2 43603  54.1759 181.7371 0004478  15.1856 344.9017  1.86227139 52741
BEIDOU-3 M13 (C32)      
1 43622U 18072A   26144.90976970 -.00000075  00000+0  00000+0 0  9990
2 43622  56.6058  63.4274 0008089 325.3050  34.6357  1.86231070 52225
BEIDOU-3 M14 (C33)      
1 43623U 18072B   26143.70129878 -.00000062  00000+0  00000+0 0  9991
2 43623  56.6062  63.4615 0006635 351.6782   8.3067  1.86231113 52199
BEIDOU-3 M16 (C35)      
1 43647U 18078A   26145.46783275 -.00000091  00000+0  00000+0 0  9997
2 43647  54.1115 300.7820 0007656  40.4035 319.6292  1.86232321 51739
BEIDOU-3 M15 (C34)      
1 43648U 18078B   26145.59714105 -.00000092  00000+0  00000+0 0  9999
2 43648  54.1094 300.7772 0004870  55.3863 304.6352  1.86232128 51759
BEIDOU-3 G1 (C59)       
1 43683U 18085A   26146.89871032 -.00000104  00000+0  00000+0 0  9997
2 43683   2.8167  97.9510 0008163 342.6883 287.3290  1.00271638 27843
COSMOS 2529 (757)       
1 43687U 18086A   26145.18750413  .00000047  00000+0  00000+0 0  9997
2 43687  64.2931 193.3710 0011483 256.0033 103.9404  2.13102011 58796
BEIDOU-3 M17 (C36)      
1 43706U 18093A   26144.20755414  .00000050  00000+0  00000+0 0  9999
2 43706  54.1673 183.1096 0009837 291.2944 109.0036  1.86228425 51096
BEIDOU-3 M18 (C37)      
1 43707U 18093B   26145.08450287  .00000062  00000+0  00000+0 0  9990
2 43707  54.1682 183.0719 0007646 321.1241  38.8899  1.86226506 51103
GPS BIII-1  (PRN 04)    
1 43873U 18109A   26146.31775659 -.00000015  00000+0  00000+0 0  9991
2 43873  55.6698  93.0488 0038053 198.4755 334.6377  2.00560756 54638
BEIDOU-3 IGSO-1 (C38)   
1 44204U 19023A   26141.61780730 -.00000234  00000+0  00000+0 0  9993
2 44204  58.6591  37.9235 0025546 227.4594 312.4431  1.00299087  6947
BEIDOU-2 G8 (C01)       
1 44231U 19027A   26146.96684826 -.00000243  00000+0  00000+0 0  9999
2 44231   1.6067  74.4764 0010566 282.5611  20.0396  1.00268895 25861
COSMOS 2534 (758)       
1 44299U 19030A   26144.13934797  .00000034  00000+0  00000+0 0  9996
2 44299  64.3666 193.4262 0012892 275.4828 134.9025  2.13102273 54415
BEIDOU-3 IGSO-2 (C39)   
1 44337U 19035A   26139.63539042 -.00000079  00000+0  00000+0 0  9997
2 44337  55.2397 159.1126 0039530 216.4700 210.4277  1.00275192 25387
GPS BIII-2  (PRN 18)    
1 44506U 19056A   26146.94828905 -.00000091  00000+0  00000+0 0  9993
2 44506  55.6466 331.9858 0060904 197.3204 334.1445  2.00569716 49648
BEIDOU-3 M24 (C46)      
1 44542U 19061A   26146.22736066  .00000077  00000+0  00000+0 0  9999
2 44542  54.3949 183.4685 0008201   0.7960 359.2792  1.86229050 45383
BEIDOU-3 M23 (C45)      
1 44543U 19061B   26146.63297635  .00000081  00000+0  00000+0 0  9994
2 44543  54.3935 183.4228 0005481 340.6353 203.1144  1.86227242 45391
EUTELSAT 5 WEST B (EGN*)
1 44624U 19067A   26146.93738779 -.00000038  00000+0  00000+0 0  9995
2 44624   0.0648 343.9356 0003233  78.8166 154.2030  1.00271926 24223
BEIDOU-3 IGSO-3 (C40)   
1 44709U 19073A   26136.81046384 -.00000217  00000+0  00000+0 0  9995
2 44709  54.8566 281.2355 0042953 189.4588 170.3676  1.00246251 24144
BEIDOU-3 M22 (C44)      
1 44793U 19078A   26144.99290991 -.00000088  00000+0  00000+0 0  9992
2 44793  53.9582 300.6429 0006925  49.8976 310.1398  1.86227031 44216
BEIDOU-3 M21 (C43)      
1 44794U 19078B   26144.05897169 -.00000081  00000+0  00000+0 0  9993
2 44794  53.9315 300.6372 0004812  48.4717 311.5477  1.86227499 44209
COSMOS 2544 (759)       
1 44850U 19088A   26146.44330699 -.00000052  00000+0  00000+0 0  9990
2 44850  65.5547  74.4557 0013854 260.9683  98.8628  2.13101787 50255
BEIDOU-3 M19 (C41)      
1 44864U 19090A   26143.53568656 -.00000061  00000+0  00000+0 0  9991
2 44864  56.5390  63.6049 0018919 297.4795 268.8424  1.86231390 43773
BEIDOU-3 M20 (C42)      
1 44865U 19090B   26145.50549531 -.00000080  00000+0  00000+0 0  9993
2 44865  56.5420  63.5740 0016584 310.7318 225.8405  1.86231466 43799
BEIDOU-3 G2 (C60)       
1 45344U 20017A   26146.95419487 -.00000136  00000+0  00000+0 0  9995
2 45344   2.8232  47.0503 0002612  13.8237 247.1895  1.00271154 23049
COSMOS 2545 (760)       
1 45358U 20018A   26144.76142434 -.00000050  00000+0  00000+0 0  9998
2 45358  64.3701 313.2419 0007534 232.9765 126.9500  2.13102336 48167
BEIDOU-3 G3 (C61)       
1 45807U 20040A   26146.96026156 -.00000349  00000+0  00000+0 0  9999
2 45807   2.3975  67.4084 0003243 337.6040 295.7071  1.00267859 21851
GPS BIII-3  (PRN 23)    
1 45854U 20041A   26142.62388101 -.00000097  00000+0  00000+0 0  9992
2 45854  56.6539  29.9347 0062946 204.8482  23.5433  2.00559157 43529
GALAXY 30 (WAAS/PRN 135)
1 46114U 20056C   26146.91353039  .00000041  00000+0  00000+0 0  9994
2 46114   0.0159 359.3435 0002387  58.9249  30.0883  1.00269822 21085
COSMOS 2547 (705K)      
1 46805U 20075A   26143.07370584  .00000026  00000+0  00000+0 0  9993
2 46805  64.5977 193.3141 0008999 239.0049 120.9752  2.13100163 43377
GPS BIII-4  (PRN 14)    
1 46826U 20078A   26146.56729597  .00000017  00000+0  00000+0 0  9998
2 46826  53.9823 211.6554 0072542 206.6772 324.6145  2.00564976 41078
GPS BIII-5  (PRN 11)    
1 48859U 21054A   26137.34480044 -.00000068  00000+0  00000+0 0  9995
2 48859  55.1878 333.6992 0024563 229.1356 308.8651  2.00570737 36138
QZS-1R (QZSS/PRN 196)   
1 49336U 21096A   26146.67841817 -.00000276  00000+0  00000+0 0  9998
2 49336  37.4203  79.8995 0753386 271.4143 272.2577  1.00263367 16790
GSAT0223 (GALILEO 27)   
1 49809U 21116A   26145.69672406 -.00000090  00000+0  00000+0 0  9997
2 49809  57.1670 342.2812 0000850 184.3830 172.5279  1.70476023 27798
GSAT0224 (GALILEO 28)   
1 49810U 21116B   26146.39552821 -.00000090  00000+0  00000+0 0  9995
2 49810  57.1693 342.2611 0000678 128.6069  49.7971  1.70476143 27837
COSMOS 2557 (706K)      
1 52984U 22075A   26142.29965628 -.00000040  00000+0  00000+0 0  9999
2 52984  64.3148 315.3974 0010092 278.3503  81.5318  2.13101899 30168
COSMOS 2559 (707K)      
1 54031U 22130A   26143.99626682 -.00000046  00000+0  00000+0 0  9994
2 54031  64.2867 315.4211 0012040 176.3040 183.7030  2.13101609 28176
COSMOS 2564 (761)       
1 54377U 22161A   26146.18592920  .00000061  00000+0  00000+0 0  9998
2 54377  64.7399 193.4420 0011848 223.3705 136.6112  2.13102054 27167
GPS BIII-6  (PRN 28)    
1 55268U 23009A   26142.53471350  .00000069  00000+0  00000+0 0  9996
2 55268  55.1207 149.5238 0008482 318.2622  45.1799  2.00573116 24732
BEIDOU-3 G4 (C62)       
1 56564U 23066A   26146.96606826 -.00000277  00000+0  00000+0 0  9990
2 56564   0.5123 326.4309 0003954 168.3426 237.6122  1.00271818 11189
NVS-01 (IRNSS-1J)       
1 56759U 23076A   26146.96398825 -.00000330  00000+0  00000+0 0  9994
2 56759   2.2146 245.2831 0003249  47.3345  68.4740  1.00276175 10906
COSMOS 2569 (703K)      
1 57517U 23114A   26145.25975784 -.00000043  00000+0  00000+0 0  9997
2 57517  65.2900  73.3932 0011596 296.5293  63.3429  2.13103743 21772
BEIDOU-3 M28 (C50)      
1 58654U 23207A   26145.74698356 -.00000083  00000+0  00000+0 0  9998
2 58654  55.7339  63.0599 0003864 337.3189  22.6561  1.86229741 16424
BEIDOU-3 M26 (C48)      
1 58655U 23207B   26145.54447727 -.00000082  00000+0  00000+0 0  9990
2 58655  55.7357  63.0532 0003981 313.9416  46.0180  1.86229773 16405
GSAT0225 (GALILEO 29)   
1 59598U 24079A   26142.30044818  .00000020  00000+0  00000+0 0  9991
2 59598  55.1041 101.8024 0002201 291.9380 246.4363  1.70474068 12870
GSAT0227 (GALILEO 30)   
1 59600U 24079C   26145.12607098  .00000011  00000+0  00000+0 0  9993
2 59600  55.1013 101.7225 0001701  32.8778 327.0916  1.70474148 12972
GSAT0232 (GALILEO 32)   
1 61182U 24167A   26145.38452916 -.00000007  00000+0  00000+0 0  9990
2 61182  55.1905 221.9390 0005647 222.8270 151.3087  1.70474507 10490
GSAT0226 (GALILEO 31)   
1 61183U 24167B   26146.38769904  .00000000  00000+0  00000+0 0  9992
2 61183  55.1890 221.9189 0002462 219.6891 141.4559  1.70474498 10487
BEIDOU-3 M25 (C47)      
1 61186U 24168B   26146.23552469 -.00000095  00000+0  00000+0 0  9991
2 61186  54.4935 303.0042 0002987 311.0136 269.5328  1.86230207 11373
BEIDOU-3 M27 (C49)      
1 61187U 24168C   26146.77247353 -.00000097  00000+0  00000+0 0  9996
2 61187  54.4883 302.9686 0002070  47.5059 308.0590  1.86230320  8851
GPS BIII-7  (PRN 01)    
1 62339U 24242A   26143.66691069 -.00000087  00000+0  00000+0 0  9990
2 62339  54.8596 335.1744 0017373   3.8345 179.6490  2.00571082 10768
QZS-6 (QZSS/PRN 200)    
1 62876U 25023A   26146.95627488 -.00000229  00000+0  00000+0 0  9991
2 62876   0.0126 324.4536 0002446 103.3095 251.5331  1.00270928  4737
COSMOS 2584 (704K)      
1 63130U 25042A   26145.14663552 -.00000041  00000+0  00000+0 0  9990
2 63130  65.0720  73.5848 0006022 231.8877 128.0491  2.13103815  9554
GPS BIII-8  (PRN 21)    
1 64202U 25116A   26146.40550372 -.00000109  00000+0  00000+0 0  9993
2 64202  55.2201  32.0065 0008491 336.6350 206.7556  2.00577532  7431
COSMOS 2596 (708K)      
1 65590U 25206B   26144.76433933 -.00000050  00000+0  00000+0 0  9999
2 65590  64.6495 315.7998 0011194 315.3815 227.8740  2.13100677  5412
GSAT0233 (GALILEO 33)   
1 67160U 25302A   26141.82666015  .00000020  00000+0  00000+0 0  9990
2 67160  54.3194 102.8809 0001476 247.4028 291.0151  1.70474125  2676
GSAT0234 (GALILEO 34)   
1 67162U 25302C   26145.62522105  .00000009  00000+0  00000+0 0  9992
2 67162  54.3238 102.7722 0003517 303.1313 226.6631  1.70474307  2797
GPS BIII-9  (PRN 20)    
1 67588U 26017A   26145.76206805 -.00000018  00000+0  00000+0 0  9990
2 67588  55.0748  89.6548 0022675 256.5527 103.1658  2.00571624431165
GPS BIII-10 (PRN 13)    
1 68791U 26087A   26139.48610789  .00000028  00000+0  00000+0 0  9996
2 68791  54.9639 208.9229 0005154 271.7816  81.6763  2.00570690   255
