GPS BIIR-5  (PRN 22)    
1 26407U 00040A   26134.43607429  .00000034  00000+0  00000+0 0  9999
2 26407  54.8571 216.5029 0121418 302.3488  92.0921  2.00557364189273
GPS BIIR-8  (PRN 16)    
1 27663U 03005A   26134.67021780  .00000037  00000+0  00000+0 0  9997
2 27663  54.8880 216.3006 0148018  53.0105 286.0096  2.00562306170635
GPS BIIR-11 (PRN 19)    
1 28190U 04009A   26133.74174988 -.00000036  00000+0  00000+0 0  9994
2 28190  54.8595 277.0782 0114536 171.5512  11.0195  2.00555769162255
GPS BIIR-13 (PRN 02)    
1 28474U 04045A   26134.14979289 -.00000051  00000+0  00000+0 0  9998
2 28474  55.1560 326.2669 0169904 315.5113 226.7446  2.00554278157749
GPS BIIRM-1 (PRN 17)    
1 28874U 05038A   26134.51764315 -.00000035  00000+0  00000+0 0  9990
2 28874  54.9068 274.5356 0127708 295.9459 114.0856  2.00567927151160
INMARSAT 4-F2 (SOUTHPA*)
1 28899U 05044A   26134.69697454 -.00000248  00000+0  00000+0 0  9998
2 28899   5.0525  43.7384 0002676  14.1869 208.9286  1.00271190 75181
GPS BIIRM-2 (PRN 31)    
1 29486U 06042A   26134.08308573  .00000115  00000+0  00000+0 0  9996
2 29486  54.7055 152.6929 0106155  53.7210 300.4614  2.00571763143701
GPS BIIRM-3 (PRN 12)    
1 29601U 06052A   26134.01540061  .00000033  00000+0  00000+0 0  9998
2 29601  54.9397 215.3608 0085906  90.5092 270.5309  2.00556246142727
GPS BIIRM-4 (PRN 15)    
1 32260U 07047A   26134.32020242 -.00000003  00000+0  00000+0 0  9994
2 32260  54.0712  81.4608 0165305  86.7596 275.0994  2.00556907136136
COSMOS 2433 (720)       
1 32275U 07052A   26132.25207707 -.00000010  00000+0  00000+0 0  9997
2 32275  65.5976 317.1434 0001260 191.2243 168.7927  2.13104323144292
COSMOS 2432 (719)       
1 32276U 07052B   26132.45000145 -.00000011  00000+0  00000+0 0  9998
2 32276  65.6134 317.2637 0008594 337.2231 118.6433  2.13103386144320
GPS BIIRM-5 (PRN 29)    
1 32384U 07062A   26134.61048421 -.00000035  00000+0  00000+0 0  9994
2 32384  55.0598 275.5018 0035060 163.4540 173.1522  2.00557942134833
COSMOS 2434 (721)       
1 32393U 07065A   26132.38841561  .00000063  00000+0  00000+0 0  9995
2 32393  64.3159 193.1230 0001316  37.3934 317.2266  2.13101512143000
COSMOS 2436 (723)       
1 32395U 07065C   26133.26899799  .00000072  00000+0  00000+0 0  9991
2 32395  64.3244 193.1651 0017150 356.7973  85.8341  2.13100439142983
GPS BIIRM-6 (PRN 07)    
1 32711U 08012A   26134.23441700  .00000114  00000+0  00000+0 0  9996
2 32711  54.4916 151.2812 0210383 247.3818 110.4365  2.00571490133077
GPS BIIRM-8 (PRN 05)    
1 35752U 09043A   26134.53497476 -.00000072  00000+0  00000+0 0  9997
2 35752  56.1900  28.7737 0053321  81.9004 147.3144  2.00556003122689
COSMOS 2456 (730)       
1 36111U 09070A   26134.53532832 -.00000013  00000+0  00000+0 0  9998
2 36111  64.9927  72.1194 0005572 322.6684  36.9343  2.13103554127704
COSMOS 2457 (733)       
1 36112U 09070B   26132.20336640  .00000001  00000+0  00000+0 0  9996
2 36112  64.9768  72.0433 0001452 149.1813 349.1541  2.13101274127663
COSMOS 2460 (732)       
1 36402U 10007C   26133.41808615 -.00000014  00000+0  00000+0 0  9995
2 36402  65.4410 315.6434 0002329  76.3643 275.7386  2.13106409125987
GPS BIIF-1  (PRN 25)    
1 36585U 10022A   26133.56303456  .00000038  00000+0  00000+0 0  9998
2 36585  54.2740 209.9570 0126465  66.1117 298.9101  2.00560678116900
BEIDOU-2 IGSO-1 (C06)   
1 36828U 10036A   26132.68902604 -.00000041  00000+0  00000+0 0  9990
2 36828  54.2951 163.2807 0058855 224.5644 197.8413  1.00282752 57743
BEIDOU-2 G4 (C04)       
1 37210U 10057A   26134.60997250 -.00000098  00000+0  00000+0 0  9996
2 37210   3.5632  69.1328 0005602 209.7212 333.0735  1.00272373 56953
BEIDOU-2 IGSO-2 (C07)   
1 37256U 10068A   26134.81364228 -.00000229  00000+0  00000+0 0  9990
2 37256  47.6127 272.2469 0054293 211.9004 147.4993  1.00294530 56455
BEIDOU-2 IGSO-3 (C08)   
1 37384U 11013A   26134.75077336 -.00000206  00000+0  00000+0 0  9992
2 37384  62.3634  40.4703 0033942 185.9417  24.6219  1.00276202 55324
GSAT-8 (GAGAN/PRN 127)  
1 37605U 11022A   26134.86240294  .00000099  00000+0  00000+0 0  9994
2 37605   2.0450  82.2034 0003632 222.2063 293.7291  1.00271054 52880
BEIDOU-2 IGSO-4 (C09)   
1 37763U 11038A   26134.55136171  .00000083  00000+0  00000+0 0  9993
2 37763  54.5875 165.9688 0158111 233.6626 122.7564  1.00290878 54304
GSAT0101 (GALILEO-PFM)  
1 37846U 11060A   26132.06679816 -.00000059  00000+0  00000+0 0  9996
2 37846  57.0066 342.7409 0003801  36.9967 323.0721  1.70475700 90508
GSAT0102 (GALILEO-FM2)  
1 37847U 11060B   26132.28960389 -.00000059  00000+0  00000+0 0  9999
2 37847  57.0060 342.7355 0004102   9.0913 173.3074  1.70475944 90518
COSMOS 2476 (744)       
1 37867U 11064A   26133.46280896 -.00000002  00000+0  00000+0 0  9992
2 37867  65.2513  74.0432 0023735 241.3402 283.8009  2.13103936113026
COSMOS 2477 (745)       
1 37868U 11064B   26132.53934963  .00000004  00000+0  00000+0 0  9992
2 37868  65.2573  74.1534 0020755 243.0495 114.0851  2.13103076112997
COSMOS 2475 (743)       
1 37869U 11064C   26133.53746779 -.00000003  00000+0  00000+0 0  9990
2 37869  65.2651  74.1407 0026804 255.0346 103.0905  2.13101916113027
BEIDOU-2 IGSO-5 (C10)   
1 37948U 11073A   26134.85233405 -.00000174  00000+0  00000+0 0  9990
2 37948  47.7421 271.9571 0111838 220.5962 139.4077  1.00256060 52804
LUCH 5A (SDCM/PRN 140)  
1 37951U 11074B   26134.61294846 -.00000034  00000+0  00000+0 0  9990
2 37951   8.6695  74.2900 0002248 326.8223 218.9803  1.00274427 52718
BEIDOU-2 G5 (C05)       
1 38091U 12008A   26134.90091671  .00000071  00000+0  00000+0 0  9997
2 38091   3.4903  69.8861 0011005 271.0617 274.6918  1.00271892 52038
BEIDOU-2 M3 (C11)       
1 38250U 12018A   26133.82337998 -.00000044  00000+0  00000+0 0  9991
2 38250  55.7884 306.0335 0019740 276.7159  83.0491  1.86230034 95304
BEIDOU-2 M4 (C12)       
1 38251U 12018B   26134.29258150 -.00000046  00000+0  00000+0 0  9998
2 38251  55.6884 305.2340 0010931 281.8081  78.0562  1.86229693 95318
SES-5 (EGNOS/PRN 136)   
1 38652U 12036A   26134.92753314  .00000047  00000+0  00000+0 0  9995
2 38652   0.0542 304.4041 0002002 103.6463 163.5173  1.00270774 44125
BEIDOU-2 M6 (C14)       
1 38775U 12050B   26133.46547221 -.00000034  00000+0  00000+0 0  9990
2 38775  56.5154  64.0423 0014338 351.5107   8.4474  1.86230860 92662
GSAT-10 (GAGAN/PRN 128) 
1 38779U 12051B   26134.83444308 -.00000150  00000+0  00000+0 0  9998
2 38779   0.0730 262.8066 0007441 179.6108 173.4813  1.00270378 49765
GPS BIIF-3  (PRN 24)    
1 38833U 12053A   26134.41374478  .00000109  00000+0  00000+0 0  9998
2 38833  53.5790 144.9829 0178616  65.3216 296.5777  2.00566886 98769
GSAT0103 (GALILEO-FM3)  
1 38857U 12055A   26132.69380508  .00000058  00000+0  00000+0 0  9998
2 38857  55.7853 102.5186 0005712 298.0143  61.9039  1.70473386 84404
BEIDOU-2 G6 (C02)       
1 38953U 12059A   26134.83461641 -.00000162  00000+0  00000+0 0  9992
2 38953   4.3366  73.8698 0010420 320.6012 222.6397  1.00271635 49575
LUCH 5B (SDCM/PRN 125)  
1 38977U 12061A   26134.55108943 -.00000126  00000+0  00000+0 0  9993
2 38977  10.4115  50.2098 0001282 166.3503 197.8415  1.00270871 49272
COSMOS 2485 (747)       
1 39155U 13019A   26134.12328617 -.00000005  00000+0  00000+0 0  9997
2 39155  65.4019  74.7472 0024099 236.7096 123.0397  2.13103370101555
GPS BIIF-4  (PRN 27)    
1 39166U 13023A   26133.28260935 -.00000033  00000+0  00000+0 0  9999
2 39166  54.5327 270.3950 0141822  50.8306 310.3961  2.00563631 95181
IRNSS-1A                
1 39199U 13034A   26130.90723887  .00000087  00000+0  00000+0 0  9991
2 39199  35.6409  64.4033 0016634 186.4157 359.4683  1.00276702 46993
GPS BIIF-5  (PRN 30)    
1 39533U 14008A   26134.28095086  .00000112  00000+0  00000+0 0  9992
2 39533  53.6482 150.7026 0084076 230.6122 128.6977  2.00557592 89007
ASTRA 5B (EGNOS/PRN 123)
1 39617U 14011B   26134.92197545  .00000150  00000+0  00000+0 0  9995
2 39617   0.0469 348.3295 0002328  44.9642 194.7919  1.00271839 44330
COSMOS 2492 (754)       
1 39620U 14012A   26133.14373360 -.00000013  00000+0  00000+0 0  9993
2 39620  65.3184 315.1268 0010961 329.3347  30.6163  2.13103226 94498
IRNSS-1B                
1 39635U 14017A   26134.58447366  .00000103  00000+0  00000+0 0  9990
2 39635  28.9827 240.9811 0023998 184.5936  72.2831  1.00278552 44456
LUCH 5V (SDCM/PRN 141)  
1 39727U 14023A   26134.85233405 -.00000255  00000+0  00000+0 0  9995
2 39727   5.0502  70.0739 0001947   4.0064 200.0461  1.00275880 44027
GPS BIIF-6  (PRN 06)    
1 39741U 14026A   26134.05786260 -.00000051  00000+0  00000+0 0  9992
2 39741  56.5142 332.8462 0038618 326.8645  32.9252  2.00563452 87855
COSMOS 2500 (755)       
1 40001U 14032A   26132.84470524 -.00000012  00000+0  00000+0 0  9995
2 40001  65.2533 314.8874 0006037 181.3762 178.6376  2.13105535 92701
GPS BIIF-7  (PRN 09)    
1 40105U 14045A   26134.14895784  .00000019  00000+0  00000+0 0  9994
2 40105  55.3318  89.8204 0032082 118.7363 241.5584  2.00556087 85399
GSAT0201 (GALILEO 5)    
1 40128U 14050A   26133.92183163 -.00000050  00000+0  00000+0 0  9997
2 40128  48.9132 274.8401 1669352 178.0546 182.6998  1.85519873 77681
GSAT0202 (GALILEO 6)    
1 40129U 14050B   26133.63850773 -.00000050  00000+0  00000+0 0  9994
2 40129  48.9313 273.9365 1670426 178.7733 181.7078  1.85520430 79841
IRNSS-1C                
1 40269U 14061A   26134.83444308 -.00000146  00000+0  00000+0 0  9993
2 40269   6.4337  89.5591 0022341 358.7053 167.6516  1.00274610 42353
GPS BIIF-8  (PRN 03)    
1 40294U 14068A   26134.02160300 -.00000070  00000+0  00000+0 0  9992
2 40294  56.9651  32.2713 0066015  69.3905 291.3455  2.00573953 84523
COSMOS 2501 (702K)      
1 40315U 14075A   26132.63703521  .00000068  00000+0  00000+0 0  9993
2 40315  63.6143 191.6025 0022142 210.7482 149.1999  2.13101550 89093
GPS BIIF-9  (PRN 26)    
1 40534U 15013A   26134.65607470  .00000054  00000+0  00000+0 0  9994
2 40534  53.1711 205.5646 0108993  40.0251 320.8484  2.00553328 81158
GSAT0203 (GALILEO 7)    
1 40544U 15017A   26134.19105623 -.00000060  00000+0  00000+0 0  9999
2 40544  56.7976 342.5224 0002529 298.3932  61.6234  1.70475894 68624
GSAT0204 (GALILEO 8)    
1 40545U 15017B   26133.86018314 -.00000060  00000+0  00000+0 0  9993
2 40545  56.8041 342.5500 0001982 280.9930  79.0272  1.70475594 31669
BEIDOU-3S IGSO-1S (C31) 
1 40549U 15019A   26134.40902468 -.00000180  00000+0  00000+0 0  9995
2 40549  49.2611 295.8678 0037753 190.1822 347.3754  1.00257561 40734
GPS BIIF-10 (PRN 08)    
1 40730U 15033A   26134.31661273 -.00000033  00000+0  00000+0 0  9996
2 40730  54.0101 268.4825 0114999  30.0571 330.5716  2.00557915 79310
BEIDOU-3S M2S (C58)     
1 40748U 15037A   26133.42160253 -.00000044  00000+0  00000+0 0  9994
2 40748  54.9026 303.2431 0007483 267.3673  92.5347  1.86232251 73474
BEIDOU-3S M1S (C57)     
1 40749U 15037B   26132.02261529 -.00000039  00000+0  00000+0 0  9992
2 40749  54.9005 303.2786 0004165  55.6265 304.4052  1.86254900 73455
GSAT0205 (GALILEO 9)    
1 40889U 15045A   26115.63255192 -.00000038  00000+0  00000+0 0  9992
2 40889  54.9613 223.1764 0005159 266.9978  92.9342  1.67410754 66085
GSAT0206 (GALILEO 10)   
1 40890U 15045B   26133.84883054  .00000012  00000+0  00000+0 0  9992
2 40890  54.9550 222.5527 0001645  21.0324 339.0175  1.70473937 66454
BEIDOU-3S IGSO-2S (C56) 
1 40938U 15053A   26134.81413883 -.00000171  00000+0  00000+0 0  9998
2 40938  49.2758 259.1800 0064443 190.7694 172.1939  1.00267485 39022
GPS BIIF-11 (PRN 10)    
1 41019U 15062A   26134.37396186 -.00000070  00000+0  00000+0 0  9994
2 41019  56.9376  32.1140 0111301 231.3646 127.6655  2.00566920 77158
GSAT-15 (GAGAN/PRN 139) 
1 41028U 15065A   26134.87664073 -.00000244  00000+0  00000+0 0  9998
2 41028   0.0259 249.7008 0003419 168.3234 223.7064  1.00270779 38465
GSAT0209 (GALILEO 12)   
1 41174U 15079A   26134.01678126  .00000051  00000+0  00000+0 0  9990
2 41174  55.8082 102.1982 0005676 332.8024  27.1359  1.70473925 64191
GSAT0208 (GALILEO 11)   
1 41175U 15079B   26132.47731976  .00000058  00000+0  00000+0 0  9999
2 41175  55.8051 102.2375 0005004 333.6656  26.2856  1.70473864 64587
IRNSS-1E                
1 41241U 16003A   26134.71155847 -.00000296  00000+0  00000+0 0  9992
2 41241  33.1645  60.2334 0017006 181.5172 358.5240  1.00267878 37740
GPS BIIF-12 (PRN 32)    
1 41328U 16007A   26132.96693977  .00000032  00000+0  00000+0 0  9995
2 41328  55.5031  90.8552 0096124 247.2479 111.7128  2.00553357 75132
COSMOS 2514 (751)       
1 41330U 16008A   26134.02921235 -.00000018  00000+0  00000+0 0  9994
2 41330  65.0425 314.1787 0010035 196.9867 162.9904  2.13102583 79890
BEIDOU-2 IGSO-6 (C13)   
1 41434U 16021A   26133.71344662 -.00000171  00000+0  00000+0 0  9992
2 41434  60.1795  38.3842 0057349 232.4091 312.1070  1.00265272 37136
IRNSS-1G                
1 41469U 16027A   26134.84362979 -.00000319  00000+0  00000+0 0  9996
2 41469   5.1152  98.2505 0006297 350.3835 217.2487  1.00266754 36843
GSAT0211 (GALILEO 14)   
1 41549U 16030A   26134.36115200  .00000014  00000+0  00000+0 0  9990
2 41549  55.1049 222.6253 0002568 339.5667  20.4689  1.70474048 62092
GSAT0210 (GALILEO 13)   
1 41550U 16030B   26133.44525435  .00000011  00000+0  00000+0 0  9992
2 41550  55.1034 222.6485 0003179 230.8453 129.1673  1.70474089 62073
BEIDOU-2 G7 (C03)       
1 41586U 16037A   26134.91120100 -.00000339  00000+0  00000+0 0  9995
2 41586   1.6371  69.0071 0007508 359.1774 243.0626  1.00268839  6559
EUTELSAT 117 WEST B (W*)
1 41589U 16038B   26134.86607656  .00000002  00000+0  00000+0 0  9995
2 41589   0.0198 120.0883 0000149 283.5176  23.8045  1.00273079 36320
GSAT0207 (GALILEO 15)   
1 41859U 16069A   26133.13686640  .00000055  00000+0  00000+0 0  9996
2 41859  55.4775 102.0552 0005821 321.4493  38.4825  1.70473822 58804
GSAT0212 (GALILEO 16)   
1 41860U 16069B   26134.16349088  .00000049  00000+0  00000+0 0  9997
2 41860  55.4761 102.0219 0004753 345.7526  14.2010  1.70473991 59075
GSAT0213 (GALILEO 17)   
1 41861U 16069C   26133.35764116  .00000054  00000+0  00000+0 0  9997
2 41861  55.4778 102.0522 0005700 305.7481  54.1710  1.70474359 58922
GSAT0214 (GALILEO 18)   
1 41862U 16069D   26132.33062559  .00000058  00000+0  00000+0 0  9991
2 41862  55.4756 102.0732 0004781 311.3143  48.6217  1.70474167 59038
SES-15 (WAAS/PRN 133)   
1 42709U 17026A   26134.61972016  .00000073  00000+0  00000+0 0  9994
2 42709   0.0218 323.4829 0000550  54.7803 308.0755  1.00269602  7093
QZS-2 (QZSS/PRN 194)    
1 42738U 17028A   26133.61641992 -.00000189  00000+0  00000+0 0  9992
2 42738  39.4811 243.6627 0762695 268.9021  80.5186  1.00293037  7274
QZS-3 (QZSS/PRN 199)    
1 42917U 17048A   26134.84319646 -.00000334  00000+0  00000+0 0  9999
2 42917   0.0691 130.8095 0001902 279.8240 252.5634  1.00272147 31927
COSMOS 2522 (752)       
1 42939U 17055A   26132.45930743  .00000064  00000+0  00000+0 0  9992
2 42939  64.0766 193.1001 0009875 237.8379 122.1429  2.13102034 67214
QZS-4 (QZSS/PRN 195)    
1 42965U 17062A   26134.45739131 -.00000302  00000+0  00000+0 0  9995
2 42965  40.1279 343.9136 0745928 271.1617 281.0974  1.00260513 31463
BEIDOU-3 M1 (C19)       
1 43001U 17069A   26133.76780652 -.00000035  00000+0  00000+0 0  9994
2 43001  56.6631  64.2188 0011641 320.5367  39.3602  1.86231382 57969
BEIDOU-3 M2 (C20)       
1 43002U 17069B   26133.16952611 -.00000032  00000+0  00000+0 0  9992
2 43002  56.6620  64.2738 0009693 344.6836  15.2699  1.86229936 57940
GSAT0215 (GALILEO 19)   
1 43055U 17079A   26133.40726626  .00000011  00000+0  00000+0 0  9999
2 43055  55.0834 222.4638 0002332 262.8128  97.2018  1.70474658 52398
GSAT0216 (GALILEO 20)   
1 43056U 17079B   26133.11185616  .00000010  00000+0  00000+0 0  9995
2 43056  55.0844 222.4721 0001853 283.0597  76.9595  1.70474837 52400
GSAT0217 (GALILEO 21)   
1 43057U 17079C   26130.98631227  .00000006  00000+0  00000+0 0  9997
2 43057  55.0824 222.5283 0002398 300.6268  59.3860  1.70474863 52352
GSAT0218 (GALILEO 22)   
1 43058U 17079D   26132.37953886  .00000008  00000+0  00000+0 0  9993
2 43058  55.0821 222.4876 0004926 272.6757  87.3056  1.70474709 52400
BEIDOU-3 M7 (C27)       
1 43107U 18003A   26134.52202215 -.00000050  00000+0  00000+0 0  9996
2 43107  54.3594 303.4891 0005239  85.7155 274.3282  1.86228234 56729
BEIDOU-3 M8 (C28)       
1 43108U 18003B   26132.85647029 -.00000043  00000+0  00000+0 0  9999
2 43108  54.3540 303.5291 0002179 277.0252  82.9401  1.86231209 56700
BEIDOU-3 M4 (C22)       
1 43207U 18018A   26133.83609041 -.00000035  00000+0  00000+0 0  9997
2 43207  56.6222  64.2817 0007810   8.4475 351.5469  1.86231296 56106
BEIDOU-3 M3 (C21)       
1 43208U 18018B   26133.90253905 -.00000036  00000+0  00000+0 0  9991
2 43208  56.6215  64.2834 0009595 332.7979  27.1331  1.86231253 56109
BEIDOU-3 M9 (C29)       
1 43245U 18029A   26133.04629420 -.00000044  00000+0  00000+0 0  9997
2 43245  54.2274 301.1779 0000806 101.6627 258.3330  1.86228295 55242
BEIDOU-3 M10 (C30)      
1 43246U 18029B   26132.98083424 -.00000043  00000+0  00000+0 0  9997
2 43246  54.2250 301.2067 0004582  37.0226 322.9958  1.86229383 55221
IRNSS-1I                
1 43286U 18035A   26134.90031005  .00000094  00000+0  00000+0 0  9995
2 43286  29.0986  74.7106 0017849 184.0469 353.0260  1.00270646 29742
COSMOS 2527 (756)       
1 43508U 18053A   26130.54369296  .00000017  00000+0  00000+0 0  9999
2 43508  65.5577  75.1624 0008142 246.5326 113.3712  2.13102285 61475
BEIDOU-2 IGSO-7 (C16)   
1 43539U 18057A   26134.48418476  .00000023  00000+0  00000+0 0  9996
2 43539  55.1885 163.3530 0103946 237.7951 117.4564  1.00261150 28785
GSAT0221 (GALILEO 25)   
1 43564U 18060A   26134.04315617 -.00000059  00000+0  00000+0 0  9993
2 43564  57.1796 342.7026 0003326 317.1989  42.8181  1.70475744 48583
GSAT0222 (GALILEO 26)   
1 43565U 18060B   26134.26275871 -.00000059  00000+0  00000+0 0  9995
2 43565  57.1833 342.7002 0001936 276.5511  83.4695  1.70475458 48633
GSAT0219 (GALILEO 23)   
1 43566U 18060C   26132.72394273 -.00000058  00000+0  00000+0 0  9992
2 43566  57.1830 342.7433 0002967 333.6508  26.3774  1.70475738 48584
GSAT0220 (GALILEO 24)   
1 43567U 18060D   26133.53149004 -.00000058  00000+0  00000+0 0  9993
2 43567  57.1827 342.7223 0003105 325.7445  34.2788  1.70475539 48587
BEIDOU-3 M5 (C23)       
1 43581U 18062A   26134.81592912  .00000098  00000+0  00000+0 0  9996
2 43581  54.0834 183.4391 0004978 287.7441  72.2956  1.86228609 53019
BEIDOU-3 M6 (C24)       
1 43582U 18062B   26134.14227334  .00000096  00000+0  00000+0 0  9994
2 43582  54.0834 183.4512 0004761  15.4018 344.7046  1.86227846 53009
BEIDOU-3 M12 (C26)      
1 43602U 18067A   26134.61762994  .00000100  00000+0  00000+0 0  9996
2 43602  54.1785 182.1790 0007852  32.3803 327.7614  1.86227964 52491
BEIDOU-3 M11 (C25)      
1 43603U 18067B   26132.60474189  .00000085  00000+0  00000+0 0  9992
2 43603  54.1758 182.2111 0004416  17.3082 342.7922  1.86227468 52482
BEIDOU-3 M13 (C32)      
1 43622U 18072A   26133.63367348 -.00000035  00000+0  00000+0 0  9997
2 43622  56.5956  63.8000 0008352 321.7173  38.2058  1.86231484 52015
BEIDOU-3 M14 (C33)      
1 43623U 18072B   26134.03606905 -.00000037  00000+0  00000+0 0  9990
2 43623  56.5980  63.7808 0006648 347.7176  12.2477  1.86231503 52014
BEIDOU-3 M16 (C35)      
1 43647U 18078A   26132.58110638 -.00000042  00000+0  00000+0 0  9999
2 43647  54.1235 301.2337 0007880  39.7391 320.3068  1.86232272 51494
BEIDOU-3 M15 (C34)      
1 43648U 18078B   26134.32123487 -.00000049  00000+0  00000+0 0  9997
2 43648  54.1178 301.1735 0004984  52.5299 307.4971  1.86232505 51548
BEIDOU-3 G1 (C59)       
1 43683U 18085A   26133.70890306 -.00000093  00000+0  00000+0 0  9995
2 43683   2.9862  98.2826 0007539 339.3962 208.9822  1.00272631 27717
COSMOS 2529 (757)       
1 43687U 18086A   26132.04825520  .00000058  00000+0  00000+0 0  9992
2 43687  64.2931 193.8143 0010911 255.4886 104.4650  2.13102225 58511
BEIDOU-3 M17 (C36)      
1 43706U 18093A   26131.35359073  .00000068  00000+0  00000+0 0  9991
2 43706  54.1670 183.5464 0009480 290.8488 131.5748  1.86228417 50852
BEIDOU-3 M18 (C37)      
1 43707U 18093B   26132.73439434  .00000084  00000+0  00000+0 0  9993
2 43707  54.1678 183.4917 0007396 321.8656  38.1678  1.86226542 50872
GPS BIII-1  (PRN 04)    
1 43873U 18109A   26134.60539291  .00000024  00000+0  00000+0 0  9999
2 43873  55.6623  93.5113 0038011 198.6968 157.6362  2.00560026 54398
BEIDOU-3 IGSO-1 (C38)   
1 44204U 19023A   26132.76772565 -.00000227  00000+0  00000+0 0  9998
2 44204  58.6468  38.0171 0023856 234.3090 349.8662  1.00250503  6851
BEIDOU-2 G8 (C01)       
1 44231U 19027A   26134.91787435 -.00000233  00000+0  00000+0 0  9990
2 44231   1.5730  74.4288 0010780 281.4336 351.7661  1.00272471 25749
COSMOS 2534 (758)       
1 44299U 19030A   26130.46780834  .00000041  00000+0  00000+0 0  9996
2 44299  64.3663 193.8862 0012337 276.0898  85.9352  2.13102604 54124
BEIDOU-3 IGSO-2 (C39)   
1 44337U 19035A   26132.65390358 -.00000046  00000+0  00000+0 0  9991
2 44337  55.2385 159.1745 0039680 215.7907 210.7620  1.00277740 25317
GPS BIII-2  (PRN 18)    
1 44506U 19056A   26134.25098181 -.00000053  00000+0  00000+0 0  9997
2 44506  55.6530 332.4919 0060363 197.4131 165.7347  2.00569226 49390
BEIDOU-3 M24 (C46)      
1 44542U 19061A   26134.95132601  .00000098  00000+0  00000+0 0  9994
2 44542  54.3947 183.8491 0008084   2.8875 357.2118  1.86229259 45175
BEIDOU-3 M23 (C45)      
1 44543U 19061B   26134.17973947  .00000096  00000+0  00000+0 0  9993
2 44543  54.3932 183.8436 0005229 341.9949 132.6039  1.86227353 45165
EUTELSAT 5 WEST B (EGN*)
1 44624U 19067A   26134.88826332 -.00000029  00000+0  00000+0 0  9999
2 44624   0.0664 356.8020 0002960  52.6448 137.9622  1.00271134 24104
BEIDOU-3 IGSO-3 (C40)   
1 44709U 19073A   26120.85038409 -.00000212  00000+0  00000+0 0  9996
2 44709  54.8842 281.4069 0042404 188.8195 170.9972  1.00251230 23982
BEIDOU-3 M22 (C44)      
1 44793U 19078A   26133.17974627 -.00000045  00000+0  00000+0 0  9998
2 44793  53.9691 301.0594 0007131  47.8476 312.1989  1.86227440 43994
BEIDOU-3 M21 (C43)      
1 44794U 19078B   26130.09800295 -.00000037  00000+0  00000+0 0  9997
2 44794  53.9450 301.1295 0004992  44.9662 315.0658  1.86228028 43947
COSMOS 2544 (759)       
1 44850U 19088A   26130.95764889  .00000015  00000+0  00000+0 0  9999
2 44850  65.5460  74.9726 0014547 261.4033  98.4208  2.13102139 49921
BEIDOU-3 M19 (C41)      
1 44864U 19090A   26134.37148076 -.00000039  00000+0  00000+0 0  9998
2 44864  56.5302  63.9086 0019040 296.9236 245.2774  1.86231675 43605
BEIDOU-3 M20 (C42)      
1 44865U 19090B   26134.77357859 -.00000040  00000+0  00000+0 0  9996
2 44865  56.5323  63.9300 0016805 309.7511 231.6338  1.86231584 43595
BEIDOU-3 G2 (C60)       
1 45344U 20017A   26134.83383641 -.00000127  00000+0  00000+0 0  9991
2 45344   2.7969  46.8187 0002501   9.5553 196.4332  1.00272271 22929
COSMOS 2545 (760)       
1 45358U 20018A   26134.43772462 -.00000022  00000+0  00000+0 0  9990
2 45358  64.3759 313.6054 0007296 235.3992 124.5398  2.13102635 47949
BEIDOU-3 G3 (C61)       
1 45807U 20040A   26134.91120100 -.00000340  00000+0  00000+0 0  9996
2 45807   2.3650  67.3543 0003230 333.7763 270.0968  1.00274239 21733
GPS BIII-3  (PRN 23)    
1 45854U 20041A   26132.65692499 -.00000071  00000+0  00000+0 0  9994
2 45854  56.6475  30.3230 0062604 204.7790  27.1781  2.00559403 43325
GALAXY 30 (WAAS/PRN 135)
1 46114U 20056C   26134.62063378  .00000050  00000+0  00000+0 0  9993
2 46114   0.0188 292.9492 0002467 133.9627 263.8886  1.00271998 20956
COSMOS 2547 (705K)      
1 46805U 20075A   26134.15772763  .00000079  00000+0  00000+0 0  9995
2 46805  64.5960 193.6097 0008942 240.1865 119.8080  2.13105154 43184
GPS BIII-4  (PRN 14)    
1 46826U 20078A   26134.30789351  .00000040  00000+0  00000+0 0  9997
2 46826  53.9846 212.1531 0072044 206.2235 113.0392  2.00564762 40820
GPS BIII-5  (PRN 11)    
1 48859U 21054A   26134.60633609 -.00000056  00000+0  00000+0 0  9995
2 48859  55.1893 333.8099 0024481 229.2406 131.3842  2.00571021 36083
QZS-1R (QZSS/PRN 196)   
1 49336U 21096A   26134.72530824 -.00000212  00000+0  00000+0 0  9994
2 49336  37.3949  80.0780 0752355 271.1623 277.8158  1.00266754 16673
GSAT0223 (GALILEO 27)   
1 49809U 21116A   26133.08767361 -.00000058  00000+0  00000+0 0  9996
2 49809  57.1731 342.6239 0000612 234.7586 303.7075  1.70475762 27585
GSAT0224 (GALILEO 28)   
1 49810U 21116B   26134.08629532 -.00000059  00000+0  00000+0 0  9997
2 49810  57.1734 342.5955 0000346 113.4739  70.4838  1.70475706 27629
COSMOS 2557 (706K)      
1 52984U 22075A   26133.38373156 -.00000017  00000+0  00000+0 0  9992
2 52984  64.3189 315.7114 0010072 279.0223  80.8784  2.13102035 29977
COSMOS 2559 (707K)      
1 54031U 22130A   26134.61105706 -.00000023  00000+0  00000+0 0  9997
2 54031  64.2914 315.7523 0011720 176.0962 183.9236  2.13101482 27978
COSMOS 2564 (761)       
1 54377U 22161A   26133.04666587  .00000069  00000+0  00000+0 0  9998
2 54377  64.7392 193.8779 0011540 222.0569 137.9328  2.13101986 26888
GPS BIII-6  (PRN 28)    
1 55268U 23009A   26134.54936838  .00000113  00000+0  00000+0 0  9995
2 55268  55.1173 149.8412 0006001 314.7460  42.5876  2.00573756 24565
BEIDOU-3 G4 (C62)       
1 56564U 23066A   26134.91700769 -.00000268  00000+0  00000+0 0  9993
2 56564   0.5308 323.5582 0003523 173.4149 205.7995  1.00275560 11065
NVS-01 (IRNSS-1J)       
1 56759U 23076A   26134.84362979 -.00000322  00000+0  00000+0 0  9990
2 56759   2.2453 245.8310 0004346  54.5693   5.4593  1.00269561 10784
COSMOS 2569 (703K)      
1 57517U 23114A   26134.46682001 -.00000009  00000+0  00000+0 0  9997
2 57517  65.2842  73.7570 0011898 296.2492  63.6085  2.13103704 21545
BEIDOU-3 M28 (C50)      
1 58654U 23207A   26132.32302171 -.00000030  00000+0  00000+0 0  9997
2 58654  55.7225  63.5128 0004245 330.2096  29.7521  1.86229701 16176
BEIDOU-3 M26 (C48)      
1 58655U 23207B   26133.19442925 -.00000035  00000+0  00000+0 0  9991
2 58655  55.7254  63.4698 0004439 309.9196  50.0251  1.86229676 16177
GSAT0225 (GALILEO 29)   
1 59598U 24079A   26133.50947432  .00000053  00000+0  00000+0 0  9993
2 59598  55.0983 102.0485 0002416 282.1756 260.9730  1.70474205 12721
GSAT0227 (GALILEO 30)   
1 59600U 24079C   26132.22126720  .00000057  00000+0  00000+0 0  9998
2 59600  55.0936 102.0828 0001530  23.5037 336.4810  1.70474232 12750
GSAT0232 (GALILEO 32)   
1 61182U 24167A   26133.63130446  .00000012  00000+0  00000+0 0  9991
2 61182  55.1949 222.2621 0005340 217.4341 143.4556  1.70474390 10299
GSAT0226 (GALILEO 31)   
1 61183U 24167B   26133.59057392  .00000012  00000+0  00000+0 0  9995
2 61183  55.1937 222.2705 0002228 207.8161 219.4163  1.70474355 10261
BEIDOU-3 M25 (C47)      
1 61186U 24168B   26134.63464834 -.00000050  00000+0  00000+0 0  9991
2 61186  54.5046 303.4082 0003091 312.9703  49.8050  1.86229921 11161
BEIDOU-3 M27 (C49)      
1 61187U 24168C   26133.36745762 -.00000045  00000+0  00000+0 0  9997
2 61187  54.5014 303.4354 0002241  43.5716 324.6381  1.86230101  8615
GPS BIII-7  (PRN 01)    
1 62339U 24242A   26132.18781948 -.00000054  00000+0  00000+0 0  9995
2 62339  54.8657 335.6414 0017084   3.1785 171.5342  2.00570893 10536
NVS-02 (IRNSS-1K)       
1 62850U 25020A   26134.45224803  .00000565  00000+0  60213-3 0  9994
2 62850  20.7639 271.5514 7348448 126.8791 324.8888  2.17925020 10243
QZS-6 (QZSS/PRN 200)    
1 62876U 25023A   26134.73044948 -.00000219  00000+0  00000+0 0  9997
2 62876   0.0404 284.3363 0002206 139.7337 161.8558  1.00270558  4614
COSMOS 2584 (704K)      
1 63130U 25042A   26132.00743125  .00000007  00000+0  00000+0 0  9997
2 63130  65.0650  74.0315 0006355 235.0573 124.8698  2.13103732  9279
GPS BIII-8  (PRN 21)    
1 64202U 25116A   26131.73938987 -.00000072  00000+0  00000+0 0  9994
2 64202  55.2115  32.5982 0008550 334.4876  58.4969  2.00578431  7140
COSMOS 2596 (708K)      
1 65590U 25206B   26132.08725519 -.00000012  00000+0  00000+0 0  9993
2 65590  64.6568 316.2427 0011354 315.8273 222.0958  2.13100605  5146
GSAT0233 (GALILEO 33)   
1 67160U 25302A   26132.45034041  .00000057  00000+0  00000+0 0  9997
2 67160  54.3135 103.1487 0001901 244.8588 299.0758  1.70474342  2517
GSAT0234 (GALILEO 34)   
1 67162U 25302C   26134.20830919  .00000049  00000+0  00000+0 0  9993
2 67162  54.3152 103.0978 0003729 298.2730  64.6782  1.70474268  2604
GPS BIII-9  (PRN 20)    
1 67588U 26017A   26133.29810109  .00000027  00000+0  00000+0 0  9992
2 67588  55.0667  90.1549 0023003 255.4228 104.2985  2.00571815430914
GPS BIII-10 (PRN 13)    
1 68791U 26087A   26133.55555556  .00000040  00000+0  00000+0 0  9992
2 68791  54.9658 209.1573 0021621 106.2051 285.2407  2.00569311   144
