GPS BIIR-5  (PRN 22)    
1 26407U 00040A   26133.59880483  .00000027  00000+0  00000+0 0  9990
2 26407  54.8573 216.5361 0121426 302.3476 207.5587  2.00557368189253
GPS BIIR-8  (PRN 16)    
1 27663U 03005A   26133.27759692  .00000024  00000+0  00000+0 0  9998
2 27663  54.8884 216.3559 0148028  53.0086   0.4712  2.00562400170617
GPS BIIR-11 (PRN 19)    
1 28190U 04009A   26133.74174988 -.00000036  00000+0  00000+0 0  9994
2 28190  54.8595 277.0782 0114536 171.5512  11.0195  2.00555769162255
GPS BIIR-13 (PRN 02)    
1 28474U 04045A   26134.14979288 -.00000051  00000+0  00000+0 0  9997
2 28474  55.1560 326.2669 0169904 315.5113 226.7446  2.00554278157749
GPS BIIRM-1 (PRN 17)    
1 28874U 05038A   26133.41951223 -.00000034  00000+0  00000+0 0  9993
2 28874  54.9077 274.5799 0127710 295.9425  41.1639  2.00568027151135
INMARSAT 4-F2 (SOUTHPA*)
1 28899U 05044A   26133.99085737 -.00000247  00000+0  00000+0 0  9994
2 28899   5.0512  43.7385 0002717  12.2661 315.9525  1.00270565 75172
GPS BIIRM-2 (PRN 31)    
1 29486U 06042A   26134.08308573  .00000115  00000+0  00000+0 0  9996
2 29486  54.7055 152.6929 0106156  53.7210 300.4614  2.00571763143702
GPS BIIRM-3 (PRN 12)    
1 29601U 06052A   26133.01820149  .00000023  00000+0  00000+0 0  9994
2 29601  54.9399 215.4003 0085928  90.4979 270.5379  2.00556196142705
GPS BIIRM-4 (PRN 15)    
1 32260U 07047A   26133.32302001  .00000005  00000+0  00000+0 0  9990
2 32260  54.0705  81.5020 0165272  86.7428 275.1201  2.00556966136119
COSMOS 2433 (720)       
1 32275U 07052A   26132.25207707 -.00000010  00000+0  00000+0 0  9997
2 32275  65.5976 317.1434 0001260 191.2243 168.7927  2.13104323144292
COSMOS 2432 (719)       
1 32276U 07052B   26132.45000145 -.00000011  00000+0  00000+0 0  9998
2 32276  65.6134 317.2637 0008594 337.2231 118.6433  2.13103386144320
GPS BIIRM-5 (PRN 29)    
1 32384U 07062A   26133.64089253 -.00000035  00000+0  00000+0 0  9994
2 32384  55.0606 275.5408 0035032 163.3905 193.1402  2.00557902134812
COSMOS 2434 (721)       
1 32393U 07065A   26132.38841561  .00000063  00000+0  00000+0 0  9995
2 32393  64.3159 193.1230 0001316  37.3934 317.2266  2.13101512143000
COSMOS 2436 (723)       
1 32395U 07065C   26133.26899799  .00000072  00000+0  00000+0 0  9991
2 32395  64.3244 193.1651 0017150 356.7973  85.8341  2.13100439142983
GPS BIIRM-6 (PRN 07)    
1 32711U 08012A   26133.23730382  .00000115  00000+0  00000+0 0  9993
2 32711  54.4914 151.3210 0210346 247.3663 110.4538  2.00571473133056
GPS BIIRM-8 (PRN 05)    
1 35752U 09043A   26133.37603104 -.00000072  00000+0  00000+0 0  9995
2 35752  56.1893  28.8193 0053296  81.8694  30.5658  2.00556103122664
COSMOS 2456 (730)       
1 36111U 09070A   26133.36451642 -.00000006  00000+0  00000+0 0  9999
2 36111  64.9920  72.1594 0005601 322.4249 218.9658  2.13103567127681
COSMOS 2457 (733)       
1 36112U 09070B   26132.20336640  .00000001  00000+0  00000+0 0  9996
2 36112  64.9768  72.0433 0001452 149.1813 349.1541  2.13101274127663
COSMOS 2460 (732)       
1 36402U 10007C   26133.41808615 -.00000014  00000+0  00000+0 0  9995
2 36402  65.4410 315.6434 0002329  76.3643 275.7386  2.13106409125987
GPS BIIF-1  (PRN 25)    
1 36585U 10022A   26133.56303456  .00000038  00000+0  00000+0 0  9998
2 36585  54.2740 209.9570 0126465  66.1117 298.9101  2.00560678116900
BEIDOU-2 IGSO-1 (C06)   
1 36828U 10036A   26132.68902604 -.00000041  00000+0  00000+0 0  9990
2 36828  54.2951 163.2807 0058855 224.5644 197.8413  1.00282752 57743
BEIDOU-2 G4 (C04)       
1 37210U 10057A   26134.13670617 -.00000098  00000+0  00000+0 0  9999
2 37210   3.5620  69.1348 0005570 210.1313 161.8188  1.00272475 56956
BEIDOU-2 IGSO-2 (C07)   
1 37256U 10068A   26132.65482429 -.00000223  00000+0  00000+0 0  9998
2 37256  47.6166 272.2741 0054020 211.9968  87.9181  1.00295443 56437
BEIDOU-2 IGSO-3 (C08)   
1 37384U 11013A   26131.75395624 -.00000196  00000+0  00000+0 0  9990
2 37384  62.3600  40.4988 0034014 186.6429  22.0878  1.00277207 55299
GSAT-8 (GAGAN/PRN 127)  
1 37605U 11022A   26134.18724910  .00000099  00000+0  00000+0 0  9991
2 37605   2.0431  82.2105 0003630 222.5210  49.6882  1.00270883 52875
BEIDOU-2 IGSO-4 (C09)   
1 37763U 11038A   26133.55324119  .00000080  00000+0  00000+0 0  9990
2 37763  54.5863 165.9790 0158045 233.0040 123.0490  1.00291146 54294
GSAT0101 (GALILEO-PFM)  
1 37846U 11060A   26132.06679816 -.00000059  00000+0  00000+0 0  9996
2 37846  57.0066 342.7409 0003801  36.9967 323.0721  1.70475700 90508
GSAT0102 (GALILEO-FM2)  
1 37847U 11060B   26132.28960389 -.00000059  00000+0  00000+0 0  9999
2 37847  57.0060 342.7355 0004102   9.0913 173.3074  1.70475944 90518
COSMOS 2476 (744)       
1 37867U 11064A   26133.46280896 -.00000002  00000+0  00000+0 0  9992
2 37867  65.2513  74.0432 0023735 241.3402 283.8009  2.13103936113026
COSMOS 2477 (745)       
1 37868U 11064B   26132.53934963  .00000004  00000+0  00000+0 0  9992
2 37868  65.2573  74.1534 0020755 243.0495 114.0851  2.13103076112997
COSMOS 2475 (743)       
1 37869U 11064C   26133.53746779 -.00000003  00000+0  00000+0 0  9990
2 37869  65.2651  74.1407 0026804 255.0346 103.0905  2.13101916113027
BEIDOU-2 IGSO-5 (C10)   
1 37948U 11073A   26133.85233506 -.00000172  00000+0  00000+0 0  9999
2 37948  47.7440 271.9697 0111792 220.6221 138.4497  1.00256396 52786
LUCH 5A (SDCM/PRN 140)  
1 37951U 11074B   26134.13809285 -.00000033  00000+0  00000+0 0  9995
2 37951   8.6681  74.2969 0002264 326.3928  47.9824  1.00274403 52710
BEIDOU-2 G5 (C05)       
1 38091U 12008A   26134.04530182  .00000072  00000+0  00000+0 0  9998
2 38091   3.4882  69.8905 0011016 271.4003 325.4847  1.00271750 52026
BEIDOU-2 M3 (C11)       
1 38250U 12018A   26133.82338032 -.00000044  00000+0  00000+0 0  9991
2 38250  55.7887 306.0335 0019754 276.7594  83.0056  1.86230025 95302
BEIDOU-2 M4 (C12)       
1 38251U 12018B   26132.68171406 -.00000040  00000+0  00000+0 0  9991
2 38251  55.6900 305.2883 0010954 282.0858  77.7844  1.86229765 95284
SES-5 (EGNOS/PRN 136)   
1 38652U 12036A   26134.15947557  .00000047  00000+0  00000+0 0  9994
2 38652   0.0553 303.5908 0002005 106.2858 244.4350  1.00269985 44116
BEIDOU-2 M6 (C14)       
1 38775U 12050B   26133.46547221 -.00000034  00000+0  00000+0 0  9990
2 38775  56.5154  64.0423 0014338 351.5107   8.4474  1.86230860 92662
GSAT-10 (GAGAN/PRN 128) 
1 38779U 12051B   26134.05015516 -.00000150  00000+0  00000+0 0  9997
2 38779   0.0751 262.7778 0007466 179.5465 250.4610  1.00270559 49750
GPS BIIF-3  (PRN 24)    
1 38833U 12053A   26133.41661257  .00000113  00000+0  00000+0 0  9996
2 38833  53.5788 145.0238 0178583  65.3053 296.5958  2.00566885 98742
GSAT0103 (GALILEO-FM3)  
1 38857U 12055A   26132.69380508  .00000058  00000+0  00000+0 0  9998
2 38857  55.7853 102.5186 0005712 298.0143  61.9039  1.70473386 84404
BEIDOU-2 G6 (C02)       
1 38953U 12059A   26133.90770244 -.00000161  00000+0  00000+0 0  9990
2 38953   4.3343  73.8788 0010495 320.7254 247.9048  1.00271914 49563
LUCH 5B (SDCM/PRN 125)  
1 38977U 12061A   26134.03050120 -.00000125  00000+0  00000+0 0  9998
2 38977  10.4105  50.2147 0001245 154.2636  21.9975  1.00270946 49268
COSMOS 2485 (747)       
1 39155U 13019A   26133.18477273  .00000001  00000+0  00000+0 0  9990
2 39155  65.4013  74.7786 0024106 236.6984 123.0536  2.13103381101536
GPS BIIF-4  (PRN 27)    
1 39166U 13023A   26133.28260935 -.00000033  00000+0  00000+0 0  9999
2 39166  54.5327 270.3950 0141822  50.8306 310.3961  2.00563631 95181
IRNSS-1A                
1 39199U 13034A   26130.90723887  .00000087  00000+0  00000+0 0  9991
2 39199  35.6409  64.4033 0016634 186.4157 359.4683  1.00276702 46993
GPS BIIF-5  (PRN 30)    
1 39533U 14008A   26133.28377154  .00000113  00000+0  00000+0 0  9991
2 39533  53.6480 150.7433 0084063 230.5864 128.7251  2.00557540 88980
ASTRA 5B (EGNOS/PRN 123)
1 39617U 14011B   26134.18092240  .00000151  00000+0  00000+0 0  9990
2 39617   0.0471 345.2991 0002361  47.7867 287.4902  1.00271583 44326
COSMOS 2492 (754)       
1 39620U 14012A   26133.14373360 -.00000013  00000+0  00000+0 0  9993
2 39620  65.3184 315.1268 0010961 329.3347  30.6163  2.13103226 94498
IRNSS-1B                
1 39635U 14017A   26124.91813348  .00000111  00000+0  00000+0 0  9992
2 39635  28.9994 241.1464 0023700 183.1232 184.0206  1.00275482 44360
LUCH 5V (SDCM/PRN 141)  
1 39727U 14023A   26133.87822575 -.00000254  00000+0  00000+0 0  9997
2 39727   5.0484  70.0817 0001817   6.8999 205.4878  1.00276155 44012
GPS BIIF-6  (PRN 06)    
1 39741U 14026A   26133.06069687 -.00000049  00000+0  00000+0 0  9996
2 39741  56.5146 332.8851 0038636 326.8631  32.9280  2.00563544 87837
COSMOS 2500 (755)       
1 40001U 14032A   26132.84470524 -.00000012  00000+0  00000+0 0  9995
2 40001  65.2533 314.8874 0006037 181.3762 178.6376  2.13105535 92701
GPS BIIF-7  (PRN 09)    
1 40105U 14045A   26133.15176746  .00000028  00000+0  00000+0 0  9994
2 40105  55.3311  89.8601 0032052 118.7710 241.5280  2.00556042 85378
GSAT0201 (GALILEO 5)    
1 40128U 14050A   26132.84386090 -.00000049  00000+0  00000+0 0  9999
2 40128  48.9144 274.8842 1669173 178.0124 182.7580  1.85519902 77665
GSAT0202 (GALILEO 6)    
1 40129U 14050B   26133.63850772 -.00000050  00000+0  00000+0 0  9993
2 40129  48.9313 273.9365 1670427 178.7733 181.7078  1.85520430 79842
IRNSS-1C                
1 40269U 14061A   26133.90752911 -.00000145  00000+0  00000+0 0  9991
2 40269   6.4314  89.5765 0022313 358.6452 193.0816  1.00274743 42344
GPS BIIF-8  (PRN 03)    
1 40294U 14068A   26133.52304289 -.00000070  00000+0  00000+0 0  9992
2 40294  56.9648  32.2905 0065988  69.3746 291.3602  2.00573937 84518
COSMOS 2501 (702K)      
1 40315U 14075A   26132.63703521  .00000068  00000+0  00000+0 0  9993
2 40315  63.6143 191.6025 0022142 210.7482 149.1999  2.13101550 89093
GPS BIIF-9  (PRN 26)    
1 40534U 15013A   26134.15747021  .00000050  00000+0  00000+0 0  9992
2 40534  53.1712 205.5852 0108988  40.0243 320.8464  2.00553381 81149
GSAT0203 (GALILEO 7)    
1 40544U 15017A   26133.01787363 -.00000059  00000+0  00000+0 0  9994
2 40544  56.7979 342.5545 0003009 299.2023  60.8103  1.70475991 68600
GSAT0204 (GALILEO 8)    
1 40545U 15017B   26133.86018314 -.00000060  00000+0  00000+0 0  9993
2 40545  56.8041 342.5499 0001982 280.9929  79.0272  1.70475594 31664
BEIDOU-3S IGSO-1S (C31) 
1 40549U 15019A   26133.90995616 -.00000178  00000+0  00000+0 0  9993
2 40549  49.2621 295.8737 0037733 190.2044 167.2223  1.00257659 40723
GPS BIIF-10 (PRN 08)    
1 40730U 15033A   26133.81802306 -.00000033  00000+0  00000+0 0  9994
2 40730  54.0105 268.5030 0115001  30.0544 330.5749  2.00557945 79306
BEIDOU-3S M2S (C58)     
1 40748U 15037A   26133.42160253 -.00000044  00000+0  00000+0 0  9994
2 40748  54.9026 303.2431 0007483 267.3673  92.5347  1.86232251 73474
BEIDOU-3S M1S (C57)     
1 40749U 15037B   26132.02261529 -.00000039  00000+0  00000+0 0  9992
2 40749  54.9005 303.2786 0004165  55.6265 304.4052  1.86254900 73455
GSAT0205 (GALILEO 9)    
1 40889U 15045A   26115.63255192 -.00000038  00000+0  00000+0 0  9992
2 40889  54.9613 223.1764 0005159 266.9978  92.9342  1.67410754 66085
GSAT0206 (GALILEO 10)   
1 40890U 15045B   26130.91590674  .00000006  00000+0  00000+0 0  9993
2 40890  54.9559 222.6337 0001772  27.2114 332.8341  1.70474023 66407
BEIDOU-3S IGSO-2S (C56) 
1 40938U 15053A   26133.82802839 -.00000172  00000+0  00000+0 0  9992
2 40938  49.2776 259.1918 0064286 190.7677 176.2360  1.00267682 39019
GPS BIIF-11 (PRN 10)    
1 41019U 15062A   26133.37680864 -.00000070  00000+0  00000+0 0  9992
2 41019  56.9370  32.1525 0111292 231.3730 127.6556  2.00566928 77138
GSAT-15 (GAGAN/PRN 139) 
1 41028U 15065A   26134.05223519 -.00000244  00000+0  00000+0 0  9994
2 41028   0.0279 250.0782 0003449 167.7716 286.2842  1.00271159 38452
GSAT0209 (GALILEO 12)   
1 41174U 15079A   26131.08387511  .00000059  00000+0  00000+0 0  9997
2 41174  55.8056 102.2786 0005648 331.9247  28.0249  1.70473999 64145
GSAT0208 (GALILEO 11)   
1 41175U 15079B   26132.47731976  .00000058  00000+0  00000+0 0  9999
2 41175  55.8051 102.2375 0005004 333.6656  26.2856  1.70473864 64587
IRNSS-1E                
1 41241U 16003A   26133.69950260 -.00000291  00000+0  00000+0 0  9995
2 41241  33.1624  60.2480 0017020 181.6018 353.1073  1.00268354 37739
GPS BIIF-12 (PRN 32)    
1 41328U 16007A   26132.96693977  .00000032  00000+0  00000+0 0  9995
2 41328  55.5031  90.8552 0096124 247.2479 111.7128  2.00553357 75132
COSMOS 2514 (751)       
1 41330U 16008A   26132.15217779 -.00000010  00000+0  00000+0 0  9999
2 41330  65.0436 314.2432 0009974 197.0747 162.9073  2.13102651 79858
BEIDOU-2 IGSO-6 (C13)   
1 41434U 16021A   26133.71344662 -.00000171  00000+0  00000+0 0  9992
2 41434  60.1795  38.3842 0057349 232.4091 312.1070  1.00265272 37136
IRNSS-1G                
1 41469U 16027A   26133.84545172 -.00000318  00000+0  00000+0 0  9992
2 41469   5.1127  98.2741 0006272 350.0711 217.2260  1.00267275 36837
GSAT0211 (GALILEO 14)   
1 41549U 16030A   26130.25506024  .00000006  00000+0  00000+0 0  9993
2 41549  55.1062 222.7382 0002510 345.0589  14.9704  1.70474161 62028
GSAT0210 (GALILEO 13)   
1 41550U 16030B   26133.44525434  .00000011  00000+0  00000+0 0  9991
2 41550  55.1034 222.6485 0003179 230.8453 129.1673  1.70474089 62073
BEIDOU-2 G7 (C03)       
1 41586U 16037A   26133.98427069 -.00000339  00000+0  00000+0 0  9995
2 41586   1.6348  68.9898 0007590 358.9438 268.7150  1.00269491  6543
EUTELSAT 117 WEST B (W*)
1 41589U 16038B   26133.15494515  .00000001  00000+0  00000+0 0  9993
2 41589   0.0206 121.2760 0000143 237.5358 170.8929  1.00273326 36310
GSAT0207 (GALILEO 15)   
1 41859U 16069A   26133.13686640  .00000055  00000+0  00000+0 0  9996
2 41859  55.4775 102.0552 0005821 321.4493  38.4825  1.70473822 58804
GSAT0212 (GALILEO 16)   
1 41860U 16069B   26131.81717310  .00000058  00000+0  00000+0 0  9993
2 41860  55.4744 102.0869 0004742 345.0422  14.9226  1.70474050 59032
GSAT0213 (GALILEO 17)   
1 41861U 16069C   26133.35764116  .00000054  00000+0  00000+0 0  9997
2 41861  55.4778 102.0522 0005701 305.7481  54.1710  1.70474359 58923
GSAT0214 (GALILEO 18)   
1 41862U 16069D   26132.33062559  .00000058  00000+0  00000+0 0  9991
2 41862  55.4756 102.0732 0004781 311.3143  48.6217  1.70474167 59038
SES-15 (WAAS/PRN 133)   
1 42709U 17026A   26133.55957641  .00000073  00000+0  00000+0 0  9993
2 42709   0.0212 327.2371 0000541  56.0276 280.3727  1.00270212  7089
QZS-2 (QZSS/PRN 194)    
1 42738U 17028A   26133.61641992 -.00000189  00000+0  00000+0 0  9992
2 42738  39.4811 243.6627 0762695 268.9021  80.5186  1.00293037  7274
QZS-3 (QZSS/PRN 199)    
1 42917U 17048A   26134.20137581 -.00000334  00000+0  00000+0 0  9995
2 42917   0.0683 131.9007 0001924 278.7746  20.8320  1.00272540 31910
COSMOS 2522 (752)       
1 42939U 17055A   26132.45930743  .00000064  00000+0  00000+0 0  9992
2 42939  64.0766 193.1001 0009875 237.8379 122.1429  2.13102034 67214
QZS-4 (QZSS/PRN 195)    
1 42965U 17062A   26130.46506226 -.00000298  00000+0  00000+0 0  9993
2 42965  40.1305 343.9651 0745733 271.0890 280.1450  1.00262352 31429
BEIDOU-3 M1 (C19)       
1 43001U 17069A   26133.76780652 -.00000035  00000+0  00000+0 0  9994
2 43001  56.6631  64.2188 0011642 320.5367  39.3602  1.86231382 57960
BEIDOU-3 M2 (C20)       
1 43002U 17069B   26133.16952611 -.00000032  00000+0  00000+0 0  9992
2 43002  56.6620  64.2738 0009693 344.6836  15.2699  1.86229936 57940
GSAT0215 (GALILEO 19)   
1 43055U 17079A   26133.40726626  .00000011  00000+0  00000+0 0  9999
2 43055  55.0834 222.4638 0002332 262.8128  97.2018  1.70474658 52398
GSAT0216 (GALILEO 20)   
1 43056U 17079B   26133.11185616  .00000010  00000+0  00000+0 0  9995
2 43056  55.0844 222.4721 0001853 283.0597  76.9595  1.70474837 52400
GSAT0217 (GALILEO 21)   
1 43057U 17079C   26130.98631227  .00000006  00000+0  00000+0 0  9997
2 43057  55.0824 222.5283 0002398 300.6268  59.3860  1.70474863 52352
GSAT0218 (GALILEO 22)   
1 43058U 17079D   26132.37953886  .00000008  00000+0  00000+0 0  9993
2 43058  55.0821 222.4876 0004926 272.6757  87.3056  1.70474709 52400
BEIDOU-3 M7 (C27)       
1 43107U 18003A   26133.44810736 -.00000046  00000+0  00000+0 0  9994
2 43107  54.3605 303.5264 0005232  85.3139 274.7340  1.86228299 56706
BEIDOU-3 M8 (C28)       
1 43108U 18003B   26132.85647029 -.00000043  00000+0  00000+0 0  9999
2 43108  54.3540 303.5291 0002179 277.0252  82.9401  1.86231209 56700
BEIDOU-3 M4 (C22)       
1 43207U 18018A   26133.83609041 -.00000035  00000+0  00000+0 0  9997
2 43207  56.6222  64.2817 0007810   8.4475 351.5469  1.86231296 56106
BEIDOU-3 M3 (C21)       
1 43208U 18018B   26133.90253905 -.00000036  00000+0  00000+0 0  9991
2 43208  56.6215  64.2834 0009596 332.7979  27.1331  1.86231253 56100
BEIDOU-3 M9 (C29)       
1 43245U 18029A   26133.04629420 -.00000044  00000+0  00000+0 0  9997
2 43245  54.2274 301.1779 0000806 101.6627 258.3330  1.86228295 55242
BEIDOU-3 M10 (C30)      
1 43246U 18029B   26132.98083424 -.00000043  00000+0  00000+0 0  9997
2 43246  54.2250 301.2067 0004582  37.0226 322.9958  1.86229383 55221
IRNSS-1I                
1 43286U 18035A   26133.90206906  .00000099  00000+0  00000+0 0  9993
2 43286  29.1030  74.7251 0017803 184.3321 352.3849  1.00270461 29733
COSMOS 2527 (756)       
1 43508U 18053A   26130.54369296  .00000017  00000+0  00000+0 0  9999
2 43508  65.5577  75.1624 0008142 246.5326 113.3712  2.13102285 61475
BEIDOU-2 IGSO-7 (C16)   
1 43539U 18057A   26133.48608229  .00000020  00000+0  00000+0 0  9999
2 43539  55.1877 163.3615 0104220 237.8550 117.1301  1.00261532 28771
GSAT0221 (GALILEO 25)   
1 43564U 18060A   26133.45657443 -.00000058  00000+0  00000+0 0  9992
2 43564  57.1798 342.7184 0003288 317.8790  42.1390  1.70475765 48571
GSAT0222 (GALILEO 26)   
1 43565U 18060B   26131.91641537 -.00000058  00000+0  00000+0 0  9999
2 43565  57.1840 342.7637 0001985 278.6336  81.3865  1.70475510 48597
GSAT0219 (GALILEO 23)   
1 43566U 18060C   26132.72394273 -.00000058  00000+0  00000+0 0  9992
2 43566  57.1830 342.7433 0002967 333.6508  26.3774  1.70475738 48584
GSAT0220 (GALILEO 24)   
1 43567U 18060D   26133.53149004 -.00000058  00000+0  00000+0 0  9993
2 43567  57.1827 342.7223 0003105 325.7445  34.2788  1.70475539 48587
BEIDOU-3 M5 (C23)       
1 43581U 18062A   26132.13113073  .00000077  00000+0  00000+0 0  9993
2 43581  54.0834 183.5303 0004814 287.8378  72.1926  1.86229005 52962
BEIDOU-3 M6 (C24)       
1 43582U 18062B   26133.06834912  .00000088  00000+0  00000+0 0  9991
2 43582  54.0830 183.4875 0004753  17.1476 342.9557  1.86227902 52981
BEIDOU-3 M12 (C26)      
1 43602U 18067A   26129.24802271  .00000046  00000+0  00000+0 0  9991
2 43602  54.1783 182.3610 0007840  32.7480 327.3771  1.86227965 52394
BEIDOU-3 M11 (C25)      
1 43603U 18067B   26132.60474189  .00000085  00000+0  00000+0 0  9992
2 43603  54.1758 182.2111 0004416  17.3082 342.7922  1.86227468 52482
BEIDOU-3 M13 (C32)      
1 43622U 18072A   26133.63367348 -.00000035  00000+0  00000+0 0  9997
2 43622  56.5956  63.8000 0008352 321.7173  38.2058  1.86231484 52015
BEIDOU-3 M14 (C33)      
1 43623U 18072B   26133.49911569 -.00000035  00000+0  00000+0 0  9992
2 43623  56.5975  63.7985 0006636 347.5054  12.4607  1.86231510 52008
BEIDOU-3 M16 (C35)      
1 43647U 18078A   26132.58110638 -.00000042  00000+0  00000+0 0  9999
2 43647  54.1235 301.2337 0007880  39.7391 320.3068  1.86232272 51494
BEIDOU-3 M15 (C34)      
1 43648U 18078B   26132.71039991 -.00000043  00000+0  00000+0 0  9998
2 43648  54.1193 301.2299 0005041  52.0835 307.9498  1.86232596 51513
BEIDOU-3 G1 (C59)       
1 43683U 18085A   26133.70890306 -.00000093  00000+0  00000+0 0  9995
2 43683   2.9862  98.2826 0007539 339.3962 208.9822  1.00272631 27717
COSMOS 2529 (757)       
1 43687U 18086A   26132.04825520  .00000058  00000+0  00000+0 0  9992
2 43687  64.2931 193.8143 0010911 255.4886 104.4650  2.13102225 58511
BEIDOU-3 M17 (C36)      
1 43706U 18093A   26131.35359073  .00000068  00000+0  00000+0 0  9991
2 43706  54.1670 183.5464 0009480 290.8488 131.5748  1.86228417 50852
BEIDOU-3 M18 (C37)      
1 43707U 18093B   26132.73439434  .00000084  00000+0  00000+0 0  9993
2 43707  54.1678 183.4917 0007396 321.8656  38.1678  1.86226542 50872
GPS BIII-1  (PRN 04)    
1 43873U 18109A   26133.27601630  .00000036  00000+0  00000+0 0  9991
2 43873  55.6614  93.5638 0038033 198.7177 277.7554  2.00560030 54377
BEIDOU-3 IGSO-1 (C38)   
1 44204U 19023A   26132.76772565 -.00000227  00000+0  00000+0 0  9998
2 44204  58.6468  38.0171 0023856 234.3090 349.8662  1.00250503  6851
BEIDOU-2 G8 (C01)       
1 44231U 19027A   26134.20492918 -.00000232  00000+0  00000+0 0  9990
2 44231   1.5713  74.4250 0010829 281.6698  94.1696  1.00272839 25740
COSMOS 2534 (758)       
1 44299U 19030A   26130.46780834  .00000041  00000+0  00000+0 0  9996
2 44299  64.3663 193.8862 0012337 276.0898  85.9352  2.13102604 54124
BEIDOU-3 IGSO-2 (C39)   
1 44337U 19035A   26132.65390358 -.00000046  00000+0  00000+0 0  9991
2 44337  55.2385 159.1745 0039680 215.7907 210.7620  1.00277740 25317
GPS BIII-2  (PRN 18)    
1 44506U 19056A   26133.90933116 -.00000052  00000+0  00000+0 0  9993
2 44506  55.6532 332.5055 0060344 197.4140 279.0390  2.00569245 49380
BEIDOU-3 M24 (C46)      
1 44542U 19061A   26133.34045131  .00000090  00000+0  00000+0 0  9999
2 44542  54.3947 183.9035 0008074   2.8226 357.2705  1.86229288 45140
BEIDOU-3 M23 (C45)      
1 44543U 19061B   26134.17973947  .00000096  00000+0  00000+0 0  9993
2 44543  54.3932 183.8436 0005229 341.9949 132.6039  1.86227353 45165
EUTELSAT 5 WEST B (EGN*)
1 44624U 19067A   26134.16503322 -.00000029  00000+0  00000+0 0  9991
2 44624   0.0660 354.7790 0002993  54.3711 237.1845  1.00271153 24098
BEIDOU-3 IGSO-3 (C40)   
1 44709U 19073A   26120.85038409 -.00000212  00000+0  00000+0 0  9996
2 44709  54.8842 281.4069 0042404 188.8195 170.9972  1.00251230 23982
BEIDOU-3 M22 (C44)      
1 44793U 19078A   26133.17974627 -.00000045  00000+0  00000+0 0  9998
2 44793  53.9691 301.0594 0007131  47.8476 312.1989  1.86227440 43994
BEIDOU-3 M21 (C43)      
1 44794U 19078B   26130.09800295 -.00000037  00000+0  00000+0 0  9997
2 44794  53.9450 301.1295 0004992  44.9662 315.0658  1.86228028 43947
COSMOS 2544 (759)       
1 44850U 19088A   26130.95764889  .00000015  00000+0  00000+0 0  9999
2 44850  65.5460  74.9726 0014547 261.4033  98.4208  2.13102139 49921
BEIDOU-3 M19 (C41)      
1 44864U 19090A   26133.83522501 -.00000036  00000+0  00000+0 0  9994
2 44864  56.5298  63.9264 0018790 297.2408 245.4246  1.86231523 43599
BEIDOU-3 M20 (C42)      
1 44865U 19090B   26133.70218928 -.00000035  00000+0  00000+0 0  9995
2 44865  56.5316  63.9655 0016943 309.1689 233.9068  1.86231614 43570
BEIDOU-3 G2 (C60)       
1 45344U 20017A   26134.12084611 -.00000127  00000+0  00000+0 0  9998
2 45344   2.7953  46.7974 0002580  10.0734 298.5569  1.00272470 22916
COSMOS 2545 (760)       
1 45358U 20018A   26133.02995297 -.00000015  00000+0  00000+0 0  9999
2 45358  64.3767 313.6549 0007272 235.7130 124.2309  2.13102673 47917
BEIDOU-3 G3 (C61)       
1 45807U 20040A   26134.05561519 -.00000340  00000+0  00000+0 0  9994
2 45807   2.3629  67.3472 0003310 334.3289 320.6897  1.00274836 21724
GPS BIII-3  (PRN 23)    
1 45854U 20041A   26132.65692499 -.00000071  00000+0  00000+0 0  9994
2 45854  56.6475  30.3230 0062604 204.7790  27.1781  2.00559403 43325
GALAXY 30 (WAAS/PRN 135)
1 46114U 20056C   26133.93768962  .00000050  00000+0  00000+0 0  9997
2 46114   0.0122 322.2631 0002367 105.1890  16.8167  1.00271761 20943
COSMOS 2547 (705K)      
1 46805U 20075A   26134.15772763  .00000079  00000+0  00000+0 0  9995
2 46805  64.5960 193.6097 0008943 240.1865 119.8080  2.13105154 43185
GPS BIII-4  (PRN 14)    
1 46826U 20078A   26133.42120082  .00000032  00000+0  00000+0 0  9990
2 46826  53.9849 212.1890 0071966 206.1961 192.8211  2.00564808 40813
GPS BIII-5  (PRN 11)    
1 48859U 21054A   26133.36056228 -.00000053  00000+0  00000+0 0  9990
2 48859  55.1902 333.8601 0024454 229.2119 311.8696  2.00571165 36052
QZS-1R (QZSS/PRN 196)   
1 49336U 21096A   26131.73655836 -.00000197  00000+0  00000+0 0  9995
2 49336  37.3883  80.1221 0752295 271.1006 279.0052  1.00268135 16648
GSAT0223 (GALILEO 27)   
1 49809U 21116A   26133.08767361 -.00000058  00000+0  00000+0 0  9996
2 49809  57.1731 342.6239 0000612 234.7586 303.7075  1.70475762 27585
GSAT0224 (GALILEO 28)   
1 49810U 21116B   26134.08629531 -.00000059  00000+0  00000+0 0  9996
2 49810  57.1734 342.5955 0000347 113.4739  70.4838  1.70475706 27620
COSMOS 2557 (706K)      
1 52984U 22075A   26133.38373156 -.00000017  00000+0  00000+0 0  9992
2 52984  64.3189 315.7114 0010072 279.0223  80.8784  2.13102035 29977
COSMOS 2559 (707K)      
1 54031U 22130A   26130.85697598 -.00000012  00000+0  00000+0 0  9992
2 54031  64.2936 315.8848 0011772 176.1333 183.8938  2.13101551 27899
COSMOS 2564 (761)       
1 54377U 22161A   26133.04666587  .00000069  00000+0  00000+0 0  9998
2 54377  64.7392 193.8779 0011540 222.0569 137.9328  2.13101986 26888
GPS BIII-6  (PRN 28)    
1 55268U 23009A   26133.55116118  .00000117  00000+0  00000+0 0  9990
2 55268  55.1171 149.8805 0005990 314.6521  41.8863  2.00573844 24546
BEIDOU-3 G4 (C62)       
1 56564U 23066A   26133.34847302 -.00000270  00000+0  00000+0 0  9997
2 56564   0.5332 323.1662 0003490 161.2314  12.1224  1.00265956 11040
NVS-01 (IRNSS-1J)       
1 56759U 23076A   26134.20198250 -.00000322  00000+0  00000+0 0  9999
2 56759   2.2469 245.8598 0004332  54.7589 133.6198  1.00269957 10773
COSMOS 2569 (703K)      
1 57517U 23114A   26133.05905253  .00000000  00000+0  00000+0 0  9998
2 57517  65.2834  73.8045 0011935 296.1840  63.6770  2.13103720 21518
BEIDOU-3 M28 (C50)      
1 58654U 23207A   26132.32302171 -.00000030  00000+0  00000+0 0  9997
2 58654  55.7225  63.5128 0004245 330.2096  29.7521  1.86229701 16176
BEIDOU-3 M26 (C48)      
1 58655U 23207B   26133.19442947 -.00000035  00000+0  00000+0 0  9995
2 58655  55.7254  63.4698 0004439 309.9191  50.0256  1.86229669 16179
GSAT0225 (GALILEO 29)   
1 59598U 24079A   26133.50947432  .00000053  00000+0  00000+0 0  9993
2 59598  55.0983 102.0485 0002416 282.1756 260.9730  1.70474205 12721
GSAT0227 (GALILEO 30)   
1 59600U 24079C   26132.22126720  .00000057  00000+0  00000+0 0  9998
2 59600  55.0936 102.0828 0001530  23.5037 336.4810  1.70474232 12750
GSAT0232 (GALILEO 32)   
1 61182U 24167A   26133.63130446  .00000012  00000+0  00000+0 0  9991
2 61182  55.1949 222.2621 0005340 217.4341 143.4556  1.70474390 10299
GSAT0226 (GALILEO 31)   
1 61183U 24167B   26133.59057392  .00000012  00000+0  00000+0 0  9995
2 61183  55.1937 222.2705 0002228 207.8161 219.4163  1.70474355 10261
BEIDOU-3 M25 (C47)      
1 61186U 24168B   26133.64853742 -.00000046  00000+0  00000+0 0  9996
2 61186  54.5055 303.4426 0003107 313.1009 108.5394  1.86229985 11145
BEIDOU-3 M27 (C49)      
1 61187U 24168C   26133.36745762 -.00000045  00000+0  00000+0 0  9997
2 61187  54.5014 303.4354 0002241  43.5716 324.6381  1.86230101  8615
GPS BIII-7  (PRN 01)    
1 62339U 24242A   26132.18781948 -.00000054  00000+0  00000+0 0  9995
2 62339  54.8657 335.6414 0017084   3.1785 171.5342  2.00570893 10536
NVS-02 (IRNSS-1K)       
1 62850U 25020A   26133.53524009  .00000848  00000+0  81213-3 0  9990
2 62850  20.7657 271.8879 7348453 126.2707 325.4804  2.17923374 10220
QZS-6 (QZSS/PRN 200)    
1 62876U 25023A   26134.05162851 -.00000219  00000+0  00000+0 0  9996
2 62876   0.0423 283.5479 0002111 136.8775 280.4566  1.00267999  4615
COSMOS 2584 (704K)      
1 63130U 25042A   26132.00743125  .00000007  00000+0  00000+0 0  9997
2 63130  65.0650  74.0315 0006355 235.0573 124.8698  2.13103732  9279
GPS BIII-8  (PRN 21)    
1 64202U 25116A   26120.52613794 -.00000106  00000+0  00000+0 0  9993
2 64202  55.2044  33.0485 0009186 336.4638 239.4024  2.00549603  6915
COSMOS 2596 (708K)      
1 65590U 25206B   26132.08725519 -.00000012  00000+0  00000+0 0  9993
2 65590  64.6568 316.2427 0011354 315.8273 222.0958  2.13100605  5146
GSAT0233 (GALILEO 33)   
1 67160U 25302A   26132.45034041  .00000057  00000+0  00000+0 0  9997
2 67160  54.3135 103.1487 0001901 244.8588 299.0758  1.70474342  2517
GSAT0234 (GALILEO 34)   
1 67162U 25302C   26133.39338373  .00000054  00000+0  00000+0 0  9995
2 67162  54.3149 103.1209 0003789 297.7699 285.0412  1.70474315  2581
GPS BIII-9  (PRN 20)    
1 67588U 26017A   26133.29810109  .00000027  00000+0  00000+0 0  9992
2 67588  55.0667  90.1549 0023003 255.4228 104.2985  2.00571815430914
GPS BIII-10 (PRN 13)    
1 68791U 26087A   26133.55555556  .00000040  00000+0  00000+0 0  9992
2 68791  54.9658 209.1573 0021621 106.2051 285.2407  2.00569311   144
