IRIDIUM 33
1 24946U 97051C   09040.36587205  .00000121  00000-0  36194-4 0  9997
2 24946 086.3996 121.8779 0002273 085.9342 274.2112 14.34219614597272
COSMOS 2251
1 22675U 93036A   09040.49834364 -.00000001  00000-0  95251-5 0  9996
2 22675 074.0355 019.4646 0016027 098.7014 261.5952 14.31135643817415
IRIDIUM 33
1 24946U 97051C   09040.78448243 +.00000153 +00000-0 +47668-4 0  9994
2 24946 086.3994 121.7028 0002288 085.1644 274.9812 14.34219863597336
COSMOS 2251
1 22675U 93036A   09041.75659016 -.00000010  00000-0  60222-5 0  9995
2 22675 074.0357 017.1729 0016015 095.9865 264.3113 14.31135598817592
IRIDIUM 33
1 24946U 97051C   09041.76123952  .00000148  00000-0  45664-4 0  9998
2 24946 086.3989 121.2960 0002253 089.6115 270.5342 14.34220263597475
